BuildingType,PrimaryPropertyType,ZipCode,CouncilDistrictCode,Neighborhood,Latitude,Longitude,NumberofFloors,PropertyGFATotal,PropertyGFAParking,ENERGYSTARScore,SteamUse(kBtu),TotalGHGEmissions,BuildingAge
NonResidential,Hotel,98101.0,7,DOWNTOWN,47.6122,-122.33799,12,88434,0,60.0,2003882.0,249.98,89
NonResidential,Hotel,98101.0,7,DOWNTOWN,47.61317,-122.33393,11,103566,15064,61.0,0.0,295.86,20
NonResidential,Hotel,98101.0,7,DOWNTOWN,47.61393,-122.3381,41,956110,196718,43.0,21566554.0,2089.28,47
NonResidential,Hotel,98101.0,7,DOWNTOWN,47.61412,-122.33664,10,61320,0,56.0,2214446.25,286.43,90
NonResidential,Hotel,98121.0,7,DOWNTOWN,47.61375,-122.34047,18,175580,62000,75.0,0.0,505.01,36
Nonresidential COS,Other,98101.0,7,DOWNTOWN,47.61623,-122.33657,2,97288,37198,,0.0,301.81,17
NonResidential,Hotel,98101.0,7,DOWNTOWN,47.6139,-122.33283,11,83008,0,27.0,0.0,176.14,90
NonResidential,Other,98101.0,7,DOWNTOWN,47.61327,-122.33136,8,102761,0,,2276286.5,221.51,90
NonResidential,Hotel,98104.0,7,DOWNTOWN,47.60294,-122.33263,15,163984,0,43.0,0.0,392.16,112
NonResidential,Hotel,98101.0,7,DOWNTOWN,47.60695,-122.33414,11,153163,19279,30.0,5237165.5,691.26,47
NonResidential,Hotel,98101.0,7,DOWNTOWN,47.60713,-122.33323,25,333176,61161,36.0,5999360.5,740.97,18
NonResidential,Hotel,98104.0,7,DOWNTOWN,47.60699,-122.33346,9,65009,0,48.0,1656352.5,328.23,88
NonResidential,Hotel,98101.0,7,DOWNTOWN,47.60809,-122.33212,33,315952,57600,58.0,4337738.5,648.62,36
NonResidential,Hotel,98101.0,7,DOWNTOWN,47.60755,-122.33244,11,92190,25200,35.0,4870847.5,511.39,94
Nonresidential COS,Other,98154.0,7,DOWNTOWN,47.60649,-122.33297,11,412000,57000,,737559.5,181.38,12
NonResidential,Other,98104.0,7,DOWNTOWN,47.60546,-122.33279,6,103911,0,,4592347.5,433.86,86
NonResidential,Hotel,98104.0,7,DOWNTOWN,47.60681,-122.33078,28,416281,85000,31.0,0.0,802.89,33
NonResidential,Mixed Use Property,98104.0,7,DOWNTOWN,47.60515,-122.33159,5,57452,0,,1776201.875,273.02,109
NonResidential,Hotel,98104.0,7,DOWNTOWN,47.60376,-122.33194,10,104352,0,39.0,3430862.0,349.32,100
NonResidential,Other,98104.0,7,DOWNTOWN,47.60265,-122.33051,10,540360,0,76.0,0.0,1265.29,100
NonResidential,Other,98104.0,3,DOWNTOWN,47.60378,-122.32842,19,385274,0,,0.0,1699.45,31
SPS-District K-12,K-12 School,98118.0,2,SOUTHEAST,47.54576,-122.26853,2,56228,0,95.0,0.0,38.53,55
NonResidential,Hotel,98105.0,4,NORTHEAST,47.65959,-122.31755,6,88592,30586,84.0,0.0,90.01,15
NonResidential,University,98121.0,7,DOWNTOWN,47.61816,-122.33629,7,126593,0,,0.0,388.04,88
NonResidential,Other,98101.0,7,DOWNTOWN,47.615,-122.33081,2,67224,0,,0.0,9.13,86
NonResidential,Hotel,98101.0,7,EAST,47.61301,-122.32929,8,158676,30301,,0.0,256.57,25
NonResidential,Hotel,98101.0,7,DOWNTOWN,47.61784,-122.32966,10,171866,38281,57.0,0.0,328.63,15
NonResidential,Hotel,98121.0,7,DOWNTOWN,47.61558,-122.34186,5,68410,16200,57.0,0.0,128.44,38
SPS-District K-12,K-12 School,98125.0,5,NORTH,47.70994,-122.29301,2,160645,0,75.0,0.0,270.18,67
SPS-District K-12,K-12 School,98109.0,7,MAGNOLIA / QUEEN ANNE,47.6329,-122.35172,2,51582,0,,0.0,10.43,27
NonResidential,Small- and Mid-Sized Office,98070.0,4,LAKE UNION,47.6641,-122.33118,3,87262,0,,0.0,157.77,110
NonResidential,Hotel,98105.0,4,NORTHEAST,47.66583,-122.29965,4,81871,0,29.0,0.0,215.0,22
NonResidential,Self-Storage Facility,98105.0,4,NORTHEAST,47.66172,-122.29598,2,110356,0,,0.0,3.93,61
Campus,Mixed Use Property,98108.0,2,GREATER DUWAMISH,47.53493,-122.31788,3,494835,0,8.0,0.0,16870.98,24
NonResidential,Warehouse,98118.0,2,GREATER DUWAMISH,47.51138,-122.28875,2,714095,0,,0.0,311.84,55
SPS-District K-12,K-12 School,98199.0,7,MAGNOLIA / QUEEN ANNE,47.65671,-122.39047,2,54986,0,97.0,0.0,31.47,26
SPS-District K-12,K-12 School,98115.0,4,NORTHEAST,47.68252,-122.29498,2,175565,0,88.0,0.0,266.05,66
NonResidential,Small- and Mid-Sized Office,98107.0,6,BALLARD,47.66587,-122.38476,2,94900,0,57.0,0.0,130.56,55
NonResidential,Small- and Mid-Sized Office,98144.0,2,GREATER DUWAMISH,47.58034,-122.31132,2,52554,0,83.0,0.0,83.86,116
NonResidential,K-12 School,98103.0,6,NORTHWEST,47.68891,-122.33553,3,175015,0,95.0,0.0,247.85,62
NonResidential,Self-Storage Facility,98121.0,7,DOWNTOWN,47.61351,-122.35129,3,70586,0,,0.0,45.43,105
NonResidential,Hotel,98101.0,7,DOWNTOWN,47.60946,-122.33337,24,332210,205970,67.0,0.0,295.33,47
NonResidential,Large Office,98101.0,7,DOWNTOWN,47.6113,-122.33659,5,168115,0,78.0,0.0,66.48,43
NonResidential,Other,98101.0,7,DOWNTOWN,47.61076,-122.33765,2,57428,0,,0.0,33.26,96
NonResidential,Small- and Mid-Sized Office,98101.0,7,DOWNTOWN,47.61048,-122.33794,8,59400,0,14.0,0.0,35.36,106
NonResidential,Mixed Use Property,98101.0,7,DOWNTOWN,47.60886,-122.33744,2,52549,0,,0.0,584.31,90
NonResidential,Hotel,98101.0,7,DOWNTOWN,47.61233,-122.33432,20,98634,10043,71.0,0.0,59.19,86
NonResidential,Hotel,98101.0,7,DOWNTOWN,47.61087,-122.33339,34,994212,146694,63.0,11598686.0,2451.58,34
NonResidential,Hotel,98101.0,7,DOWNTOWN,47.60997,-122.34138,7,71150,0,98.0,0.0,134.38,31
NonResidential,Hotel,98101.0,7,DOWNTOWN,47.61155,-122.34114,7,122810,0,99.0,0.0,227.18,108
NonResidential,Hotel,98109.0,7,LAKE UNION,47.61986,-122.34413,5,113173,42546,86.0,0.0,144.79,57
NonResidential,Hotel,98109.0,7,LAKE UNION,47.62001,-122.34274,7,150453,34735,84.0,0.0,199.95,16
NonResidential,Hotel,98109.0,7,LAKE UNION,47.62025,-122.34314,6,116300,28200,80.0,0.0,162.39,19
NonResidential,Hotel,98119.0,7,MAGNOLIA / QUEEN ANNE,47.62023,-122.35951,6,155602,36744,81.0,0.0,152.76,18
NonResidential,K-12 School,98136.0,3,EAST,47.63442,-122.30793,3,56072,0,76.0,0.0,146.34,105
NonResidential,Hotel,98109.0,7,MAGNOLIA / QUEEN ANNE,47.62519,-122.34456,4,122942,44891,94.0,0.0,171.64,17
NonResidential,Small- and Mid-Sized Office,98122.0,3,CENTRAL,47.60823,-122.30956,2,54984,0,71.0,0.0,87.98,54
NonResidential,Senior Care Community,98126.0,1,SOUTHWEST,47.55837,-122.37751,5,217603,0,54.0,0.0,1727.11,94
NonResidential,Senior Care Community,98133.0,5,NORTHWEST,47.72426,-122.35599,2,93397,0,1.0,0.0,609.1,46
NonResidential,Hotel,98109.0,7,LAKE UNION,47.61988,-122.33211,6,84103,20732,74.0,0.0,67.06,8
SPS-District K-12,K-12 School,98146.0,1,SOUTHWEST,47.5097,-122.37759,2,53352,0,,0.0,4.19,68
NonResidential,Medical Office,98122.0,3,EAST,47.61244,-122.3214,3,179014,0,48.0,0.0,430.84,51
NonResidential,Hotel,98104.0,3,EAST,47.60898,-122.32693,7,76631,0,71.0,0.0,262.75,108
NonResidential,Mixed Use Property,98104.0,3,EAST,47.60845,-122.32637,6,99780,9341,,5327802.5,481.97,33
NonResidential,Retail Store,98109.0,7,LAKE UNION,47.62237,-122.33805,2,58320,0,96.0,0.0,39.06,87
NonResidential,Large Office,98109.0,7,LAKE UNION,47.62424,-122.33646,5,316306,0,96.0,0.0,138.85,6
NonResidential,Hotel,98109.0,3,LAKE UNION,47.62642,-122.33325,7,282863,44766,37.0,0.0,526.85,26
Nonresidential COS,Other,98109.0,7,MAGNOLIA / QUEEN ANNE,47.62208,-122.35398,1,389000,0,,6093150.0,607.41,54
Nonresidential COS,Other,98109.0,7,MAGNOLIA / QUEEN ANNE,47.62208,-122.35398,1,91213,0,,4120130.0,344.2,54
Nonresidential COS,Other,98109.0,7,MAGNOLIA / QUEEN ANNE,47.62208,-122.35398,5,396085,0,,9763690.0,804.2,78
NonResidential,Large Office,98109.0,7,LAKE UNION,47.62112,-122.33629,12,571329,0,91.0,0.0,617.52,6
Nonresidential COS,Other,98109.0,7,MAGNOLIA / QUEEN ANNE,47.62395,-122.35077,2,52000,0,,1202380.0,101.83,54
Nonresidential COS,Other,98109.0,7,MAGNOLIA / QUEEN ANNE,47.62395,-122.35077,1,60696,0,,0.0,6.11,88
Nonresidential COS,Other,98109.0,7,MAGNOLIA / QUEEN ANNE,47.62395,-122.35143,2,262048,0,,5137220.0,490.73,88
NonResidential,Small- and Mid-Sized Office,98109.0,7,MAGNOLIA / QUEEN ANNE,47.62391,-122.34837,2,66240,2352,,0.0,29.04,30
NonResidential,Large Office,98109.0,7,MAGNOLIA / QUEEN ANNE,47.62419,-122.34443,6,920598,303707,93.0,0.0,674.09,6
NonResidential,Small- and Mid-Sized Office,98033.0,7,MAGNOLIA / QUEEN ANNE,47.62053,-122.35842,4,76213,25930,68.0,0.0,48.76,46
NonResidential,Hotel,98109.0,7,MAGNOLIA / QUEEN ANNE,47.62291,-122.35708,6,96910,36934,56.0,0.0,152.14,14
NonResidential,Hotel,98105.0,4,NORTHEAST,47.65772,-122.31756,4,50017,0,53.0,0.0,191.2,54
SPS-District K-12,K-12 School,98106.0,1,DELRIDGE,47.5636,-122.358,3,74468,0,,0.0,11.84,17
NonResidential,K-12 School,98112.0,3,EAST,47.62548,-122.30828,3,67743,0,34.0,0.0,78.85,93
NonResidential,K-12 School,98112.0,3,EAST,47.62644,-122.30429,6,194104,0,100.0,0.0,243.23,108
NonResidential,Small- and Mid-Sized Office,98144.0,3,SOUTHEAST,47.58408,-122.30125,3,99433,35752,63.0,0.0,34.14,13
SPS-District K-12,K-12 School,98144.0,2,SOUTHEAST,47.57324,-122.29058,2,58933,0,,0.0,16.36,25
SPS-District K-12,K-12 School,98108.0,2,GREATER DUWAMISH,47.56413,-122.31208,1,130862,0,61.0,0.0,238.48,59
SPS-District K-12,K-12 School,98118.0,2,SOUTHEAST,47.55478,-122.27596,3,59955,0,93.0,0.0,20.48,27
SPS-District K-12,K-12 School,98119.0,7,MAGNOLIA / QUEEN ANNE,47.63683,-122.35896,2,93218,0,86.0,0.0,84.75,52
NonResidential,Other,98115.0,4,NORTHEAST,47.67524,-122.31534,4,56521,0,,0.0,44.32,75
NonResidential,Other,98115.0,4,NORTHEAST,47.67559,-122.31769,2,206934,0,,0.0,133.58,87
NonResidential,Hotel,98133.0,5,NORTHWEST,47.73141,-122.3458,4,51390,0,89.0,0.0,127.29,15
SPS-District K-12,K-12 School,98133.0,5,NORTHWEST,47.72463,-122.35315,2,131013,0,88.0,0.0,124.92,53
SPS-District K-12,K-12 School,98133.0,5,NORTHWEST,47.7257,-122.33684,1,245587,0,92.0,0.0,443.73,57
NonResidential,Hotel,98133.0,5,NORTHWEST,47.72551,-122.3423,3,69138,0,78.0,0.0,89.02,14
SPS-District K-12,K-12 School,98103.0,6,LAKE UNION,47.65464,-122.34912,3,66588,0,,0.0,14.67,25
NonResidential,Hotel,98104.0,7,DOWNTOWN,47.6048,-122.3368,5,190980,0,98.0,0.0,142.39,112
Nonresidential COS,Other,98111.0,7,DOWNTOWN,47.60804,-122.3367,6,284100,0,,4311136.0,429.12,18
NonResidential,Hospital,98107.0,6,BALLARD,47.66737,-122.37956,5,285333,0,14.0,0.0,1990.5,62
SPS-District K-12,K-12 School,98107.0,6,BALLARD,47.6706,-122.36225,2,55513,0,93.0,0.0,10.55,25
Nonresidential COS,Other,98104.0,2,DOWNTOWN,47.60112,-122.32785,4,61156,0,,0.0,176.75,10
NonResidential,Other,98104.0,2,DOWNTOWN,47.59809,-122.32283,4,72820,13820,,0.0,46.26,106
NonResidential,Hotel,98109.0,7,MAGNOLIA / QUEEN ANNE,47.62614,-122.3467,4,162222,14200,76.0,0.0,228.4,20
SPS-District K-12,K-12 School,98144.0,2,SOUTHEAST,47.57589,-122.29365,4,289588,0,90.0,0.0,170.84,26
NonResidential,University,98122.0,3,EAST,47.61495,-122.32177,3,63330,0,,0.0,74.33,101
Campus,University,98106.0,1,DELRIDGE,47.547,-122.35307,2,441071,0,,0.0,866.23,46
NonResidential,Small- and Mid-Sized Office,98115.0,4,NORTHEAST,47.67828,-122.26456,2,96300,0,,0.0,222.02,14
Nonresidential COS,Other,98134.0,2,GREATER DUWAMISH,47.59545,-122.32146,1,67356,0,,0.0,204.08,66
SPS-District K-12,K-12 School,98122.0,3,CENTRAL,47.60598,-122.30156,3,254523,0,60.0,0.0,359.09,8
SPS-District K-12,K-12 School,98118.0,2,SOUTHEAST,47.51482,-122.25864,3,78804,0,92.0,0.0,56.82,15
SPS-District K-12,K-12 School,98122.0,3,CENTRAL,47.61224,-122.29087,3,66994,0,79.0,0.0,41.74,14
SPS-District K-12,K-12 School,98118.0,2,GREATER DUWAMISH,47.52915,-122.28904,3,98357,0,88.0,0.0,94.64,16
NonResidential,Small- and Mid-Sized Office,98118.0,2,GREATER DUWAMISH,47.53827,-122.28406,1,54765,0,,0.0,61.21,58
NonResidential,Other,98118.0,2,GREATER DUWAMISH,47.53722,-122.284,5,89821,0,,0.0,100.46,7
NonResidential,University,98119.0,7,MAGNOLIA / QUEEN ANNE,47.65147,-122.36122,2,52611,0,,0.0,104.26,36
NonResidential,Residence Hall,98119.0,7,MAGNOLIA / QUEEN ANNE,47.65068,-122.36331,4,139600,37500,89.0,0.0,129.39,15
SPS-District K-12,K-12 School,98125.0,5,NORTH,47.70763,-122.29453,2,236758,0,96.0,0.0,222.78,5
NonResidential,Other,98122.0,3,CENTRAL,47.60462,-122.31549,6,250981,0,,4336524.5,422.39,45
SPS-District K-12,K-12 School,98117.0,6,NORTHWEST,47.68725,-122.35996,3,62526,0,96.0,0.0,54.07,14
NonResidential,Other,98101.0,7,DOWNTOWN,47.61598,-122.33448,11,299070,68432,,0.0,2055.82,12
NonResidential,Small- and Mid-Sized Office,98108.0,2,GREATER DUWAMISH,47.536,-122.31768,3,64015,0,21.0,0.0,49.58,9
NonResidential,Retail Store,98125.0,5,NORTH,47.70759,-122.3255,1,530039,0,98.0,0.0,723.47,65
NonResidential,Other,98125.0,5,NORTH,47.7066,-122.321,3,54224,0,,0.0,231.53,52
NonResidential,Retail Store,98125.0,5,NORTH,47.70619,-122.32586,4,124342,0,76.0,0.0,66.3,51
NonResidential,Hospital,98105.0,4,NORTHEAST,47.66231,-122.28146,10,879000,0,10.0,0.0,8145.52,63
NonResidential,Other,98133.0,5,NORTHWEST,47.70956,-122.3345,3,55442,0,72.0,0.0,83.7,20
SPS-District K-12,K-12 School,98117.0,6,BALLARD,47.67661,-122.37489,2,242795,0,80.0,0.0,123.71,17
NonResidential,Self-Storage Facility,98122.0,3,EAST,47.61233,-122.3171,5,84870,0,,0.0,51.11,106
Campus,University,98103.0,5,NORTHWEST,47.69936,-122.33401,2,694072,111625,,0.0,362.82,46
SPS-District K-12,K-12 School,98118.0,2,SOUTHEAST,47.54632,-122.28198,2,173185,0,79.0,0.0,242.36,64
SPS-District K-12,K-12 School,98106.0,1,DELRIDGE,47.54862,-122.36214,1,145341,0,75.0,0.0,206.01,53
NonResidential,Warehouse,98108.0,2,GREATER DUWAMISH,47.55152,-122.31869,4,114297,0,61.0,0.0,69.44,112
SPS-District K-12,K-12 School,98118.0,2,SOUTHEAST,47.52407,-122.26586,2,184125,0,86.0,0.0,328.97,56
SPS-District K-12,K-12 School,98117.0,6,BALLARD,47.69675,-122.3776,1,160270,0,,0.0,229.38,57
NonResidential,Warehouse,98134.0,2,GREATER DUWAMISH,47.55901,-122.33328,1,234144,0,87.0,0.0,297.43,79
NonResidential,Retail Store,98126.0,1,DELRIDGE,47.52254,-122.36627,1,64984,0,72.0,0.0,35.78,50
NonResidential,Retail Store,98126.0,1,DELRIDGE,47.52254,-122.36627,1,67745,0,37.0,0.0,369.14,51
SPS-District K-12,K-12 School,98126.0,1,DELRIDGE,47.52915,-122.36511,2,367884,0,97.0,0.0,272.85,6
SPS-District K-12,K-12 School,98126.0,1,DELRIDGE,47.51778,-122.37074,1,46797,0,86.0,0.0,73.47,58
SPS-District K-12,K-12 School,98144.0,3,CENTRAL,47.59796,-122.30415,3,136188,0,,0.0,170.9,53
NonResidential,Other,98117.0,6,BALLARD,47.67767,-122.39631,3,56000,0,,0.0,59.34,43
SPS-District K-12,K-12 School,98118.0,2,SOUTHEAST,47.54174,-122.27691,2,67371,0,92.0,0.0,46.36,12
NonResidential,Self-Storage Facility,98126.0,1,SOUTHWEST,47.54508,-122.37737,2,52088,0,,0.0,48.99,47
SPS-District K-12,K-12 School,98103.0,4,LAKE UNION,47.65708,-122.33803,3,127776,0,75.0,0.0,80.08,6
NonResidential,Hotel,98109.0,3,LAKE UNION,47.62972,-122.32906,5,123920,30000,79.0,0.0,309.6,18
Nonresidential COS,Other,98109.0,3,LAKE UNION,47.62759,-122.33661,1,50000,0,,0.0,225.69,116
Nonresidential COS,Warehouse,98109.0,7,MAGNOLIA / QUEEN ANNE,47.62591,-122.34084,2,50292,0,,0.0,3.0,90
NonResidential,Hotel,98109.0,7,MAGNOLIA / QUEEN ANNE,47.62782,-122.34045,7,207656,54341,76.0,0.0,338.16,18
SPS-District K-12,K-12 School,98117.0,6,BALLARD,47.68359,-122.37308,2,67235,0,89.0,0.0,49.12,17
Nonresidential COS,Small- and Mid-Sized Office,98103.0,5,NORTHWEST,47.70044,-122.34136,2,91130,0,,0.0,175.77,59
SPS-District K-12,K-12 School,98136.0,1,SOUTHWEST,47.54025,-122.3885,3,58118,0,97.0,0.0,21.29,25
NonResidential,Hotel,98133.0,5,NORTHWEST,47.70916,-122.33216,4,64893,0,70.0,0.0,208.26,48
SPS-District K-12,K-12 School,98108.0,2,GREATER DUWAMISH,47.53809,-122.29591,1,70762,0,87.0,0.0,168.88,91
NonResidential,Small- and Mid-Sized Office,98104.0,7,DOWNTOWN,47.60105,-122.33518,3,44558,0,78.0,0.0,28.27,116
NonResidential,Other,98134.0,2,GREATER DUWAMISH,47.59544,-122.33159,6,1585960,327680,,0.0,892.63,17
Nonresidential COS,Distribution Center,98134.0,2,GREATER DUWAMISH,47.57199,-122.32811,2,179161,0,,0.0,96.43,92
Nonresidential COS,Warehouse,98134.0,2,GREATER DUWAMISH,47.57199,-122.32811,2,58640,0,,0.0,27.39,51
NonResidential,Other,98134.0,2,GREATER DUWAMISH,47.59085,-122.33354,3,1172127,0,,0.0,1246.55,17
NonResidential,Hotel,98134.0,2,GREATER DUWAMISH,47.59269,-122.33372,9,168449,14567,64.0,0.0,388.37,11
NonResidential,Warehouse,98134.0,1,GREATER DUWAMISH,47.57507,-122.35747,4,79600,0,34.0,0.0,16.81,100
SPS-District K-12,K-12 School,98103.0,4,LAKE UNION,47.65996,-122.33962,4,241066,0,79.0,0.0,270.97,19
Campus,Large Office,98108.0,1,GREATER DUWAMISH,47.52429,-122.31234,2,334368,31874,,0.0,748.55,36
NonResidential,Other,98125.0,5,NORTH,47.70281,-122.32532,6,419848,335109,,0.0,162.41,8
NonResidential,Mixed Use Property,98119.0,7,MAGNOLIA / QUEEN ANNE,47.6239,-122.35756,4,110785,0,,0.0,92.91,14
NonResidential,Hotel,98101.0,7,DOWNTOWN,47.61275,-122.3333,0,934292,0,,0.0,1638.46,17
NonResidential,Hospital,98122.0,3,CENTRAL,47.60705,-122.30966,5,597519,0,34.0,0.0,4906.33,26
SPS-District K-12,K-12 School,98106.0,1,DELRIDGE,47.52518,-122.34828,1,71714,0,87.0,0.0,36.24,17
NonResidential,Warehouse,98103.0,4,LAKE UNION,47.65097,-122.34227,3,75397,8161,91.0,0.0,9.63,25
NonResidential,Hospital,98104.0,3,EAST,47.60399,-122.32377,8,1158691,0,29.0,122575032.0,10734.57,16
NonResidential,Senior Care Community,98104.0,2,DOWNTOWN,47.59626,-122.3218,5,102796,12611,,0.0,193.94,17
SPS-District K-12,K-12 School,98116.0,1,SOUTHWEST,47.57678,-122.38459,2,208981,0,80.0,0.0,207.79,14
NonResidential,K-12 School,98105.0,4,NORTHEAST,47.66568,-122.31368,2,55653,0,98.0,0.0,72.88,88
NonResidential,Hotel,98105.0,4,NORTHEAST,47.66151,-122.31457,16,106860,0,49.0,0.0,469.57,85
NonResidential,Small- and Mid-Sized Office,98125.0,5,NORTH,47.71895,-122.29475,5,50759,0,62.0,0.0,49.09,44
NonResidential,Worship Facility,98105.0,4,NORTHEAST,47.66182,-122.31113,2,56772,0,46.0,0.0,84.57,64
NonResidential,Worship Facility,98105.0,4,NORTHEAST,47.6626,-122.31164,3,103000,0,42.0,0.0,149.93,64
SPS-District K-12,K-12 School,98115.0,4,NORTHEAST,47.67723,-122.31281,3,269297,0,80.0,0.0,225.19,10
SPS-District K-12,K-12 School,98115.0,4,NORTHEAST,47.67184,-122.29221,3,75174,0,77.0,0.0,71.86,15
SPS-District K-12,K-12 School,98119.0,7,MAGNOLIA / QUEEN ANNE,47.64052,-122.3656,3,75214,0,88.0,0.0,43.98,13
SPS-District K-12,K-12 School,98116.0,1,SOUTHWEST,47.57298,-122.39028,3,134918,0,91.0,0.0,69.42,11
SPS-District K-12,K-12 School,98144.0,3,CENTRAL,47.59096,-122.29985,2,64414,0,67.0,0.0,16.0,25
SPS-District K-12,K-12 School,98115.0,6,NORTHWEST,47.67725,-122.32232,3,92437,0,78.0,0.0,201.05,89
NonResidential,Other,98101.0,7,DOWNTOWN,47.61103,-122.33238,7,128766,0,,0.0,57.21,102
NonResidential,Residence Hall,98101.0,7,DOWNTOWN,47.6079,-122.33266,9,107572,0,76.0,3076446.5,254.87,103
NonResidential,Other,98101.0,7,DOWNTOWN,47.60699,-122.33481,15,230880,0,,0.0,433.6,61
SPS-District K-12,K-12 School,98108.0,2,GREATER DUWAMISH,47.55237,-122.31391,3,204961,0,94.0,0.0,226.06,9
NonResidential,Other,98119.0,7,MAGNOLIA / QUEEN ANNE,47.63965,-122.3783,1,76086,0,,0.0,101.41,43
NonResidential,Medical Office,98119.0,7,MAGNOLIA / QUEEN ANNE,47.61972,-122.36033,5,190000,39000,1.0,0.0,661.04,89
NonResidential,Hotel,98121.0,7,DOWNTOWN,47.6124,-122.35075,4,122309,0,8.0,0.0,1060.13,55
Campus,Other,98125.0,7,DOWNTOWN,47.61137,-122.34947,3,215476,0,,0.0,639.39,21
NonResidential,Hotel,98121.0,7,DOWNTOWN,47.61069,-122.34653,8,254273,38800,29.0,0.0,780.84,13
Nonresidential COS,Other,98101.0,7,DOWNTOWN,47.60729,-122.34211,2,69400,0,,0.0,301.76,36
NonResidential,Mixed Use Property,98104.0,7,DOWNTOWN,47.6041,-122.33958,1,62900,0,,0.0,377.27,116
NonResidential,Small- and Mid-Sized Office,98104.0,7,DOWNTOWN,47.60271,-122.33557,4,56500,0,98.0,492761.8125,44.22,102
NonResidential,Warehouse,98134.0,2,GREATER DUWAMISH,47.59486,-122.32455,4,203504,0,72.0,0.0,26.39,8
NonResidential,Large Office,98121.0,7,DOWNTOWN,47.61757,-122.35122,3,100734,26731,20.0,0.0,68.24,48
NonResidential,Small- and Mid-Sized Office,98121.0,7,DOWNTOWN,47.61703,-122.35012,4,77662,18504,57.0,0.0,68.19,35
NonResidential,Large Office,98121.0,7,DOWNTOWN,47.61619,-122.34599,12,234000,21790,39.0,0.0,149.27,38
NonResidential,Large Office,98101.0,7,DOWNTOWN,47.61217,-122.33694,25,369996,0,74.0,0.0,172.58,27
NonResidential,Retail Store,98101.0,7,DOWNTOWN,47.61229,-122.33629,10,693450,0,93.0,21230.80078,398.19,91
NonResidential,Large Office,98191.0,7,DOWNTOWN,47.61316,-122.3343,33,791396,0,89.0,0.0,313.3,40
NonResidential,Large Office,98101.0,7,DOWNTOWN,47.61399,-122.33523,23,747747,205076,90.0,0.0,359.11,16
NonResidential,Small- and Mid-Sized Office,98101.0,7,DOWNTOWN,47.61356,-122.33665,10,63409,7757,90.0,2086424.75,170.51,90
NonResidential,Large Office,98101.0,7,DOWNTOWN,47.61375,-122.33566,17,204790,30000,91.0,0.0,100.26,86
NonResidential,Small- and Mid-Sized Office,98101.0,7,DOWNTOWN,47.61256,-122.33808,5,73399,0,61.0,0.0,26.19,100
NonResidential,Large Office,98101.0,7,DOWNTOWN,47.61391,-122.33725,20,265851,32334,90.0,6568832.0,563.25,47
NonResidential,Large Office,98121.0,7,DOWNTOWN,47.61578,-122.33726,25,758043,228668,95.0,0.0,229.25,7
NonResidential,Large Office,98121.0,7,DOWNTOWN,47.61641,-122.34112,12,206000,0,91.0,2312496.75,222.19,48
NonResidential,Large Office,98101.0,7,DOWNTOWN,47.61555,-122.33582,36,824887,154972,97.0,0.0,275.54,7
NonResidential,Large Office,98101.0,7,DOWNTOWN,47.61516,-122.33303,16,480840,141600,94.0,0.0,130.73,26
NonResidential,Small- and Mid-Sized Office,98104.0,7,DOWNTOWN,47.60266,-122.33332,7,89550,0,85.0,348386.8125,51.67,116
NonResidential,Small- and Mid-Sized Office,98104.0,7,DOWNTOWN,47.60219,-122.33347,6,89355,0,66.0,0.0,31.97,116
NonResidential,Large Office,98104.0,7,DOWNTOWN,47.6036,-122.33288,15,388934,0,89.0,1192343.75,213.23,94
NonResidential,Large Office,98104.0,7,DOWNTOWN,47.60403,-122.33497,22,384302,0,98.0,0.0,70.15,87
NonResidential,Large Office,98104.0,7,DOWNTOWN,47.6037,-122.33447,17,378525,84600,69.0,10921066.0,940.47,58
NonResidential,Large Office,98104.0,7,DOWNTOWN,47.60505,-122.33427,47,1323055,0,94.0,0.0,318.97,33
NonResidential,Large Office,98104.0,7,DOWNTOWN,47.60567,-122.33511,41,589921,129432,84.0,0.0,171.52,30
NonResidential,Small- and Mid-Sized Office,98104.0,7,DOWNTOWN,47.60542,-122.33588,6,91091,1392,,480784.0,46.56,66
NonResidential,Large Office,98101.0,7,DOWNTOWN,47.60581,-122.33664,8,157941,62993,81.0,0.0,26.1,48
NonResidential,Large Office,98101.0,7,DOWNTOWN,47.60614,-122.33674,29,635303,197231,95.0,180731.7969,139.72,25
NonResidential,Large Office,98101.0,7,DOWNTOWN,47.60655,-122.33533,34,776762,162604,81.0,0.0,231.32,36
NonResidential,Large Office,98101.0,7,DOWNTOWN,47.60671,-122.33456,14,186768,23775,95.0,2154977.5,218.53,44
NonResidential,Large Office,98154.0,7,DOWNTOWN,47.60615,-122.33388,49,1123435,368980,89.0,0.0,627.87,47
NonResidential,Large Office,98104.0,7,DOWNTOWN,47.60549,-122.33319,37,1052469,164420,93.0,0.0,287.32,14
NonResidential,Large Office,98164.0,7,DOWNTOWN,47.60616,-122.33165,42,617684,171500,28.0,882983.5,546.65,43
NonResidential,Large Office,98104.0,7,DOWNTOWN,47.60471,-122.33261,8,201480,0,91.0,1619966.875,175.95,109
Nonresidential COS,Large Office,98104.0,3,DOWNTOWN,47.60501,-122.32988,63,1354987,159600,89.0,0.0,429.27,26
Nonresidential COS,Large Office,98104.0,3,DOWNTOWN,47.60421,-122.32919,14,310490,0,,0.0,380.37,15
Nonresidential COS,Large Office,98104.0,7,DOWNTOWN,47.60377,-122.32971,8,199530,30660,69.0,0.0,298.61,13
NonResidential,Large Office,98104.0,7,DOWNTOWN,47.60249,-122.32854,13,372242,52703,98.0,0.0,216.24,10
NonResidential,Large Office,98104.0,7,DOWNTOWN,47.60193,-122.32812,7,114395,8296,99.0,0.0,70.17,107
NonResidential,Retail Store,98105.0,4,NORTHEAST,47.66024,-122.31278,2,89200,0,83.0,0.0,89.47,38
NonResidential,Large Office,98195.0,4,NORTHEAST,47.66072,-122.31466,23,474546,0,77.0,0.0,198.34,45
NonResidential,Other,98185.0,4,NORTHEAST,47.6606,-122.31512,5,36000,0,96.0,0.0,209.41,47
NonResidential,Small- and Mid-Sized Office,98105.0,4,NORTHEAST,47.661,-122.31626,5,99005,0,70.0,0.0,119.03,55
NonResidential,Large Office,98105.0,4,NORTHEAST,47.66065,-122.31689,6,135051,44248,88.0,0.0,30.86,14
NonResidential,Large Office,98105.0,4,NORTHEAST,47.65999,-122.31741,5,220649,82720,93.0,0.0,49.12,14
NonResidential,Self-Storage Facility,98101.0,7,DOWNTOWN,47.61591,-122.33238,5,93660,0,,0.0,6.09,52
NonResidential,Large Office,98101.0,7,DOWNTOWN,47.61597,-122.33086,18,413715,64660,79.0,0.0,168.88,36
NonResidential,Mixed Use Property,98101.0,7,DOWNTOWN,47.6177,-122.3306,11,381381,195621,94.0,0.0,72.42,16
NonResidential,Large Office,98101.0,7,DOWNTOWN,47.61695,-122.32965,20,497513,118744,65.0,0.0,197.19,28
NonResidential,Large Office,98121.0,7,DOWNTOWN,47.61431,-122.34244,24,543876,116721,79.0,0.0,176.43,37
NonResidential,Mixed Use Property,98121.0,7,DOWNTOWN,47.6177,-122.3545,4,109347,38700,,0.0,91.13,36
NonResidential,Large Office,98121.0,7,DOWNTOWN,47.6182,-122.352,6,396626,124216,64.0,0.0,141.95,34
NonResidential,Large Office,98121.0,7,DOWNTOWN,47.61598,-122.34369,6,287471,83591,74.0,0.0,103.97,14
NonResidential,Large Office,98121.0,7,DOWNTOWN,47.61734,-122.34434,3,192630,48512,94.0,0.0,46.03,69
NonResidential,Large Office,98121.0,7,DOWNTOWN,47.6176,-122.35686,8,253103,61986,3.0,0.0,208.79,32
NonResidential,Supermarket / Grocery Store,98117.0,6,NORTHWEST,47.7019,-122.36374,1,60880,0,54.0,0.0,384.27,60
NonResidential,Small- and Mid-Sized Office,98104.0,7,DOWNTOWN,47.60227,-122.33202,5,50176,0,77.0,0.0,24.91,116
NonResidential,Large Office,98104.0,7,DOWNTOWN,47.60198,-122.33174,42,304346,0,72.0,1014422.375,741.3,104
NonResidential,Warehouse,98108.0,2,GREATER DUWAMISH,47.54066,-122.33023,1,128800,0,97.0,0.0,78.92,39
NonResidential,Large Office,98101.0,7,DOWNTOWN,47.60932,-122.33388,8,321945,0,76.0,3700629.75,355.05,89
NonResidential,Large Office,98101.0,7,DOWNTOWN,47.60842,-122.33305,22,336330,0,77.0,5370612.0,530.66,52
NonResidential,Large Office,98101.0,7,DOWNTOWN,47.60869,-122.33588,21,298426,0,79.0,12760971.0,1084.79,56
NonResidential,Large Office,98101.0,7,DOWNTOWN,47.60896,-122.33481,42,635824,0,69.0,0.0,337.97,40
NonResidential,Hotel,98101.0,7,DOWNTOWN,47.60804,-122.33391,12,542305,0,45.0,28438884.0,2573.75,93
NonResidential,Retail Store,98144.0,2,SOUTHEAST,47.57936,-122.29744,2,291940,0,80.0,0.0,162.45,36
NonResidential,Mixed Use Property,98108.0,2,GREATER DUWAMISH,47.52871,-122.29443,1,88400,0,42.0,0.0,116.03,46
NonResidential,Warehouse,98133.0,5,NORTHWEST,47.72912,-122.34677,1,52311,0,96.0,0.0,48.65,56
NonResidential,Other,98109.0,7,LAKE UNION,47.62323,-122.33028,5,141131,69710,,0.0,21.51,7
NonResidential,Large Office,98109.0,7,LAKE UNION,47.62333,-122.3296,5,176532,70067,60.0,0.0,40.46,15
NonResidential,Warehouse,98107.0,6,BALLARD,47.65825,-122.3683,1,52500,0,2.0,0.0,70.47,43
NonResidential,Warehouse,98107.0,6,BALLARD,47.66587,-122.38476,2,57300,0,55.0,0.0,156.67,57
NonResidential,Large Office,98121.0,7,DOWNTOWN,47.61429,-122.35263,6,350310,0,90.0,0.0,224.36,100
NonResidential,Large Office,98101.0,7,DOWNTOWN,47.60723,-122.33611,55,1400000,285000,92.0,2179487.75,588.9,28
NonResidential,Hotel,98101.0,7,DOWNTOWN,47.60968,-122.33379,21,305548,0,58.0,16284570.0,1510.85,86
NonResidential,Large Office,98101.0,7,DOWNTOWN,47.61054,-122.33466,46,1536606,512608,89.0,0.0,530.18,27
NonResidential,Large Office,98101.0,7,DOWNTOWN,47.61003,-122.33452,10,135918,0,91.0,2121203.0,193.72,58
NonResidential,Retail Store,98101.0,7,DOWNTOWN,47.61159,-122.33601,4,79957,0,25.0,0.0,36.61,102
NonResidential,Large Office,98101.0,7,DOWNTOWN,47.61166,-122.33528,4,127268,0,71.0,714523.6875,148.11,95
NonResidential,Large Office,98101.0,7,DOWNTOWN,47.61125,-122.33494,29,500000,0,93.0,0.0,131.4,33
NonResidential,Large Office,98101.0,7,DOWNTOWN,47.61005,-122.3361,10,132326,0,72.0,328247.0938,65.2,90
NonResidential,Large Office,98101.0,7,DOWNTOWN,47.61033,-122.3357,6,109830,13200,45.0,0.0,51.14,32
NonResidential,Hotel,98101.0,7,DOWNTOWN,47.60996,-122.33572,19,332067,59280,6.0,15586014.0,1468.5,43
NonResidential,Large Office,98101.0,7,DOWNTOWN,47.60991,-122.33687,10,130513,0,49.0,631029.0,318.08,106
NonResidential,Small- and Mid-Sized Office,98101.0,7,DOWNTOWN,47.60953,-122.33647,8,60660,0,,0.0,18.03,96
NonResidential,Large Office,98101.0,7,DOWNTOWN,47.60902,-122.33674,14,137350,0,89.0,2258855.25,202.99,87
NonResidential,Large Office,98101.0,7,DOWNTOWN,47.60923,-122.33625,15,151039,0,84.0,2850077.75,238.09,87
NonResidential,Large Office,98101.0,7,DOWNTOWN,47.61022,-122.33745,30,755000,134662,72.0,519390.0,793.05,31
NonResidential,Small- and Mid-Sized Office,98101.0,7,DOWNTOWN,47.60995,-122.33904,4,63540,0,72.0,0.0,74.83,110
NonResidential,Large Office,98101.0,7,DOWNTOWN,47.60987,-122.33824,10,130893,0,80.0,0.0,48.54,89
NonResidential,Mixed Use Property,98101.0,7,DOWNTOWN,47.60821,-122.33899,5,79920,0,,0.0,20.98,106
Campus,Mixed Use Property,98101.0,7,DOWNTOWN,47.60881,-122.34119,4,137400,0,,0.0,316.2,108
NonResidential,Other,98101.0,7,DOWNTOWN,47.61164,-122.33446,6,147852,86429,,0.0,185.03,20
NonResidential,Other,98101.0,7,DOWNTOWN,47.61185,-122.33421,4,267335,166960,,0.0,147.75,20
NonResidential,Large Office,98101.0,7,DOWNTOWN,47.61043,-122.33206,56,1605578,389860,97.0,915654.875,525.78,27
NonResidential,Large Office,98101.0,7,DOWNTOWN,47.60967,-122.33229,36,794592,0,96.0,0.0,216.43,36
NonResidential,Large Office,98101.0,7,DOWNTOWN,47.60909,-122.33202,21,456304,93204,74.0,0.0,135.23,45
NonResidential,Large Office,98101.0,7,DOWNTOWN,47.61029,-122.34089,12,115857,15140,89.0,0.0,33.17,30
NonResidential,Small- and Mid-Sized Office,98121.0,7,DOWNTOWN,47.61116,-122.34748,4,87500,17500,72.0,0.0,31.72,17
NonResidential,Large Office,98121.0,7,DOWNTOWN,47.6117,-122.34778,11,374405,184776,72.0,0.0,92.92,18
NonResidential,Other,98121.0,7,DOWNTOWN,47.61252,-122.34351,12,193500,38000,,0.0,100.65,31
NonResidential,Large Office,98101.0,7,DOWNTOWN,47.61108,-122.34217,11,102846,0,96.0,3480880.75,281.55,93
NonResidential,Small- and Mid-Sized Office,98121.0,7,DOWNTOWN,47.61304,-122.34059,4,52800,0,83.0,0.0,44.48,91
Campus,Mixed Use Property,98101.0,7,DOWNTOWN,47.61229,-122.33903,10,258497,0,,3902781.25,418.9,103
NonResidential,Retail Store,98181.0,7,DOWNTOWN,47.61098,-122.33815,8,861702,0,,2927935.25,328.83,87
NonResidential,Other,98101.0,7,EAST,47.61,-122.32922,5,206950,97400,,1631750.25,249.09,17
NonResidential,Other,98101.0,3,EAST,47.61048,-122.32837,9,46710,0,,1447314.625,130.69,28
NonResidential,Medical Office,98101.0,3,EAST,47.61048,-122.32837,3,266000,104000,65.0,476741.8125,201.15,71
NonResidential,Medical Office,98104.0,3,EAST,47.60921,-122.32425,14,690158,407795,58.0,0.0,147.49,24
NonResidential,Mixed Use Property,98109.0,7,LAKE UNION,47.61915,-122.34857,6,378443,177660,100.0,0.0,456.22,15
NonResidential,Mixed Use Property,98109.0,7,LAKE UNION,47.61915,-122.34857,6,213834,104922,100.0,0.0,530.59,15
NonResidential,Hotel,98109.0,7,LAKE UNION,47.62036,-122.34588,5,109017,29409,34.0,0.0,243.66,37
NonResidential,Large Office,98119.0,7,MAGNOLIA / QUEEN ANNE,47.62177,-122.36158,5,275734,38452,77.0,0.0,114.14,35
NonResidential,Warehouse,98104.0,2,GREATER DUWAMISH,47.56064,-122.32522,1,123061,0,59.0,0.0,13.86,15
NonResidential,Distribution Center,98108.0,2,GREATER DUWAMISH,47.54868,-122.3255,1,59090,0,45.0,0.0,117.11,53
NonResidential,Warehouse,98108.0,2,GREATER DUWAMISH,47.5471,-122.32406,1,106000,0,93.0,0.0,5.32,53
NonResidential,Large Office,98102.0,4,LAKE UNION,47.63349,-122.32634,3,158600,38400,19.0,0.0,236.9,54
NonResidential,Distribution Center,98108.0,2,GREATER DUWAMISH,47.53764,-122.3232,1,119661,0,97.0,0.0,5.44,56
NonResidential,Large Office,98109.0,3,LAKE UNION,47.62958,-122.32826,7,139200,44728,81.0,0.0,30.27,15
NonResidential,Small- and Mid-Sized Office,98119.0,7,MAGNOLIA / QUEEN ANNE,47.62566,-122.34287,6,95721,33921,95.0,0.0,21.36,32
NonResidential,Large Office,98109.0,7,MAGNOLIA / QUEEN ANNE,47.62929,-122.34194,5,213283,115228,83.0,0.0,39.47,20
NonResidential,Large Office,98103.0,4,LAKE UNION,47.64776,-122.33924,3,103697,47656,7.0,0.0,374.92,15
NonResidential,Small- and Mid-Sized Office,98125.0,5,NORTH,47.70105,-122.32659,5,74880,0,56.0,0.0,35.8,42
NonResidential,Small- and Mid-Sized Office,98115.0,5,NORTH,47.69999,-122.32663,6,88774,0,53.0,0.0,42.03,37
NonResidential,Large Office,98115.0,5,NORTH,47.69917,-122.3268,5,122250,0,93.0,0.0,38.59,33
NonResidential,Small- and Mid-Sized Office,98115.0,5,NORTH,47.70063,-122.32487,4,53730,0,20.0,0.0,33.06,37
NonResidential,Small- and Mid-Sized Office,98101.0,1,DELRIDGE,47.5671,-122.36416,3,55593,0,55.0,0.0,93.23,56
NonResidential,Large Office,98109.0,7,LAKE UNION,47.62269,-122.33224,4,134056,60960,54.0,0.0,32.73,34
NonResidential,Retail Store,98199.0,2,GREATER DUWAMISH,47.5653,-122.33076,1,158415,0,25.0,0.0,454.49,11
NonResidential,Large Office,98109.0,7,LAKE UNION,47.61907,-122.33651,8,287819,0,,0.0,349.07,87
NonResidential,Other,98101.0,3,EAST,47.60953,-122.32793,8,158738,0,,5650343.5,1268.87,41
NonResidential,Small- and Mid-Sized Office,98109.0,7,MAGNOLIA / QUEEN ANNE,47.62003,-122.35706,4,86995,28800,81.0,0.0,20.86,31
NonResidential,Retail Store,98107.0,6,BALLARD,47.66057,-122.36857,1,164437,0,62.0,0.0,326.18,17
NonResidential,Large Office,98109.0,7,LAKE UNION,47.62402,-122.33755,5,184482,66234,95.0,0.0,40.47,7
NonResidential,Laboratory,98109.0,7,LAKE UNION,47.62348,-122.33743,3,55200,0,,0.0,269.71,88
NonResidential,Laboratory,98109.0,7,LAKE UNION,47.62254,-122.33753,4,241159,111793,,0.0,849.83,13
NonResidential,Large Office,98109.0,7,LAKE UNION,47.62286,-122.33804,6,139282,52582,96.0,0.0,22.57,12
NonResidential,Large Office,98109.0,7,LAKE UNION,47.62383,-122.3356,5,271071,98700,96.0,0.0,61.93,7
NonResidential,Warehouse,98109.0,3,LAKE UNION,47.62572,-122.33389,5,127800,0,56.0,0.0,29.53,102
NonResidential,Large Office,98109.0,3,LAKE UNION,47.62855,-122.33035,5,560516,206597,71.0,0.0,632.4,14
NonResidential,Large Office,98109.0,3,LAKE UNION,47.62621,-122.33128,6,226592,95000,49.0,0.0,94.64,15
Campus,Other,98109.0,3,LAKE UNION,47.62855,-122.33035,5,535947,0,,0.0,3995.45,19
NonResidential,Mixed Use Property,98109.0,7,LAKE UNION,47.62121,-122.33885,5,159700,50654,,0.0,726.96,13
NonResidential,Large Office,98109.0,7,LAKE UNION,47.62137,-122.33744,4,209816,73673,97.0,0.0,122.68,10
NonResidential,Large Office,98109.0,7,LAKE UNION,47.62131,-122.33814,6,303103,109905,97.0,0.0,69.59,10
NonResidential,Mixed Use Property,98109.0,7,LAKE UNION,47.62002,-122.33687,3,67380,0,66.0,0.0,74.1,62
NonResidential,Laboratory,98109.0,7,LAKE UNION,47.62405,-122.34036,4,102235,0,,0.0,587.16,53
NonResidential,Mixed Use Property,98109.0,7,LAKE UNION,47.62405,-122.34036,5,436497,153684,,0.0,1019.53,8
NonResidential,Small- and Mid-Sized Office,98119.0,7,MAGNOLIA / QUEEN ANNE,47.62115,-122.3597,5,88062,20826,80.0,0.0,23.81,42
NonResidential,Small- and Mid-Sized Office,98119.0,7,MAGNOLIA / QUEEN ANNE,47.62224,-122.3585,5,87178,20416,69.0,0.0,25.32,44
NonResidential,Small- and Mid-Sized Office,98119.0,7,MAGNOLIA / QUEEN ANNE,47.62224,-122.3585,5,87178,20416,86.0,0.0,24.35,46
NonResidential,Small- and Mid-Sized Office,98119.0,7,MAGNOLIA / QUEEN ANNE,47.62014,-122.35768,5,88000,21600,75.0,0.0,24.29,45
NonResidential,Medical Office,98105.0,4,NORTHEAST,47.65821,-122.31831,4,196749,88405,5.0,0.0,477.87,28
NonResidential,Medical Office,98105.0,4,NORTHEAST,47.65884,-122.3183,4,191276,95281,21.0,0.0,77.99,22
NonResidential,Self-Storage Facility,98107.0,6,BALLARD,47.66838,-122.3931,2,111445,0,,0.0,163.83,70
NonResidential,Warehouse,98126.0,1,SOUTHWEST,47.56885,-122.37121,4,98475,0,83.0,0.0,22.44,19
NonResidential,Hospital,98109.0,3,LAKE UNION,47.62667,-122.32965,7,351530,150455,23.0,0.0,1032.63,16
NonResidential,Supermarket / Grocery Store,98125.0,5,NORTH,47.7237,-122.29232,2,308965,187878,78.0,0.0,277.98,21
NonResidential,Supermarket / Grocery Store,98134.0,2,GREATER DUWAMISH,47.56895,-122.33775,1,63225,0,100.0,0.0,45.47,8
Nonresidential COS,Other,98118.0,1,DELRIDGE,47.56548,-122.35378,1,113780,0,,0.0,121.98,61
NonResidential,Warehouse,98134.0,2,GREATER DUWAMISH,47.56419,-122.34262,1,243044,0,100.0,0.0,41.8,17
NonResidential,Other,98103.0,6,LAKE UNION,47.64942,-122.35024,3,280252,156312,,0.0,80.32,15
NonResidential,Other,98109.0,7,MAGNOLIA / QUEEN ANNE,47.63549,-122.34103,3,66462,12998,,0.0,47.94,64
NonResidential,Retail Store,98133.0,5,NORTHWEST,47.72053,-122.34739,1,131387,0,72.0,0.0,110.46,19
NonResidential,Warehouse,98133.0,5,NORTHWEST,47.72377,-122.34095,3,94400,0,38.0,0.0,10.24,17
NonResidential,Other,98133.0,5,NORTHWEST,47.72546,-122.34659,1,111900,0,,0.0,226.43,52
NonResidential,Supermarket / Grocery Store,98133.0,5,NORTHWEST,47.72803,-122.34214,1,144776,0,56.0,0.0,237.39,32
NonResidential,Retail Store,98133.0,5,NORTHWEST,47.7249,-122.34332,1,114000,0,79.0,0.0,553.27,49
NonResidential,Supermarket / Grocery Store,98133.0,5,NORTHWEST,47.7235,-122.34458,1,50083,0,78.0,0.0,158.92,19
NonResidential,Large Office,98103.0,6,LAKE UNION,47.65086,-122.35412,3,124071,28645,73.0,0.0,34.9,28
NonResidential,Small- and Mid-Sized Office,98103.0,6,LAKE UNION,47.64963,-122.35158,4,90000,36528,84.0,0.0,27.17,16
NonResidential,Small- and Mid-Sized Office,98103.0,6,LAKE UNION,47.64849,-122.35041,3,96041,33709,70.0,0.0,37.74,15
NonResidential,Large Office,98103.0,6,LAKE UNION,47.64822,-122.34848,3,280957,114829,96.0,0.0,94.47,17
NonResidential,Large Office,98103.0,6,LAKE UNION,47.64882,-122.34905,4,243334,103032,89.0,0.0,85.01,17
NonResidential,Mixed Use Property,98101.0,7,DOWNTOWN,47.6074,-122.33777,6,154660,0,,17548416.0,1623.34,25
NonResidential,Large Office,98108.0,2,GREATER DUWAMISH,47.55146,-122.32832,5,390295,121375,95.0,0.0,53.57,34
NonResidential,Warehouse,98108.0,2,GREATER DUWAMISH,47.54983,-122.32858,2,90000,0,87.0,0.0,17.17,49
NonResidential,Retail Store,98108.0,2,GREATER DUWAMISH,47.55032,-122.32614,1,50200,0,,0.0,32.22,50
NonResidential,Small- and Mid-Sized Office,98107.0,6,BALLARD,47.66891,-122.38528,6,94033,6200,,0.0,120.24,91
NonResidential,Warehouse,98107.0,6,BALLARD,47.66724,-122.38553,2,63240,0,100.0,0.0,8.15,75
NonResidential,Other,98107.0,6,BALLARD,47.66233,-122.3748,5,322869,182454,,0.0,413.35,8
NonResidential,Self-Storage Facility,98119.0,7,MAGNOLIA / QUEEN ANNE,47.64676,-122.37581,4,130293,23400,,0.0,3.25,28
NonResidential,Warehouse,98119.0,7,MAGNOLIA / QUEEN ANNE,47.65567,-122.37478,4,106041,0,94.0,0.0,25.58,19
NonResidential,Self-Storage Facility,98119.0,7,MAGNOLIA / QUEEN ANNE,47.63634,-122.3754,3,94470,0,,0.0,33.18,60
NonResidential,Large Office,98104.0,2,DOWNTOWN,47.59963,-122.32796,10,181694,38186,88.0,0.0,53.25,14
NonResidential,Warehouse,98108.0,2,GREATER DUWAMISH,47.54769,-122.3251,1,22780,0,33.0,0.0,2.8,50
NonResidential,Distribution Center,98168.0,2,GREATER DUWAMISH,47.54187,-122.32714,1,124472,0,62.0,0.0,237.36,49
NonResidential,Large Office,98104.0,7,DOWNTOWN,47.60411,-122.33225,22,227556,98556,95.0,0.0,59.21,46
NonResidential,Distribution Center,98168.0,2,GREATER DUWAMISH,47.54187,-122.32714,1,50065,0,72.0,0.0,42.65,49
NonResidential,Distribution Center,98108.0,2,GREATER DUWAMISH,47.54621,-122.33486,1,57540,0,26.0,0.0,76.68,47
NonResidential,Warehouse,98108.0,2,GREATER DUWAMISH,47.54853,-122.32814,1,85400,0,49.0,0.0,10.72,50
NonResidential,Warehouse,98108.0,2,GREATER DUWAMISH,47.54912,-122.32819,1,55700,0,63.0,0.0,3.62,50
NonResidential,Small- and Mid-Sized Office,98108.0,2,GREATER DUWAMISH,47.54965,-122.3278,1,53250,0,96.0,0.0,46.93,52
NonResidential,Small- and Mid-Sized Office,98109.0,7,MAGNOLIA / QUEEN ANNE,47.62476,-122.34843,6,78672,28427,98.0,0.0,28.63,29
NonResidential,Warehouse,98133.0,5,NORTHWEST,47.71286,-122.34422,3,64660,0,89.0,0.0,6.32,30
NonResidential,Mixed Use Property,98122.0,3,EAST,47.61552,-122.31744,2,75844,19928,,0.0,38.48,89
NonResidential,Distribution Center,98134.0,2,GREATER DUWAMISH,47.5701,-122.33342,1,161678,0,25.0,0.0,204.81,48
NonResidential,Distribution Center,98134.0,2,GREATER DUWAMISH,47.56874,-122.33303,1,101101,0,1.0,0.0,152.71,67
NonResidential,Distribution Center,98134.0,2,GREATER DUWAMISH,47.57023,-122.33241,1,52613,0,80.0,0.0,32.02,36
NonResidential,Other,98134.0,2,GREATER DUWAMISH,47.56785,-122.33361,1,56608,0,,0.0,74.31,76
NonResidential,Refrigerated Warehouse,98134.0,2,GREATER DUWAMISH,47.56637,-122.33273,1,104099,0,,0.0,142.36,63
NonResidential,Supermarket / Grocery Store,98103.0,5,NORTHWEST,47.69267,-122.35506,1,58184,7450,41.0,0.0,414.43,13
NonResidential,Supermarket / Grocery Store,98155.0,5,NORTH,47.73315,-122.3105,1,58480,0,37.0,0.0,272.54,36
NonResidential,Large Office,98109.0,7,LAKE UNION,47.62029,-122.33078,6,336700,124800,95.0,0.0,54.92,11
NonResidential,Retail Store,98109.0,7,LAKE UNION,47.62,-122.33027,4,264008,159994,42.0,0.0,190.61,20
NonResidential,Small- and Mid-Sized Office,98144.0,3,CENTRAL,47.59367,-122.30957,2,62220,0,32.0,0.0,38.55,102
NonResidential,Small- and Mid-Sized Office,98144.0,3,GREATER DUWAMISH,47.59388,-122.31124,1,65430,0,89.0,0.0,90.24,46
NonResidential,Large Office,98105.0,4,NORTHEAST,47.66517,-122.30186,3,102290,42440,26.0,0.0,49.17,10
NonResidential,Other,98122.0,3,CENTRAL,47.6144,-122.30982,3,80004,0,,0.0,85.28,90
NonResidential,Warehouse,98108.0,2,GREATER DUWAMISH,47.56407,-122.32765,2,323916,0,92.0,0.0,262.45,25
NonResidential,Mixed Use Property,98144.0,2,GREATER DUWAMISH,47.5928,-122.31599,14,304052,0,66.0,0.0,247.35,84
NonResidential,Small- and Mid-Sized Office,98102.0,4,LAKE UNION,47.64037,-122.32626,4,85385,31210,,0.0,33.85,38
NonResidential,Distribution Center,98108.0,1,GREATER DUWAMISH,47.53687,-122.33316,2,98024,0,94.0,0.0,42.25,27
NonResidential,Mixed Use Property,98109.0,7,LAKE UNION,47.62405,-122.33084,1,65000,15000,,0.0,63.89,88
NonResidential,Large Office,98109.0,7,LAKE UNION,47.62488,-122.33007,5,144573,66620,62.0,0.0,35.8,26
NonResidential,Retail Store,98125.0,5,NORTH,47.70759,-122.3255,2,302812,0,97.0,0.0,129.29,66
NonResidential,Small- and Mid-Sized Office,98133.0,5,NORTHWEST,47.70744,-122.33171,5,86400,0,53.0,0.0,293.55,42
NonResidential,Other,98125.0,5,NORTH,47.7094,-122.31843,2,98539,0,,0.0,46.49,47
NonResidential,Small- and Mid-Sized Office,98144.0,5,NORTHWEST,47.70732,-122.33279,6,86483,0,56.0,0.0,44.35,35
NonResidential,Distribution Center,98106.0,1,DELRIDGE,47.53926,-122.34143,1,51600,0,75.0,0.0,22.1,40
NonResidential,Warehouse,98106.0,1,DELRIDGE,47.53689,-122.33847,1,140520,0,61.0,0.0,57.73,48
NonResidential,Large Office,98109.0,7,MAGNOLIA / QUEEN ANNE,47.63116,-122.34193,5,154029,62380,95.0,0.0,58.88,30
NonResidential,Other,98133.0,5,NORTHWEST,47.70887,-122.33494,3,161789,91935,,0.0,49.28,11
NonResidential,Medical Office,98133.0,5,NORTHWEST,47.7126,-122.33782,3,63909,0,,0.0,33.22,11
NonResidential,Warehouse,98103.0,5,NORTHWEST,47.69814,-122.34295,2,53472,0,,0.0,34.0,68
NonResidential,Warehouse,98108.0,1,GREATER DUWAMISH,47.52696,-122.32913,1,50417,0,14.0,0.0,58.67,36
NonResidential,Restaurant,98101.0,7,DOWNTOWN,47.60613,-122.34115,1,43728,0,,0.0,611.19,116
NonResidential,Medical Office,98133.0,5,NORTHWEST,47.70449,-122.33272,3,133298,0,21.0,0.0,295.48,55
NonResidential,Retail Store,98125.0,5,NORTH,47.70759,-122.3255,2,168619,0,78.0,0.0,91.1,51
NonResidential,Mixed Use Property,98102.0,4,LAKE UNION,47.63451,-122.32505,5,251827,113318,,0.0,1156.45,14
NonResidential,Large Office,98109.0,7,LAKE UNION,47.6244,-122.33157,4,175885,71385,91.0,0.0,45.22,16
NonResidential,Warehouse,98134.0,2,GREATER DUWAMISH,47.56089,-122.33474,2,104786,0,93.0,0.0,23.86,47
NonResidential,Other,98134.0,2,GREATER DUWAMISH,47.55787,-122.335,1,53040,41600,,0.0,49.9,16
NonResidential,Other,98134.0,2,GREATER DUWAMISH,47.55741,-122.33163,1,110689,0,,0.0,107.83,43
NonResidential,Small- and Mid-Sized Office,98134.0,2,GREATER DUWAMISH,47.5563,-122.33186,1,53620,0,86.0,0.0,22.12,68
NonResidential,Small- and Mid-Sized Office,98134.0,2,GREATER DUWAMISH,47.55623,-122.33316,1,50008,0,62.0,0.0,65.3,78
NonResidential,Large Office,98119.0,7,MAGNOLIA / QUEEN ANNE,47.6252,-122.36737,4,291176,100176,98.0,0.0,49.74,7
NonResidential,Warehouse,98134.0,2,GREATER DUWAMISH,47.56549,-122.33221,1,50832,0,63.0,0.0,107.16,59
NonResidential,Refrigerated Warehouse,98108.0,2,GREATER DUWAMISH,47.56158,-122.32754,1,76354,0,70.0,0.0,20.29,45
NonResidential,Warehouse,98134.0,2,GREATER DUWAMISH,47.56558,-122.32889,1,98480,0,65.0,0.0,39.5,60
NonResidential,Mixed Use Property,98103.0,4,LAKE UNION,47.66113,-122.33572,2,53002,0,75.0,0.0,64.0,112
NonResidential,Mixed Use Property,98102.0,4,LAKE UNION,47.63465,-122.32592,3,175918,51218,,0.0,640.71,8
NonResidential,Other,98102.0,3,LAKE UNION,47.63108,-122.32746,3,169785,63782,,0.0,406.02,96
NonResidential,Large Office,98109.0,7,LAKE UNION,47.63,-122.3396,11,124721,0,58.0,0.0,365.79,45
NonResidential,Small- and Mid-Sized Office,98109.0,7,LAKE UNION,47.63376,-122.33968,7,94002,0,70.0,0.0,39.47,46
NonResidential,Warehouse,98108.0,2,GREATER DUWAMISH,47.55515,-122.3275,1,93020,0,60.0,0.0,8.73,42
NonResidential,Other,98121.0,7,DOWNTOWN,47.6153,-122.35014,1,23000,0,,0.0,25.74,70
NonResidential,Supermarket / Grocery Store,98118.0,2,SOUTHEAST,47.52095,-122.26825,1,61053,0,32.0,0.0,306.5,14
NonResidential,Small- and Mid-Sized Office,98104.0,2,DOWNTOWN,47.59895,-122.33379,5,78920,0,88.0,0.0,19.73,112
NonResidential,Small- and Mid-Sized Office,98104.0,2,DOWNTOWN,47.59855,-122.33327,7,99440,0,64.0,0.0,134.69,110
NonResidential,Small- and Mid-Sized Office,98104.0,2,DOWNTOWN,47.59856,-122.33379,6,73260,0,82.0,0.0,19.89,109
NonResidential,Small- and Mid-Sized Office,98104.0,7,DOWNTOWN,47.59979,-122.3338,4,69817,0,87.0,771085.1875,76.8,116
NonResidential,Small- and Mid-Sized Office,98104.0,7,DOWNTOWN,47.60035,-122.33379,4,84750,0,,0.0,26.04,116
NonResidential,Small- and Mid-Sized Office,98104.0,7,DOWNTOWN,47.60146,-122.33248,6,75496,13320,,0.0,24.89,116
NonResidential,Large Office,98104.0,7,DOWNTOWN,47.59962,-122.33247,4,164380,0,79.0,399538.3125,130.31,116
NonResidential,Large Office,98104.0,2,DOWNTOWN,47.59858,-122.33198,7,160580,0,98.0,347207.9063,99.59,109
NonResidential,Small- and Mid-Sized Office,98104.0,7,DOWNTOWN,47.60159,-122.32915,6,73470,0,83.0,0.0,22.39,107
Nonresidential COS,Other,98104.0,2,DOWNTOWN,47.59871,-122.3299,3,67755,0,,0.0,13.28,110
NonResidential,Mixed Use Property,98134.0,2,GREATER DUWAMISH,47.59334,-122.32905,3,56700,0,37.0,0.0,31.58,106
NonResidential,Warehouse,98134.0,2,GREATER DUWAMISH,47.59366,-122.32666,1,82852,0,83.0,0.0,65.56,94
NonResidential,Other,98134.0,2,GREATER DUWAMISH,47.57941,-122.33131,2,76442,0,,0.0,132.6,63
NonResidential,Distribution Center,98134.0,2,GREATER DUWAMISH,47.57658,-122.33054,2,92792,0,56.0,0.0,74.18,54
NonResidential,Other,98134.0,2,GREATER DUWAMISH,47.58444,-122.33282,2,125519,0,,0.0,15.65,75
NonResidential,Large Office,98134.0,2,GREATER DUWAMISH,47.58361,-122.33369,4,129000,25800,80.0,0.0,30.5,116
NonResidential,Warehouse,98134.0,2,GREATER DUWAMISH,47.58781,-122.33264,1,78814,0,69.0,0.0,16.48,62
NonResidential,Small- and Mid-Sized Office,98134.0,2,GREATER DUWAMISH,47.59486,-122.33368,4,58970,0,,0.0,41.18,112
NonResidential,Distribution Center,98134.0,2,GREATER DUWAMISH,47.59403,-122.33367,6,75600,10800,15.0,0.0,18.74,106
NonResidential,Distribution Center,98134.0,2,GREATER DUWAMISH,47.59363,-122.33371,4,56270,0,,0.0,7.37,109
NonResidential,Small- and Mid-Sized Office,98104.0,2,DOWNTOWN,47.59701,-122.33378,4,66842,0,31.0,0.0,138.35,112
NonResidential,Small- and Mid-Sized Office,98104.0,2,DOWNTOWN,47.59639,-122.33368,6,75288,10800,81.0,0.0,20.18,107
NonResidential,Large Office,98104.0,2,DOWNTOWN,47.59806,-122.33475,7,184322,0,81.0,0.0,67.78,112
NonResidential,Large Office,98104.0,2,DOWNTOWN,47.59767,-122.33467,7,287853,0,43.0,0.0,182.14,7
NonResidential,Small- and Mid-Sized Office,98134.0,2,GREATER DUWAMISH,47.59202,-122.33486,2,64512,0,53.0,0.0,180.76,102
NonResidential,Mixed Use Property,98134.0,2,GREATER DUWAMISH,47.58924,-122.33566,6,286000,111774,,0.0,445.62,7
NonResidential,Warehouse,98134.0,2,GREATER DUWAMISH,47.58365,-122.33467,7,144050,0,26.0,0.0,98.43,90
NonResidential,Small- and Mid-Sized Office,98104.0,2,GREATER DUWAMISH,47.58252,-122.33465,3,60592,0,16.0,0.0,47.25,86
NonResidential,Large Office,98134.0,2,GREATER DUWAMISH,47.58181,-122.33534,6,1380959,0,79.0,0.0,810.7,104
NonResidential,Retail Store,98134.0,2,GREATER DUWAMISH,47.57842,-122.33558,1,107930,0,57.0,0.0,100.42,23
NonResidential,Warehouse,98134.0,2,GREATER DUWAMISH,47.57096,-122.3355,1,99084,0,83.0,0.0,49.25,90
NonResidential,Distribution Center,98106.0,1,DELRIDGE,47.56676,-122.35247,1,72719,0,28.0,0.0,42.74,63
NonResidential,Small- and Mid-Sized Office,98134.0,3,EAST,47.59534849,-122.327269,4,76624,0,91.0,0.0,33.41,86
NonResidential,Small- and Mid-Sized Office,98105.0,4,NORTHEAST,47.66158,-122.31625,6,91706,36583,2.0,0.0,59.75,15
NonResidential,Medical Office,98109.0,7,LAKE UNION,47.62395,-122.33392,5,129093,39902,6.0,0.0,477.85,8
NonResidential,Large Office,98106.0,1,DELRIDGE,47.56787,-122.36419,5,138106,16221,41.0,0.0,58.43,25
NonResidential,Retail Store,98108.0,2,GREATER DUWAMISH,47.56664,-122.32346,1,56572,0,66.0,0.0,67.29,43
NonResidential,Medical Office,98104.0,3,EAST,47.60979,-122.32298,0,225982,0,53.0,7815663.0,692.12,12
NonResidential,Mixed Use Property,98121.0,7,DOWNTOWN,47.61783,-122.33729,0,516407,0,31.0,0.0,734.72,10
NonResidential,Large Office,98104.0,2,DOWNTOWN,47.59794,-122.32767,11,312512,0,,0.0,185.39,16
NonResidential,Large Office,98101.0,7,DOWNTOWN,47.6074,-122.33777,42,1592914,0,97.0,986403.1875,481.06,11
NonResidential,Small- and Mid-Sized Office,98101.0,7,DOWNTOWN,47.61077,-122.3361,6,97720,0,,0.0,17.28,90
NonResidential,Medical Office,98104.0,3,EAST,47.61002,-122.32222,10,422503,206580,46.0,994154.3125,190.1,31
NonResidential,Medical Office,98122.0,3,CENTRAL,47.60649,-122.31121,7,94500,0,68.0,0.0,40.38,29
NonResidential,Retail Store,98106.0,1,DELRIDGE,47.53655,-122.36377,1,94713,0,79.0,0.0,94.74,11
NonResidential,Medical Office,98122.0,7,EAST,47.60707,-122.3288,9,302902,101342,58.0,0.0,130.32,8
NonResidential,Medical Office,98104.0,3,EAST,47.60883,-122.32494,19,319911,156407,50.0,3593940.25,357.39,43
NonResidential,Large Office,98104.0,7,DOWNTOWN,47.60353,-122.33558,6,205521,0,94.0,2068666.75,282.46,116
NonResidential,Small- and Mid-Sized Office,98104.0,7,DOWNTOWN,47.60197,-122.33437,6,56700,0,55.0,0.0,21.37,116
NonResidential,Small- and Mid-Sized Office,98134.0,2,GREATER DUWAMISH,47.59554,-122.32471,4,72000,0,89.0,0.0,23.48,91
NonResidential,Large Office,98109.0,7,MAGNOLIA / QUEEN ANNE,47.63347,-122.34078,4,191146,94892,93.0,0.0,35.56,16
NonResidential,Other,98121.0,1,DELRIDGE,47.56797,-122.36711,3,68763,11527,,0.0,310.19,15
NonResidential,Other,98118.0,2,SOUTHEAST,47.56961,-122.28881,1,102133,0,,0.0,530.62,22
NonResidential,Large Office,98101.0,7,DOWNTOWN,47.61567,-122.33503,14,362046,0,86.0,0.0,116.95,8
NonResidential,Other,98109.0,7,MAGNOLIA / QUEEN ANNE,47.62476,-122.35521,2,81336,0,,0.0,270.17,22
NonResidential,Large Office,98101.0,7,DOWNTOWN,47.6115,-122.33278,23,538933,0,90.0,0.0,111.69,15
NonResidential,Other,98121.0,7,DOWNTOWN,47.61234,-122.34897,6,275982,197130,,0.0,36.49,33
NonResidential,Small- and Mid-Sized Office,98119.0,7,MAGNOLIA / QUEEN ANNE,47.62497,-122.35965,5,98668,0,91.0,0.0,30.61,34
NonResidential,Large Office,98134.0,2,GREATER DUWAMISH,47.57639,-122.32072,1,158931,28381,12.0,0.0,98.54,9
NonResidential,Large Office,98119.0,7,MAGNOLIA / QUEEN ANNE,47.65692,-122.37059,1,105100,0,1.0,0.0,357.86,38
NonResidential,Retail Store,98121.0,7,MAGNOLIA / QUEEN ANNE,47.63284,-122.37712,1,50660,0,51.0,0.0,60.7,38
NonResidential,Small- and Mid-Sized Office,98119.0,7,MAGNOLIA / QUEEN ANNE,47.63156,-122.37551,2,61929,0,59.0,0.0,55.73,79
NonResidential,Large Office,98119.0,7,MAGNOLIA / QUEEN ANNE,47.62302,-122.36476,4,165111,55000,1.0,0.0,177.62,16
NonResidential,Small- and Mid-Sized Office,98121.0,7,DOWNTOWN,47.61588,-122.34965,3,20565,0,65.0,0.0,5.59,91
NonResidential,Large Office,98119.0,7,MAGNOLIA / QUEEN ANNE,47.62175,-122.36313,5,159937,55971,63.0,0.0,54.78,16
NonResidential,Large Office,98119.0,7,MAGNOLIA / QUEEN ANNE,47.62101,-122.36188,5,183964,46763,56.0,0.0,103.57,8
NonResidential,Large Office,98119.0,7,MAGNOLIA / QUEEN ANNE,47.61891,-122.35958,5,208210,78848,95.0,0.0,116.74,30
NonResidential,Large Office,98121.0,7,DOWNTOWN,47.61813,-122.35833,7,277486,80283,63.0,0.0,88.74,30
NonResidential,Large Office,98121.0,7,DOWNTOWN,47.614,-122.35375,3,187130,0,77.0,0.0,70.09,23
NonResidential,Large Office,98121.0,7,DOWNTOWN,47.61287,-122.35022,5,251044,117867,99.0,0.0,119.81,16
NonResidential,Warehouse,98101.0,7,DOWNTOWN,47.60703,-122.34038,5,154330,0,81.0,0.0,8.8,104
NonResidential,Large Office,98006.0,7,DOWNTOWN,47.60604,-122.33948,6,108245,14690,,266262.0,50.17,98
NonResidential,Large Office,98104.0,7,DOWNTOWN,47.6047,-122.33739,6,167860,0,70.0,0.0,47.39,111
NonResidential,Large Office,98104.0,7,DOWNTOWN,47.60247,-122.33621,6,112560,0,86.0,0.0,97.82,106
NonResidential,Retail Store,98104.0,7,DOWNTOWN,47.60223,-122.33602,6,86204,0,89.0,0.0,69.02,106
Nonresidential COS,Warehouse,98134.0,2,GREATER DUWAMISH,47.5829,-122.32417,2,145158,0,51.0,0.0,119.46,31
NonResidential,Large Office,98134.0,2,GREATER DUWAMISH,47.58716,-122.32214,2,112896,0,66.0,0.0,157.48,65
NonResidential,Distribution Center,98134.0,2,GREATER DUWAMISH,47.58685,-122.32501,1,110613,0,95.0,0.0,7.08,56
NonResidential,Warehouse,98103.0,2,GREATER DUWAMISH,47.58553,-122.32511,4,149881,0,97.0,0.0,95.86,65
NonResidential,Warehouse,98121.0,2,GREATER DUWAMISH,47.58042,-122.32552,3,98220,0,12.0,0.0,75.29,65
NonResidential,Distribution Center,98134.0,2,GREATER DUWAMISH,47.58096,-122.32313,1,84420,0,55.0,0.0,19.86,46
NonResidential,Distribution Center,98134.0,2,GREATER DUWAMISH,47.57055,-122.3267,1,73335,0,,0.0,155.74,55
NonResidential,Distribution Center,98134.0,2,GREATER DUWAMISH,47.5794,-122.32848,2,56876,0,,0.0,48.5,88
NonResidential,Warehouse,98134.0,2,GREATER DUWAMISH,47.58241,-122.32866,2,61200,0,16.0,0.0,178.62,85
NonResidential,Distribution Center,98134.0,2,GREATER DUWAMISH,47.58772,-122.32686,1,111908,0,87.0,0.0,34.14,29
NonResidential,Other,98134.0,2,GREATER DUWAMISH,47.5908,-122.32828,2,63644,0,,0.0,168.5,30
NonResidential,Mixed Use Property,98134.0,2,GREATER DUWAMISH,47.59439,-122.32839,2,108753,18860,,0.0,25.37,86
NonResidential,Supermarket / Grocery Store,98117.0,6,NORTHWEST,47.69197,-122.35877,1,141890,35545,91.0,0.0,293.56,46
NonResidential,Small- and Mid-Sized Office,98107.0,6,BALLARD,47.6633,-122.37549,4,92092,21055,5.0,0.0,33.58,15
NonResidential,Warehouse,98199.0,7,MAGNOLIA / QUEEN ANNE,47.6592,-122.38437,3,56259,0,,0.0,86.9,42
NonResidential,Other,98105.0,4,NORTHEAST,47.65529,-122.32133,6,143439,0,,0.0,710.7,10
NonResidential,Large Office,98103.0,6,LAKE UNION,47.64912,-122.34823,4,202623,88855,73.0,0.0,61.86,8
NonResidential,Small- and Mid-Sized Office,98103.0,6,LAKE UNION,47.64932,-122.35187,2,77174,25800,33.0,0.0,38.21,16
NonResidential,Large Office,98109.0,7,MAGNOLIA / QUEEN ANNE,47.62817,-122.34212,5,110524,0,57.0,0.0,47.82,18
NonResidential,Mixed Use Property,98109.0,3,LAKE UNION,47.6289,-122.32877,5,287224,103650,,0.0,314.43,8
NonResidential,Laboratory,98102.0,3,LAKE UNION,47.63079,-122.32693,4,115748,18382,,0.0,1154.79,17
NonResidential,Large Office,98119.0,7,MAGNOLIA / QUEEN ANNE,47.62225,-122.35915,7,241875,84689,88.0,0.0,68.06,16
NonResidential,Large Office,98109.0,7,MAGNOLIA / QUEEN ANNE,47.61949,-122.35639,5,102930,18720,85.0,0.0,65.03,42
NonResidential,Small- and Mid-Sized Office,98121.0,7,DOWNTOWN,47.61472,-122.35566,3,76893,0,,0.0,260.13,114
NonResidential,Large Office,98121.0,7,DOWNTOWN,47.61732,-122.34791,8,150000,23630,65.0,0.0,119.93,41
NonResidential,Large Office,98101.0,7,DOWNTOWN,47.61628,-122.33391,7,274362,0,82.0,0.0,147.82,63
NonResidential,Large Office,98121.0,7,DOWNTOWN,47.61599,-122.34165,15,378002,116280,85.0,0.0,246.83,33
NonResidential,Large Office,98121.0,7,DOWNTOWN,47.61481,-122.33969,11,169020,0,83.0,2887565.25,346.62,53
NonResidential,Other,98121.0,7,DOWNTOWN,47.61438,-122.33871,33,429405,0,98.0,0.0,1921.82,35
NonResidential,Large Office,98104.0,7,DOWNTOWN,47.60454,-122.33072,76,1952220,319400,86.0,0.0,882.56,31
NonResidential,Large Office,98101.0,7,DOWNTOWN,47.61418,-122.33485,19,383515,89778,90.0,0.0,110.7,35
NonResidential,Medical Office,98101.0,7,DOWNTOWN,47.6129,-122.33684,18,363934,28870,68.0,6090187.5,582.28,91
NonResidential,Retail Store,98101.0,7,DOWNTOWN,47.61203,-122.33486,4,78920,0,80.0,0.0,109.85,87
NonResidential,Large Office,98121.0,7,DOWNTOWN,47.61051,-122.34439,7,131143,87160,93.0,0.0,109.16,37
NonResidential,Other,98101.0,7,DOWNTOWN,47.61289,-122.33531,0,947987,0,,0.0,324.25,17
NonResidential,Mixed Use Property,98122.0,3,EAST,47.61505,-122.32,4,55520,0,,0.0,150.88,108
NonResidential,Large Office,98101.0,7,DOWNTOWN,47.61036,-122.34037,10,132998,0,97.0,1530680.625,133.8,108
NonResidential,Retail Store,98101.0,7,DOWNTOWN,47.60956,-122.33715,3,83118,0,59.0,0.0,27.82,76
NonResidential,Retail Store,98101.0,7,DOWNTOWN,47.60925,-122.33734,3,77555,0,39.0,0.0,54.4,92
NonResidential,Small- and Mid-Sized Office,98121.0,7,DOWNTOWN,47.60765,-122.34097,6,51218,0,57.0,0.0,20.12,107
NonResidential,Large Office,98101.0,7,DOWNTOWN,47.60765,-122.3348,29,489182,0,43.0,0.0,426.39,46
NonResidential,Large Office,98101.0,7,DOWNTOWN,47.60769,-122.33544,27,216571,13320,62.0,7413886.0,639.72,87
NonResidential,Large Office,98104.0,7,DOWNTOWN,47.60741,-122.33565,13,189175,0,13.0,0.0,132.71,95
NonResidential,Large Office,98104.0,7,DOWNTOWN,47.60582,-122.33464,13,293803,74481,25.0,0.0,119.03,18
NonResidential,Large Office,98101.0,7,DOWNTOWN,47.60576,-122.33922,7,122356,0,91.0,0.0,41.8,106
NonResidential,Small- and Mid-Sized Office,98104.0,7,DOWNTOWN,47.60366,-122.33328,3,52298,0,89.0,0.0,13.72,95
NonResidential,Large Office,98101.0,7,DOWNTOWN,47.60304,-122.33362,17,116640,0,75.0,1736650.625,169.06,105
NonResidential,Large Office,98104.0,3,DOWNTOWN,47.60573,-122.33028,42,1249055,201121,95.0,0.0,264.78,35
NonResidential,Medical Office,98104.0,3,EAST,47.60663,-122.32157,5,188339,99314,15.0,0.0,89.41,28
NonResidential,University,98122.0,3,CENTRAL,47.6094,-122.31506,2,60122,0,,0.0,9.31,100
NonResidential,Small- and Mid-Sized Office,98104.0,2,DOWNTOWN,47.5981,-122.33369,6,95000,13700,83.0,0.0,31.43,106
NonResidential,Large Office,98104.0,7,DOWNTOWN,47.6029,-122.32927,9,224857,0,79.0,4047481.0,390.67,45
NonResidential,Large Office,98104.0,2,DOWNTOWN,47.59878,-122.33088,8,446261,124788,96.0,0.0,94.59,18
NonResidential,Other,98104.0,2,GREATER DUWAMISH,47.59273,-122.33455,2,58492,0,,0.0,51.56,77
NonResidential,Small- and Mid-Sized Office,98134.0,2,GREATER DUWAMISH,47.58958,-122.33369,6,62370,0,30.0,0.0,30.35,109
NonResidential,Warehouse,98134.0,2,GREATER DUWAMISH,47.58454,-122.3269,1,73296,0,83.0,0.0,73.58,56
Nonresidential COS,Other,98134.0,2,GREATER DUWAMISH,47.5829,-122.32417,4,99122,0,,0.0,179.45,72
NonResidential,Other,98134.0,2,GREATER DUWAMISH,47.58251,-122.32528,1,66133,0,,0.0,89.94,31
NonResidential,Warehouse,98134.0,2,GREATER DUWAMISH,47.57613,-122.33864,2,115668,0,,0.0,111.23,64
NonResidential,Other,98108.0,2,GREATER DUWAMISH,47.56301,-122.32564,1,141686,0,,0.0,46.52,46
NonResidential,Small- and Mid-Sized Office,98134.0,2,GREATER DUWAMISH,47.55695,-122.33176,1,93610,0,95.0,0.0,152.28,66
NonResidential,Large Office,98108.0,2,GREATER DUWAMISH,47.55238,-122.32762,2,156188,0,67.0,0.0,60.92,43
NonResidential,Warehouse,98108.0,2,GREATER DUWAMISH,47.54923,-122.32446,1,115620,0,11.0,0.0,13.61,50
NonResidential,Large Office,98108.0,2,GREATER DUWAMISH,47.54699,-122.32882,5,238148,0,93.0,0.0,75.12,41
NonResidential,Distribution Center,98108.0,2,GREATER DUWAMISH,47.54326,-122.33134,1,71718,0,100.0,0.0,1.06,47
NonResidential,Warehouse,98108.0,1,GREATER DUWAMISH,47.53628,-122.3329,1,55450,0,31.0,0.0,131.64,47
NonResidential,Distribution Center,98108.0,1,GREATER DUWAMISH,47.52549,-122.33064,1,54880,0,32.0,0.0,89.53,37
NonResidential,Retail Store,98126.0,1,DELRIDGE,47.52222,-122.36892,1,102500,0,81.0,0.0,158.55,24
NonResidential,Other,98105.0,4,NORTHEAST,47.66478,-122.29804,6,361398,272900,,0.0,119.92,14
NonResidential,Supermarket / Grocery Store,98144.0,2,GREATER DUWAMISH,47.57903,-122.29982,1,50785,0,57.0,0.0,195.43,53
NonResidential,Small- and Mid-Sized Office,98106.0,1,DELRIDGE,47.54103,-122.33766,3,85126,0,1.0,0.0,166.13,87
NonResidential,Other,98125.0,5,NORTH,47.70911,-122.32529,5,303255,19820,,0.0,99.14,16
NonResidential,Distribution Center,98134.0,2,GREATER DUWAMISH,47.56613,-122.33838,1,411584,0,43.0,0.0,455.39,30
NonResidential,Mixed Use Property,98104.0,7,DOWNTOWN,47.59937,-122.33116,4,73320,0,,0.0,29.16,114
NonResidential,Large Office,98119.0,7,MAGNOLIA / QUEEN ANNE,47.6252,-122.36737,4,242686,100176,77.0,0.0,67.51,8
NonResidential,Small- and Mid-Sized Office,98104.0,2,DOWNTOWN,47.5992,-122.33223,6,95760,15840,83.0,0.0,74.45,116
NonResidential,Warehouse,98134.0,2,GREATER DUWAMISH,47.56733,-122.3352,1,179413,0,57.0,0.0,24.12,70
NonResidential,Warehouse,98134.0,2,GREATER DUWAMISH,47.57513,-122.33739,1,65288,0,,0.0,4.22,99
NonResidential,Warehouse,98106.0,1,DELRIDGE,47.5725,-122.3571,1,170632,0,98.0,0.0,4.2,50
NonResidential,Large Office,98109.0,7,MAGNOLIA / QUEEN ANNE,47.63264,-122.34171,10,381511,0,87.0,0.0,106.12,22
NonResidential,Large Office,98104.0,3,DOWNTOWN,47.60214,-122.32726,17,413264,138098,91.0,0.0,95.03,7
NonResidential,Mixed Use Property,98105.0,4,NORTHEAST,47.6586,-122.3124,6,122400,54300,63.0,0.0,79.39,7
NonResidential,Retail Store,98105.0,4,NORTHEAST,47.66246,-122.29898,2,93803,0,,0.0,110.41,60
SPS-District K-12,K-12 School,98122.0,3,CENTRAL,47.6012,-122.31548,1,52924,0,,0.0,13.64,28
NonResidential,Warehouse,98118.0,2,GREATER DUWAMISH,47.51304,-122.28394,2,123000,0,47.0,0.0,20.94,50
NonResidential,Medical Office,98122.0,3,EAST,47.6056366,-122.3214798,5,275130,112980,70.0,0.0,69.3,13
NonResidential,Warehouse,98136.0,2,GREATER DUWAMISH,47.51168,-122.28285,1,60448,0,90.0,0.0,27.24,38
NonResidential,Hospital,98122.0,3,EAST,47.608951,-122.322402,14,1765970,0,54.0,134943456.0,12307.16,22
NonResidential,Other,98121.0,7,MAGNOLIA / QUEEN ANNE,47.61915,-122.35871,4,62600,0,,0.0,406.04,88
NonResidential,Mixed Use Property,98122.0,3,EAST,47.60453796,-122.3203278,4,77412,21612,,0.0,20.85,12
NonResidential,Medical Office,98122.0,3,EAST,47.60796711,-122.3195445,5,289419,159157,59.0,0.0,133.5,26
NonResidential,Other,98115.0,5,NORTH,47.6993,-122.32378,5,90266,0,18.0,0.0,54.18,29
NonResidential,Warehouse,98107.0,6,BALLARD,47.6582,-122.36434,4,87332,6458,87.0,0.0,14.49,12
NonResidential,Hotel,98122.0,3,EAST,47.61210727,-122.3205972,6,150545,50017,28.0,0.0,453.76,13
NonResidential,Other,98109.0,7,MAGNOLIA / QUEEN ANNE,47.62147,-122.34817,5,141718,0,,0.0,341.23,17
NonResidential,Hotel,98109.0,7,MAGNOLIA / QUEEN ANNE,47.62562,-122.35121,5,111856,21273,8.0,0.0,278.97,8
NonResidential,Warehouse,98122.0,3,EAST,47.61818,-122.31728,4,132828,0,83.0,0.0,7.56,28
NonResidential,Warehouse,98106.0,1,DELRIDGE,47.53935,-122.34402,1,70400,0,1.0,0.0,284.01,46
NonResidential,Retail Store,98133.0,5,NORTHWEST,47.71417,-122.34256,1,101830,0,60.0,0.0,295.12,21
SPS-District K-12,K-12 School,98122.0,3,CENTRAL,47.6021,-122.29181,3,55353,0,,0.0,9.99,28
NonResidential,University,98144.0,3,CENTRAL,47.5997,-122.30364,4,114000,0,,0.0,109.71,42
SPS-District K-12,Other,98124.0,2,GREATER DUWAMISH,47.5805,-122.33032,3,338063,0,,0.0,259.49,14
NonResidential,Warehouse,98053.0,1,SOUTHWEST,47.57311,-122.3601,1,152365,0,88.0,0.0,13.07,51
NonResidential,Medical Office,98122.0,3,CENTRAL,47.60705,-122.30966,6,320946,0,57.0,0.0,189.85,106
NonResidential,Retail Store,98108.0,2,GREATER DUWAMISH,47.54862,-122.32272,1,74178,0,,0.0,134.82,58
NonResidential,Warehouse,98125.0,5,NORTH,47.70799,-122.30185,4,80360,0,96.0,0.0,16.27,29
SPS-District K-12,K-12 School,98116.0,1,SOUTHWEST,47.5795,-122.38723,1,61183,0,92.0,0.0,95.54,66
NonResidential,Supermarket / Grocery Store,98122.0,3,EAST,47.61318,-122.32122,3,119190,0,71.0,0.0,267.0,20
NonResidential,Other,98134.0,2,GREATER DUWAMISH,47.59394,-122.32452,2,51856,0,,0.0,13.51,8
NonResidential,Mixed Use Property,98134.0,2,GREATER DUWAMISH,47.58718,-122.33467,3,66138,12586,3.0,0.0,49.29,95
NonResidential,Large Office,98105.0,4,NORTHEAST,47.66181,-122.31231,3,113944,48510,1.0,0.0,128.73,56
NonResidential,Worship Facility,98115.0,4,NORTHEAST,47.67738,-122.28996,2,22220,0,90.0,0.0,31.74,59
SPS-District K-12,K-12 School,98115.0,5,NORTHEAST,47.69054,-122.29705,1,46732,0,87.0,0.0,89.08,61
NonResidential,Mixed Use Property,98108.0,2,GREATER DUWAMISH,47.54437,-122.30863,1,44700,0,,0.0,30.52,54
NonResidential,Warehouse,98108.0,2,GREATER DUWAMISH,47.54137,-122.33051,1,44100,0,1.0,0.0,11.29,40
NonResidential,Distribution Center,98108.0,2,GREATER DUWAMISH,47.54113,-122.32633,1,27800,0,13.0,0.0,24.39,51
NonResidential,Warehouse,98134.0,2,GREATER DUWAMISH,47.55436,-122.33631,1,46340,0,3.0,0.0,17.87,15
Campus,Other,98155.0,2,GREATER DUWAMISH,47.54134,-122.30529,1,22800,0,,0.0,101.5,22
NonResidential,Small- and Mid-Sized Office,98122.0,3,CENTRAL,47.60191,-122.31438,3,38460,0,69.0,0.0,36.02,106
NonResidential,Worship Facility,98103.0,6,NORTHWEST,47.68576,-122.35481,2,21022,0,54.0,0.0,43.84,94
SPS-District K-12,K-12 School,98116.0,1,SOUTHWEST,47.5773,-122.4074,2,51489,0,93.0,0.0,70.76,62
NonResidential,Distribution Center,98118.0,2,GREATER DUWAMISH,47.51127,-122.281,1,48001,0,49.0,0.0,86.46,49
NonResidential,Warehouse,98118.0,2,GREATER DUWAMISH,47.51399,-122.27946,1,26380,0,,0.0,3.58,37
NonResidential,Warehouse,98118.0,2,GREATER DUWAMISH,47.51018,-122.28192,1,37351,0,10.0,0.0,77.04,47
NonResidential,Warehouse,98118.0,2,GREATER DUWAMISH,47.51127,-122.281,1,30375,0,73.0,0.0,2.41,35
NonResidential,Warehouse,98118.0,2,GREATER DUWAMISH,47.51104,-122.28245,1,30004,0,,0.0,2.57,37
NonResidential,Other,98115.0,4,NORTHEAST,47.68541,-122.27097,3,39971,0,,0.0,416.07,88
NonResidential,Worship Facility,98117.0,6,BALLARD,47.68164,-122.3753,2,33589,0,90.0,0.0,21.93,102
NonResidential,Small- and Mid-Sized Office,98107.0,6,BALLARD,47.66587,-122.38476,3,43500,0,46.0,0.0,22.65,37
NonResidential,Small- and Mid-Sized Office,98107.0,6,BALLARD,47.67528,-122.40836,2,28492,0,12.0,0.0,37.78,38
NonResidential,Small- and Mid-Sized Office,98107.0,6,BALLARD,47.6744,-122.40735,3,22325,0,,0.0,9.77,53
NonResidential,Restaurant,98107.0,6,BALLARD,47.67398,-122.40765,3,22719,0,,0.0,9.47,39
NonResidential,Laboratory,98101.0,7,DOWNTOWN,47.61597,-122.33086,2,44588,22000,,0.0,50.55,70
SPS-District K-12,K-12 School,98122.0,3,CENTRAL,47.60842,-122.30093,2,37327,0,92.0,0.0,71.06,91
NonResidential,Retail Store,98144.0,3,DOWNTOWN,47.59692,-122.31543,2,147545,0,69.0,0.0,169.75,99
Nonresidential COS,Other,98115.0,4,NORTH,47.68339,-122.31947,2,21462,0,,0.0,7.77,93
SPS-District K-12,K-12 School,98103.0,6,NORTHWEST,47.68636,-122.3423,2,47602,0,78.0,0.0,83.59,86
NonResidential,Other,98013.0,6,NORTHWEST,47.67713,-122.35398,2,28072,0,,0.0,63.48,99
NonResidential,Restaurant,98121.0,7,DOWNTOWN,47.61468,-122.34925,2,31020,0,,0.0,207.6,61
NonResidential,Small- and Mid-Sized Office,98121.0,7,DOWNTOWN,47.61402,-122.35016,2,21600,0,,0.0,29.62,99
NonResidential,Small- and Mid-Sized Office,98121.0,7,DOWNTOWN,47.6158,-122.35126,5,61825,13320,59.0,0.0,141.2,42
NonResidential,Small- and Mid-Sized Office,98121.0,7,DOWNTOWN,47.61683,-122.35176,3,64630,0,96.0,0.0,9.82,74
NonResidential,Worship Facility,98121.0,7,DOWNTOWN,47.61636,-122.35094,2,20920,0,15.0,0.0,42.19,68
NonResidential,Worship Facility,98116.0,1,SOUTHWEST,47.57384,-122.41182,2,22128,0,94.0,0.0,25.24,90
NonResidential,Retail Store,98133.0,5,NORTHWEST,47.72736,-122.34579,1,48139,0,98.0,0.0,24.02,48
NonResidential,Worship Facility,98116.0,1,SOUTHWEST,47.56633,-122.38725,2,21364,0,86.0,0.0,43.8,67
NonResidential,University,98121.0,7,DOWNTOWN,47.61741,-122.33491,2,28923,0,,0.0,15.27,24
NonResidential,University,98121.0,7,DOWNTOWN,47.61789,-122.33573,3,21600,0,,0.0,6.33,88
NonResidential,Retail Store,98105.0,4,NORTHEAST,47.6646,-122.29932,1,25735,0,82.0,0.0,18.1,20
NonResidential,Retail Store,98105.0,4,NORTHEAST,47.66246,-122.29898,2,25862,0,20.0,0.0,154.17,60
NonResidential,Retail Store,98105.0,4,NORTHEAST,47.66246,-122.29898,2,49965,0,82.0,0.0,29.54,13
NonResidential,Small- and Mid-Sized Office,98104.0,7,DOWNTOWN,47.6026,-122.33232,2,20028,0,95.0,151742.5,14.22,87
NonResidential,Small- and Mid-Sized Office,98104.0,7,DOWNTOWN,47.60247,-122.33372,7,23622,0,100.0,0.0,9.95,116
NonResidential,Small- and Mid-Sized Office,98104.0,7,DOWNTOWN,47.60237,-122.33365,3,23563,0,67.0,0.0,6.16,114
NonResidential,Mixed Use Property,98104.0,7,DOWNTOWN,47.60284,-122.33407,3,28600,0,,0.0,24.25,113
NonResidential,Mixed Use Property,98104.0,7,DOWNTOWN,47.60427,-122.33385,2,38539,12379,55.0,0.0,15.24,38
NonResidential,Small- and Mid-Sized Office,98104.0,7,DOWNTOWN,47.60427,-122.33385,5,26840,0,24.0,0.0,13.87,110
NonResidential,Retail Store,98104.0,7,DOWNTOWN,47.60427,-122.33385,2,46800,0,86.0,0.0,8.68,110
NonResidential,Small- and Mid-Sized Office,98104.0,7,DOWNTOWN,47.60431,-122.33335,3,63990,26640,51.0,0.0,14.63,37
NonResidential,Small- and Mid-Sized Office,98121.0,7,DOWNTOWN,47.61285,-122.34817,3,28800,0,50.0,0.0,28.81,108
NonResidential,Small- and Mid-Sized Office,98121.0,7,DOWNTOWN,47.6172,-122.34979,3,33552,4968,75.0,0.0,60.43,62
NonResidential,Retail Store,98121.0,7,DOWNTOWN,47.61652,-122.34854,2,26270,0,32.0,0.0,33.78,85
NonResidential,Small- and Mid-Sized Office,98121.0,7,DOWNTOWN,47.61595,-122.34756,3,57620,7820,50.0,0.0,16.63,90
NonResidential,Mixed Use Property,98121.0,7,DOWNTOWN,47.61543,-122.34651,2,28696,6080,,0.0,2.92,62
NonResidential,Hotel,98121.0,7,DOWNTOWN,47.61471,-122.34525,5,57800,0,87.0,0.0,66.29,26
NonResidential,Other,98101.0,7,DOWNTOWN,47.61319,-122.33695,2,31890,0,2.0,0.0,12.95,61
NonResidential,Small- and Mid-Sized Office,98101.0,7,DOWNTOWN,47.61267,-122.33852,2,44098,13660,53.0,450522.3125,41.69,91
NonResidential,Restaurant,98101.0,7,DOWNTOWN,47.61332,-122.33904,3,22381,0,,0.0,126.78,93
NonResidential,Laboratory,98121.0,7,DOWNTOWN,47.61763,-122.35507,4,49249,0,,0.0,1266.06,90
NonResidential,Retail Store,98121.0,7,DOWNTOWN,47.61812,-122.35509,1,24825,1263,,0.0,11.14,91
NonResidential,Medical Office,98121.0,7,DOWNTOWN,47.6146,-122.34217,4,26670,0,51.0,0.0,10.83,64
Nonresidential COS,Other,98121.0,7,DOWNTOWN,47.61607,-122.34449,2,37740,0,,0.0,86.02,94
NonResidential,Small- and Mid-Sized Office,98121.0,7,DOWNTOWN,47.61768,-122.34139,1,23752,0,,0.0,30.33,51
NonResidential,Hotel,98121.0,7,DOWNTOWN,47.61822,-122.34132,4,44416,0,61.0,0.0,72.78,49
NonResidential,Mixed Use Property,98121.0,7,DOWNTOWN,47.61634,-122.35385,2,33792,22867,,0.0,30.6,10
NonResidential,Worship Facility,98103.0,6,NORTHWEST,47.66476,-122.35248,2,45991,0,77.0,0.0,36.43,88
NonResidential,Residence Hall,98105.0,4,NORTHEAST,47.66282,-122.305,3,21499,0,85.0,0.0,4.22,95
NonResidential,Small- and Mid-Sized Office,98105.0,4,NORTHEAST,47.66461,-122.30142,2,20384,0,16.0,0.0,13.91,27
NonResidential,Retail Store,98105.0,4,NORTHEAST,47.66246,-122.29898,2,39265,0,,0.0,47.12,60
NonResidential,Retail Store,98105.0,4,NORTHEAST,47.66246,-122.29898,2,54284,0,18.0,0.0,63.61,60
NonResidential,Retail Store,98105.0,4,NORTHEAST,47.66246,-122.29898,1,23409,0,67.0,0.0,28.41,60
NonResidential,Retail Store,98105.0,4,NORTHEAST,47.66246,-122.29898,1,63153,0,,0.0,47.66,19
NonResidential,Hotel,98105.0,4,NORTHEAST,47.66355,-122.30123,2,24100,0,91.0,0.0,46.57,55
NonResidential,Restaurant,98101.0,7,DOWNTOWN,47.61521,-122.33747,3,33600,0,,0.0,101.99,93
NonResidential,Other,98121.0,7,DOWNTOWN,47.61362,-122.33959,4,32356,0,81.0,882630.6875,74.92,89
NonResidential,Hotel,98121.0,7,DOWNTOWN,47.61798,-122.33974,7,61180,12960,24.0,0.0,126.3,56
NonResidential,Small- and Mid-Sized Office,98121.0,7,DOWNTOWN,47.61524,-122.33519,5,43506,11250,51.0,0.0,99.15,38
NonResidential,Worship Facility,98115.0,6,NORTHWEST,47.67572,-122.3285,2,23931,0,88.0,0.0,18.66,106
NonResidential,Worship Facility,98103.0,6,NORTHWEST,47.67491,-122.33316,2,21393,0,57.0,0.0,32.64,68
NonResidential,Mixed Use Property,98144.0,2,SOUTHEAST,47.57256,-122.29265,2,47560,0,80.0,0.0,33.23,26
NonResidential,Senior Care Community,98104.0,3,EAST,47.60897,-122.32507,6,62334,0,100.0,0.0,34.98,10
NonResidential,Residence Hall,98105.0,4,NORTHEAST,47.66159,-122.30441,3,20960,0,,0.0,64.51,86
NonResidential,University,98121.0,7,DOWNTOWN,47.61679,-122.33619,3,28800,0,,0.0,8.45,106
NonResidential,K-12 School,98121.0,7,DOWNTOWN,47.61718,-122.33654,2,21600,0,72.0,0.0,38.87,59
NonResidential,K-12 School,98101.0,7,DOWNTOWN,47.61687,-122.33533,3,22860,0,43.0,0.0,6.49,21
NonResidential,Worship Facility,98105.0,4,NORTHEAST,47.66516,-122.2738,1,26366,0,88.0,0.0,32.22,44
NonResidential,Worship Facility,98118.0,2,SOUTHEAST,47.54362,-122.2667,2,21732,0,2.0,0.0,23.59,51
NonResidential,Mixed Use Property,98107.0,6,BALLARD,47.66835,-122.38886,1,21060,0,,0.0,6.69,71
NonResidential,Mixed Use Property,98107.0,6,BALLARD,47.6684,-122.38788,4,20539,0,,0.0,37.31,56
SPS-District K-12,K-12 School,98115.0,4,NORTHEAST,47.67365,-122.26293,1,38624,0,83.0,0.0,38.78,58
NonResidential,Retail Store,98105.0,4,NORTHEAST,47.66033,-122.31348,3,32960,0,71.0,0.0,5.67,116
NonResidential,Other,98105.0,4,NORTHEAST,47.66097,-122.3139,3,29636,0,,0.0,4.8,95
NonResidential,Hotel,98105.0,4,NORTHEAST,47.66023,-122.31581,3,20571,0,72.0,0.0,4.99,86
NonResidential,Worship Facility,98105.0,4,NORTHEAST,47.65926,-122.31241,2,47992,0,17.0,0.0,118.37,90
NonResidential,Residence Hall,98105.0,4,NORTHEAST,47.65711,-122.31409,3,28572,0,16.0,0.0,89.57,23
NonResidential,Residence Hall,98104.0,3,EAST,47.60817,-122.32654,15,115775,31535,94.0,0.0,20.09,34
NonResidential,Worship Facility,98115.0,4,NORTHEAST,47.68752,-122.29852,2,31386,0,52.0,0.0,27.14,16
Campus,K-12 School,98115.0,4,NORTHEAST,47.687,-122.30013,3,21500,0,44.0,0.0,202.65,27
NonResidential,Small- and Mid-Sized Office,98103.0,4,LAKE UNION,47.64834,-122.33188,2,84116,26497,68.0,0.0,20.08,4
NonResidential,Hotel,98121.0,7,DOWNTOWN,47.61345,-122.34068,9,104000,0,8.0,3578548.25,355.8,91
SPS-District K-12,K-12 School,98144.0,2,GREATER DUWAMISH,47.57405,-122.30301,1,55206,0,75.0,0.0,61.84,45
NonResidential,Senior Care Community,98144.0,2,SOUTHEAST,47.57188,-122.29531,3,78374,0,98.0,0.0,23.15,35
NonResidential,Mixed Use Property,98107.0,6,BALLARD,47.65742,-122.36736,2,38784,0,,0.0,26.11,9
NonResidential,Other,98134.0,2,GREATER DUWAMISH,47.57383,-122.33046,2,41790,0,,0.0,33.37,47
NonResidential,Small- and Mid-Sized Office,98104.0,7,DOWNTOWN,47.60542,-122.3364,5,39960,0,77.0,0.0,49.98,116
NonResidential,Warehouse,98101.0,7,DOWNTOWN,47.60528,-122.33627,5,33300,0,,0.0,0.63,116
NonResidential,Hotel,98101.0,7,DOWNTOWN,47.60721,-122.33451,11,36240,0,98.0,1158118.25,120.91,90
NonResidential,Other,98101.0,7,DOWNTOWN,47.60781,-122.33186,3,39320,6960,,1165335.75,145.48,94
NonResidential,Other,98104.0,7,DOWNTOWN,47.60547,-122.33118,5,41536,0,,0.0,19.07,108
NonResidential,Hotel,98104.0,7,DOWNTOWN,47.60223,-122.32889,6,35820,0,94.0,0.0,130.58,107
NonResidential,K-12 School,98116.0,1,SOUTHWEST,47.56542,-122.38502,2,33462,0,76.0,0.0,185.23,94
NonResidential,K-12 School,98116.0,1,SOUTHWEST,47.56504,-122.38455,3,49744,0,98.0,0.0,89.29,51
NonResidential,Worship Facility,98116.0,1,SOUTHWEST,47.56342,-122.38509,2,37816,0,60.0,0.0,43.45,93
NonResidential,Mixed Use Property,98116.0,1,SOUTHWEST,47.5622,-122.38648,2,23315,0,,0.0,35.04,90
NonResidential,Mixed Use Property,98116.0,1,SOUTHWEST,47.56147,-122.38638,2,20700,0,,0.0,188.67,86
NonResidential,Other,98116.0,1,SOUTHWEST,47.56263,-122.38196,1,41521,13124,,0.0,100.21,68
NonResidential,Supermarket / Grocery Store,98126.0,1,SOUTHWEST,47.56197,-122.38109,2,25762,0,100.0,0.0,13.29,70
NonResidential,Other,98126.0,1,SOUTHWEST,47.56245,-122.37805,1,33334,0,,0.0,210.3,32
NonResidential,Small- and Mid-Sized Office,98126.0,1,SOUTHWEST,47.56175,-122.37835,3,43387,0,60.0,0.0,34.15,35
NonResidential,Mixed Use Property,98125.0,5,NORTH,47.72178,-122.29498,1,39350,0,,0.0,1.86,37
NonResidential,Other,98125.0,5,NORTH,47.72032,-122.29507,1,22405,0,,0.0,134.57,67
SPS-District K-12,Other,98125.0,5,NORTH,47.72606,-122.28747,1,32590,0,,0.0,43.13,3
NonResidential,Warehouse,98108.0,2,GREATER DUWAMISH,47.552,-122.32262,1,37500,0,36.0,0.0,13.16,31
NonResidential,Medical Office,98122.0,3,CENTRAL,47.60132,-122.30477,2,39000,0,25.0,0.0,33.92,26
NonResidential,Other,98116.0,1,SOUTHWEST,47.56018,-122.38716,1,22180,0,,0.0,147.0,92
SPS-District K-12,K-12 School,98144.0,2,GREATER DUWAMISH,47.58547,-122.3151,1,51704,0,62.0,0.0,41.68,45
NonResidential,Distribution Center,98144.0,2,GREATER DUWAMISH,47.58513,-122.30645,1,25920,0,,0.0,12.48,47
NonResidential,Refrigerated Warehouse,98144.0,2,GREATER DUWAMISH,47.58528,-122.30595,1,25480,0,,0.0,5.17,63
NonResidential,Warehouse,98144.0,2,GREATER DUWAMISH,47.58482,-122.30501,2,31000,0,,0.0,19.93,46
NonResidential,Small- and Mid-Sized Office,98144.0,2,GREATER DUWAMISH,47.58528,-122.305,1,29740,0,57.0,0.0,19.82,55
NonResidential,Distribution Center,98144.0,2,GREATER DUWAMISH,47.58607,-122.30445,1,23236,0,,0.0,13.02,62
NonResidential,Small- and Mid-Sized Office,98144.0,2,SOUTHEAST,47.58579,-122.3034,3,38075,0,,0.0,19.04,7
NonResidential,Small- and Mid-Sized Office,98144.0,3,SOUTHEAST,47.5859,-122.29957,2,39170,0,81.0,0.0,63.06,46
Nonresidential COS,Other,98134.0,3,SOUTHEAST,47.58476,-122.29765,1,36070,0,,0.0,10.05,39
NonResidential,Other,98144.0,2,SOUTHEAST,47.56979,-122.29234,2,20047,0,,0.0,0.82,53
NonResidential,Retail Store,98134.0,2,GREATER DUWAMISH,47.57403,-122.3336,1,20000,0,75.0,0.0,3.89,102
NonResidential,Warehouse,98134.0,2,GREATER DUWAMISH,47.5741,-122.32541,2,32400,0,91.0,0.0,1.73,61
NonResidential,Supermarket / Grocery Store,98109.0,7,MAGNOLIA / QUEEN ANNE,47.63776,-122.35606,1,25159,0,38.0,0.0,247.85,54
Nonresidential COS,Other,98119.0,7,MAGNOLIA / QUEEN ANNE,47.63629,-122.35922,1,27247,0,,0.0,83.1,68
NonResidential,Distribution Center,98134.0,2,GREATER DUWAMISH,47.56489,-122.3409,1,26680,0,92.0,0.0,1.7,61
NonResidential,Warehouse,98106.0,1,DELRIDGE,47.56447,-122.35335,1,31521,0,6.0,0.0,61.71,63
NonResidential,Warehouse,98134.0,2,GREATER DUWAMISH,47.56982,-122.33479,1,24000,0,,0.0,46.64,65
NonResidential,Self-Storage Facility,98134.0,2,GREATER DUWAMISH,47.56487,-122.34181,1,21900,0,,0.0,65.65,64
NonResidential,Warehouse,98134.0,2,GREATER DUWAMISH,47.56897,-122.33617,1,38005,0,,0.0,10.75,55
NonResidential,Distribution Center,98134.0,2,GREATER DUWAMISH,47.5678,-122.33622,1,35579,0,72.0,0.0,39.05,18
NonResidential,Distribution Center,98134.0,2,GREATER DUWAMISH,47.57382,-122.32672,1,49950,0,77.0,0.0,1.67,41
SPS-District K-12,K-12 School,98112.0,3,EAST,47.6315,-122.30761,3,62078,0,97.0,0.0,50.69,15
NonResidential,Worship Facility,98199.0,7,MAGNOLIA / QUEEN ANNE,47.63927,-122.4032,2,22612,0,87.0,0.0,31.6,69
NonResidential,Other,98125.0,5,NORTH,47.72599,-122.29314,2,38787,0,,0.0,67.52,40
NonResidential,Self-Storage Facility,98125.0,5,NORTH,47.72356,-122.29378,2,50368,0,,0.0,28.58,28
NonResidential,Warehouse,98134.0,2,GREATER DUWAMISH,47.55302,-122.33605,1,30545,0,12.0,0.0,61.53,78
NonResidential,K-12 School,98112.0,7,MAGNOLIA / QUEEN ANNE,47.63111,-122.35814,3,32691,0,99.0,0.0,29.82,94
NonResidential,Worship Facility,98119.0,7,MAGNOLIA / QUEEN ANNE,47.63159,-122.35839,2,24227,0,55.0,0.0,47.59,53
NonResidential,Distribution Center,98108.0,2,GREATER DUWAMISH,47.54365,-122.30785,1,27000,0,61.0,0.0,18.85,60
SPS-District K-12,K-12 School,98102.0,4,LAKE UNION,47.64252,-122.32418,3,95501,0,88.0,0.0,62.94,17
NonResidential,Small- and Mid-Sized Office,98104.0,4,LAKE UNION,47.64243,-122.32618,2,21183,0,99.0,0.0,2.52,59
NonResidential,Small- and Mid-Sized Office,98102.0,4,LAKE UNION,47.64428,-122.32627,3,29392,3834,91.0,0.0,6.18,55
NonResidential,Large Office,98102.0,4,LAKE UNION,47.6465,-122.3252,5,137738,55504,62.0,0.0,32.8,31
NonResidential,Residence Hall,98103.0,4,LAKE UNION,47.65014,-122.34424,3,21118,0,49.0,0.0,39.5,28
NonResidential,Large Office,98103.0,4,LAKE UNION,47.64868,-122.34254,5,206126,79284,98.0,0.0,72.26,3
NonResidential,Small- and Mid-Sized Office,98103.0,4,LAKE UNION,47.64866,-122.34509,2,20500,0,48.0,0.0,11.27,116
NonResidential,Senior Care Community,98117.0,6,BALLARD,47.69875,-122.36725,2,34636,31000,3.0,0.0,480.9,50
NonResidential,Worship Facility,98115.0,4,NORTHEAST,47.67485,-122.29284,2,25521,0,82.0,0.0,15.47,86
NonResidential,K-12 School,98115.0,4,NORTHEAST,47.67485,-122.29284,1,23190,0,79.0,0.0,68.14,30
NonResidential,Small- and Mid-Sized Office,98103.0,6,NORTHWEST,47.68602,-122.35674,1,20678,0,98.0,0.0,32.63,56
NonResidential,K-12 School,98103.0,6,NORTHWEST,47.68642,-122.35707,3,28820,0,43.0,0.0,106.45,94
NonResidential,Worship Facility,98178.0,2,SOUTHEAST,47.51042,-122.26277,2,27876,0,69.0,0.0,68.97,62
SPS-District K-12,K-12 School,98109.0,7,MAGNOLIA / QUEEN ANNE,47.63796,-122.34897,1,48789,0,94.0,0.0,29.41,91
SPS-District K-12,K-12 School,98118.0,2,SOUTHEAST,47.55818,-122.28712,1,33105,0,79.0,0.0,69.77,91
NonResidential,Senior Care Community,98118.0,2,SOUTHEAST,47.55387,-122.27875,2,48882,7233,51.0,0.0,235.26,50
NonResidential,Warehouse,98108.0,2,GREATER DUWAMISH,47.55374,-122.32498,1,22320,0,62.0,0.0,3.06,39
NonResidential,Other,98108.0,2,GREATER DUWAMISH,47.55297,-122.32472,1,47105,0,,0.0,348.22,40
NonResidential,Small- and Mid-Sized Office,98108.0,2,GREATER DUWAMISH,47.55316,-122.32616,2,40029,0,69.0,0.0,10.26,34
NonResidential,Small- and Mid-Sized Office,98108.0,2,GREATER DUWAMISH,47.55196,-122.32518,2,28304,0,67.0,0.0,8.85,46
NonResidential,Other,98108.0,2,GREATER DUWAMISH,47.55168,-122.32459,1,26400,0,,0.0,3.16,46
NonResidential,Warehouse,98108.0,2,GREATER DUWAMISH,47.55049,-122.32382,1,27680,0,,0.0,64.81,48
NonResidential,Small- and Mid-Sized Office,98108.0,2,GREATER DUWAMISH,47.55145,-122.32635,2,25872,0,,0.0,45.79,47
NonResidential,Small- and Mid-Sized Office,98108.0,2,GREATER DUWAMISH,47.55127,-122.32576,2,25872,0,41.0,0.0,81.96,47
NonResidential,Warehouse,98108.0,2,GREATER DUWAMISH,47.55127,-122.32576,1,20500,0,65.0,0.0,1.55,47
NonResidential,Small- and Mid-Sized Office,98103.0,4,LAKE UNION,47.6557,-122.34682,2,21436,0,95.0,0.0,3.73,58
NonResidential,Mixed Use Property,98102.0,3,NORTHEAST,47.65205,-122.3218,1,20233,0,,0.0,18.16,18
NonResidential,Small- and Mid-Sized Office,98103.0,6,LAKE UNION,47.65178,-122.351,4,39926,12400,,0.0,14.49,10
NonResidential,Small- and Mid-Sized Office,98103.0,4,LAKE UNION,47.64904,-122.34609,3,31417,8110,94.0,0.0,28.09,31
NonResidential,Self-Storage Facility,98101.0,7,DOWNTOWN,47.61179,-122.3404,6,46580,0,,0.0,4.95,88
NonResidential,Retail Store,98101.0,7,DOWNTOWN,47.61165,-122.34011,2,25920,0,5.0,0.0,3.34,100
NonResidential,Retail Store,98121.0,7,DOWNTOWN,47.61236,-122.34144,2,25920,0,93.0,0.0,13.71,97
NonResidential,Hotel,98121.0,7,DOWNTOWN,47.61203,-122.34165,8,61721,0,93.0,0.0,36.92,106
NonResidential,Small- and Mid-Sized Office,98121.0,7,DOWNTOWN,47.61297,-122.34324,2,25920,0,75.0,0.0,46.48,97
NonResidential,Small- and Mid-Sized Office,98101.0,3,EAST,47.61098,-122.32766,4,39760,0,92.0,1739620.75,149.91,91
NonResidential,Other,98101.0,3,EAST,47.61109,-122.32721,3,30971,0,,230989.2969,94.85,96
NonResidential,Small- and Mid-Sized Office,98101.0,3,EAST,47.61063,-122.32741,3,22667,0,1.0,1639341.375,148.55,70
NonResidential,Warehouse,98103.0,6,LAKE UNION,47.64965,-122.34913,2,33840,0,,0.0,60.88,89
NonResidential,Mixed Use Property,98103.0,6,LAKE UNION,47.6502,-122.34959,3,41827,9226,,0.0,110.17,15
NonResidential,Small- and Mid-Sized Office,98103.0,6,LAKE UNION,47.65114,-122.34954,5,33740,6010,79.0,0.0,9.0,15
NonResidential,Retail Store,98103.0,6,LAKE UNION,47.65115,-122.35024,2,20516,0,98.0,0.0,42.04,105
NonResidential,Retail Store,98103.0,6,LAKE UNION,47.65019,-122.35013,3,27480,0,88.0,0.0,8.47,110
NonResidential,Mixed Use Property,98103.0,6,LAKE UNION,47.65061,-122.35159,1,46958,0,95.0,0.0,30.32,69
NonResidential,Distribution Center,98103.0,6,LAKE UNION,47.65214,-122.356,1,26532,0,5.0,0.0,66.53,32
NonResidential,Small- and Mid-Sized Office,98103.0,6,LAKE UNION,47.65186,-122.35531,2,22388,0,,0.0,9.46,35
NonResidential,Other,98103.0,6,LAKE UNION,47.65138,-122.35565,1,30730,0,,0.0,73.52,47
NonResidential,Small- and Mid-Sized Office,98107.0,6,LAKE UNION,47.65297,-122.35839,2,35600,0,47.0,0.0,18.34,30
NonResidential,Worship Facility,98119.0,7,MAGNOLIA / QUEEN ANNE,47.64905,-122.36055,3,62000,0,81.0,0.0,82.34,67
NonResidential,Small- and Mid-Sized Office,98109.0,7,MAGNOLIA / QUEEN ANNE,47.64805,-122.35534,2,23600,0,82.0,0.0,5.41,35
NonResidential,Small- and Mid-Sized Office,98109.0,7,MAGNOLIA / QUEEN ANNE,47.64976,-122.35684,3,40067,0,43.0,0.0,16.06,30
NonResidential,Small- and Mid-Sized Office,98109.0,7,MAGNOLIA / QUEEN ANNE,47.64976,-122.35684,3,26419,6922,67.0,0.0,7.49,27
NonResidential,Small- and Mid-Sized Office,98109.0,7,MAGNOLIA / QUEEN ANNE,47.64976,-122.35684,3,25262,0,54.0,0.0,23.85,37
NonResidential,Other,98103.0,6,LAKE UNION,47.64975,-122.35289,3,53103,0,,0.0,38.12,20
NonResidential,Small- and Mid-Sized Office,98109.0,7,MAGNOLIA / QUEEN ANNE,47.64901,-122.35516,3,34106,0,57.0,0.0,11.29,36
NonResidential,Small- and Mid-Sized Office,98109.0,7,MAGNOLIA / QUEEN ANNE,47.64934,-122.35592,3,34545,0,29.0,0.0,16.13,36
NonResidential,Small- and Mid-Sized Office,98109.0,7,MAGNOLIA / QUEEN ANNE,47.64865,-122.35435,3,70296,0,86.0,0.0,19.39,36
NonResidential,Small- and Mid-Sized Office,98104.0,7,DOWNTOWN,47.59979,-122.33339,4,27838,0,77.0,0.0,8.49,114
NonResidential,Distribution Center,98106.0,1,DELRIDGE,47.55105,-122.34695,2,28368,0,,0.0,30.02,45
NonResidential,Other,98133.0,5,NORTHWEST,47.72471,-122.3412,2,92080,0,,0.0,127.1,52
NonResidential,Other,98133.0,5,NORTHWEST,47.72288,-122.34065,1,20236,0,,0.0,49.58,55
NonResidential,Small- and Mid-Sized Office,98133.0,5,NORTHWEST,47.72004,-122.34418,2,39815,0,62.0,0.0,40.22,65
Nonresidential COS,Other,98133.0,5,NORTHWEST,47.72299,-122.34293,4,25557,0,,0.0,15.9,46
Nonresidential COS,Other,98133.0,5,NORTHWEST,47.72134,-122.34102,2,26994,0,,0.0,122.73,58
NonResidential,Warehouse,98133.0,5,NORTHWEST,47.72183,-122.34328,1,48112,0,73.0,0.0,10.36,44
NonResidential,Other,98133.0,5,NORTHWEST,47.72065,-122.34318,1,20909,0,,0.0,32.86,7
NonResidential,Small- and Mid-Sized Office,98133.0,5,NORTHWEST,47.73387,-122.34722,2,42793,16518,27.0,0.0,12.35,15
NonResidential,Other,98133.0,5,NORTHWEST,47.72644,-122.34338,2,45000,0,,0.0,176.79,9
NonResidential,Retail Store,98133.0,5,NORTHWEST,47.72337,-122.34373,1,26115,0,43.0,0.0,36.74,18
NonResidential,Worship Facility,98105.0,4,NORTHEAST,47.6702,-122.32066,1,26033,0,78.0,0.0,45.33,67
NonResidential,K-12 School,98109.0,7,MAGNOLIA / QUEEN ANNE,47.64344,-122.3509,4,48660,0,82.0,0.0,61.98,9
NonResidential,Senior Care Community,98109.0,7,MAGNOLIA / QUEEN ANNE,47.6441,-122.34795,2,46539,0,73.0,0.0,180.38,46
NonResidential,Residence Hall,98121.0,7,DOWNTOWN,47.61283,-122.34392,4,29796,0,47.0,0.0,79.58,107
NonResidential,Retail Store,98121.0,7,DOWNTOWN,47.6123,-122.34395,2,26400,0,36.0,0.0,17.12,96
NonResidential,Small- and Mid-Sized Office,98121.0,7,DOWNTOWN,47.61185,-122.3434,3,38148,0,98.0,0.0,8.8,98
NonResidential,Mixed Use Property,98109.0,7,LAKE UNION,47.62231,-122.34145,2,28800,0,,0.0,12.77,88
NonResidential,Worship Facility,98119.0,7,MAGNOLIA / QUEEN ANNE,47.62232,-122.36101,5,31945,0,4.0,0.0,12.59,61
NonResidential,Small- and Mid-Sized Office,98109.0,7,MAGNOLIA / QUEEN ANNE,47.6189,-122.35713,5,85963,33055,43.0,0.0,31.24,31
NonResidential,Retail Store,98101.0,7,DOWNTOWN,47.60683,-122.33771,4,34680,0,92.0,0.0,26.38,116
NonResidential,Worship Facility,98101.0,7,DOWNTOWN,47.60867,-122.33265,3,75058,34510,24.0,0.0,247.97,48
NonResidential,Retail Store,98101.0,7,DOWNTOWN,47.61103,-122.33549,1,36504,0,2.0,0.0,20.76,101
NonResidential,Small- and Mid-Sized Office,98101.0,7,DOWNTOWN,47.61091,-122.33667,6,35200,0,8.0,0.0,20.9,109
NonResidential,Small- and Mid-Sized Office,98101.0,7,DOWNTOWN,47.60961,-122.33566,5,35840,0,83.0,0.0,48.35,109
NonResidential,Other,98101.0,7,DOWNTOWN,47.60985,-122.33527,2,25920,0,60.0,0.0,9.3,75
NonResidential,Small- and Mid-Sized Office,98101.0,7,DOWNTOWN,47.60952,-122.33558,4,30525,0,17.0,762032.8125,73.61,88
NonResidential,Other,98101.0,7,EAST,47.61186,-122.32857,4,49243,0,,0.0,101.34,52
NonResidential,Other,98104.0,3,EAST,47.6097,-122.325,3,20411,0,,0.0,71.23,104
NonResidential,Medical Office,98122.0,3,EAST,47.61065,-122.32125,2,30855,10285,2.0,0.0,85.55,54
NonResidential,Small- and Mid-Sized Office,98122.0,3,EAST,47.61194,-122.32177,3,73549,0,90.0,0.0,107.45,106
NonResidential,Other,98122.0,3,EAST,47.60865694,-122.3205368,5,45780,11400,,5473370.5,462.4,28
NonResidential,Medical Office,98114.0,3,EAST,47.60865416,-122.3205904,3,39115,0,42.0,0.0,60.04,53
NonResidential,Other,98101.0,7,EAST,47.60901,-122.32994,3,38038,0,,682047.625,55.61,100
NonResidential,Worship Facility,98104.0,7,EAST,47.60821,-122.3296,3,37796,0,55.0,1379517.75,123.41,54
Nonresidential COS,Small- and Mid-Sized Office,98107.0,6,BALLARD,47.66256,-122.36483,1,27744,0,,0.0,37.34,23
NonResidential,Warehouse,98107.0,6,BALLARD,47.66388,-122.36831,1,36444,0,80.0,0.0,1.12,56
NonResidential,Warehouse,98107.0,6,BALLARD,47.65907,-122.36783,1,27553,0,63.0,0.0,31.61,66
NonResidential,Distribution Center,98107.0,6,BALLARD,47.6583,-122.36638,1,57310,0,,0.0,34.87,65
NonResidential,Mixed Use Property,98109.0,7,LAKE UNION,47.62296,-122.33884,2,25920,0,,0.0,16.57,96
NonResidential,Restaurant,98109.0,7,LAKE UNION,47.62354,-122.33808,3,40686,0,,0.0,73.0,97
NonResidential,Retail Store,98109.0,7,LAKE UNION,47.62399,-122.33804,2,45271,0,57.0,0.0,82.72,52
NonResidential,Small- and Mid-Sized Office,98109.0,7,LAKE UNION,47.62437,-122.33802,3,28380,12180,62.0,0.0,35.77,96
NonResidential,Large Office,98109.0,7,LAKE UNION,47.62296,-122.3362,5,508160,0,77.0,0.0,487.53,7
NonResidential,Small- and Mid-Sized Office,98109.0,7,LAKE UNION,47.62353,-122.33622,3,26176,0,95.0,0.0,32.09,90
NonResidential,Small- and Mid-Sized Office,98109.0,3,LAKE UNION,47.62799,-122.33132,1,37740,0,1.0,0.0,73.48,90
Nonresidential COS,Other,98109.0,7,MAGNOLIA / QUEEN ANNE,47.62208,-122.35398,1,26000,0,,2097789.75,184.09,55
NonResidential,Worship Facility,98109.0,7,MAGNOLIA / QUEEN ANNE,47.61876,-122.3534,3,23241,0,66.0,0.0,20.64,7
NonResidential,Other,98109.0,7,MAGNOLIA / QUEEN ANNE,47.61974,-122.3511,1,155795,0,,0.0,255.83,54
Nonresidential COS,Other,98109.0,7,MAGNOLIA / QUEEN ANNE,47.62208,-122.35398,1,21018,0,,175780.0,24.62,14
Nonresidential COS,Other,98109.0,7,MAGNOLIA / QUEEN ANNE,47.62208,-122.35398,1,30533,0,,0.0,192.12,18
NonResidential,Other,98109.0,7,MAGNOLIA / QUEEN ANNE,47.62049,-122.3493,2,33971,0,,0.0,523.95,55
Nonresidential COS,Other,98109.0,7,MAGNOLIA / QUEEN ANNE,47.62082,-122.35251,2,40600,0,,137900.0,41.06,24
NonResidential,Small- and Mid-Sized Office,98109.0,7,LAKE UNION,47.62055,-122.33881,4,38038,0,84.0,0.0,13.97,17
NonResidential,Small- and Mid-Sized Office,98109.0,7,LAKE UNION,47.62028,-122.33717,4,64596,24596,92.0,0.0,77.8,9
NonResidential,Small- and Mid-Sized Office,98109.0,7,LAKE UNION,47.62038,-122.33759,3,41466,6062,1.0,0.0,234.03,88
NonResidential,Large Office,98109.0,7,LAKE UNION,47.62004,-122.33807,6,130710,100800,92.0,0.0,86.51,3
NonResidential,Small- and Mid-Sized Office,98109.0,7,LAKE UNION,47.62054,-122.33807,4,35780,0,77.0,0.0,13.33,90
NonResidential,Mixed Use Property,98109.0,7,MAGNOLIA / QUEEN ANNE,47.6223,-122.35653,4,25132,7308,41.0,0.0,3.94,52
Nonresidential COS,Other,98109.0,7,DOWNTOWN,47.60192,-122.33282,1,49680,0,,1427730.0,119.34,50
Nonresidential COS,Other,98109.0,7,DOWNTOWN,47.60219,-122.3313,1,36314,0,,204650.0,44.33,54
NonResidential,Other,98101.0,7,DOWNTOWN,47.60849,-122.33924,2,25920,0,,0.0,8.77,100
NonResidential,Small- and Mid-Sized Office,98101.0,7,DOWNTOWN,47.60994,-122.33997,4,47686,0,72.0,897694.0,77.48,97
Campus,Mixed Use Property,98101.0,7,DOWNTOWN,47.60805,-122.33978,2,49280,0,,0.0,98.28,116
Campus,Restaurant,98101.0,7,DOWNTOWN,47.60895,-122.34052,2,25380,0,,0.0,218.79,104
NonResidential,Small- and Mid-Sized Office,98101.0,7,DOWNTOWN,47.60836,-122.34157,6,40715,0,,0.0,44.89,101
NonResidential,Mixed Use Property,98121.0,7,DOWNTOWN,47.61113,-122.34556,4,82065,34800,91.0,0.0,11.97,26
NonResidential,Small- and Mid-Sized Office,98101.0,7,DOWNTOWN,47.61041,-122.34214,4,36160,0,47.0,0.0,12.98,106
NonResidential,Mixed Use Property,98101.0,7,DOWNTOWN,47.61014,-122.34251,1,34617,0,,0.0,143.34,98
NonResidential,Small- and Mid-Sized Office,98121.0,7,DOWNTOWN,47.6123,-122.34611,5,66900,0,100.0,0.0,14.13,107
NonResidential,Mixed Use Property,98121.0,7,DOWNTOWN,47.61252,-122.34565,3,29340,0,,0.0,75.99,106
NonResidential,Other,98121.0,7,DOWNTOWN,47.61341,-122.34597,2,22710,0,,0.0,2.01,86
NonResidential,Small- and Mid-Sized Office,98102.0,4,LAKE UNION,47.6367,-122.3285,3,50499,13540,13.0,0.0,22.46,16
NonResidential,Small- and Mid-Sized Office,98104.0,4,LAKE UNION,47.63616,-122.32718,5,54465,9605,68.0,0.0,41.22,52
NonResidential,K-12 School,98102.0,3,EAST,47.63239,-122.32072,2,45960,0,56.0,0.0,182.81,86
NonResidential,Small- and Mid-Sized Office,98109.0,7,LAKE UNION,47.61992,-122.34539,2,21128,0,97.0,0.0,3.04,57
NonResidential,Mixed Use Property,98109.0,7,LAKE UNION,47.61893,-122.34473,4,274442,0,,0.0,220.26,8
NonResidential,Small- and Mid-Sized Office,98109.0,7,LAKE UNION,47.61952,-122.34462,3,51552,0,,0.0,10.73,3
NonResidential,Hotel,98109.0,7,LAKE UNION,47.62014,-122.34456,4,38520,0,37.0,0.0,75.25,57
NonResidential,Hotel,98109.0,7,LAKE UNION,47.62174,-122.34417,3,29186,4256,95.0,0.0,30.22,55
NonResidential,Worship Facility,98109.0,7,LAKE UNION,47.6201,-122.34071,1,27338,0,56.0,0.0,4.05,56
NonResidential,Other,98102.0,3,EAST,47.64132,-122.31644,2,85750,65640,,0.0,77.76,17
NonResidential,Laboratory,98119.0,7,MAGNOLIA / QUEEN ANNE,47.6224,-122.36248,2,34416,0,,0.0,422.45,54
NonResidential,Small- and Mid-Sized Office,98119.0,7,MAGNOLIA / QUEEN ANNE,47.61954,-122.35847,3,45864,0,94.0,0.0,115.43,86
NonResidential,K-12 School,98125.0,5,NORTHWEST,47.72726,-122.32835,2,49252,0,23.0,0.0,104.91,17
SPS-District K-12,K-12 School,98125.0,5,NORTH,47.71343,-122.31466,1,34005,0,94.0,0.0,10.15,66
SPS-District K-12,K-12 School,98116.0,1,SOUTHWEST,47.56549,-122.39689,1,41221,0,83.0,0.0,46.46,67
NonResidential,Small- and Mid-Sized Office,98102.0,4,LAKE UNION,47.63245,-122.32529,3,33176,0,89.0,0.0,35.96,29
NonResidential,Retail Store,98102.0,4,LAKE UNION,47.63246,-122.32658,3,25194,3764,,0.0,55.95,23
SPS-District K-12,K-12 School,98118.0,2,SOUTHEAST,47.52499,-122.27466,2,75605,0,83.0,0.0,50.67,16
SPS-District K-12,K-12 School,98118.0,2,SOUTHEAST,47.52526,-122.27092,2,29525,0,77.0,0.0,24.42,8
NonResidential,Worship Facility,98108.0,2,GREATER DUWAMISH,47.55072,-122.30265,99,21948,0,80.0,0.0,2.27,39
NonResidential,Other,98112.0,3,EAST,47.64033,-122.29135,3,31191,0,,0.0,167.98,89
NonResidential,Other,98125.0,5,NORTH,47.72039,-122.29729,1,37377,0,,0.0,111.73,69
NonResidential,Warehouse,98108.0,2,GREATER DUWAMISH,47.53906,-122.32031,1,29380,0,33.0,0.0,5.97,39
NonResidential,Worship Facility,98122.0,3,EAST,47.60321889,-122.3205567,2,22688,0,87.0,0.0,7.07,94
NonResidential,Other,98118.0,2,SOUTHEAST,47.56028,-122.28914,2,22364,0,,0.0,54.44,54
NonResidential,Small- and Mid-Sized Office,98118.0,2,GREATER DUWAMISH,47.54693,-122.28718,2,41262,0,84.0,0.0,13.27,34
NonResidential,Small- and Mid-Sized Office,98109.0,7,LAKE UNION,47.62038,-122.34668,2,43183,0,,0.0,92.45,63
NonResidential,Worship Facility,98115.0,4,NORTH,47.68566,-122.31849,3,45680,0,79.0,0.0,86.81,108
NonResidential,Senior Care Community,98109.0,7,LAKE UNION,47.61935,-122.33389,14,724148,0,8.0,0.0,913.07,10
NonResidential,Worship Facility,98106.0,1,SOUTHWEST,47.53439,-122.37699,1,23562,0,96.0,0.0,3.71,59
NonResidential,Small- and Mid-Sized Office,98107.0,6,BALLARD,47.65804,-122.36537,4,28844,0,,0.0,6.35,17
SPS-District K-12,K-12 School,98126.0,1,DELRIDGE,47.54176,-122.37349,2,54528,0,75.0,0.0,13.75,28
NonResidential,Warehouse,98108.0,2,GREATER DUWAMISH,47.56067,-122.32646,1,21101,0,,0.0,27.97,27
NonResidential,Refrigerated Warehouse,98108.0,2,GREATER DUWAMISH,47.56067,-122.32705,2,45594,0,75.0,0.0,9.42,102
NonResidential,Other,98108.0,2,GREATER DUWAMISH,47.55013,-122.33044,1,26660,0,,0.0,15.62,66
NonResidential,Warehouse,98108.0,2,GREATER DUWAMISH,47.56056,-122.32593,1,28126,0,44.0,0.0,18.63,41
NonResidential,Warehouse,98108.0,2,GREATER DUWAMISH,47.54813,-122.32553,1,35000,0,53.0,0.0,2.64,52
NonResidential,Warehouse,98108.0,2,GREATER DUWAMISH,47.54948,-122.32536,1,26150,0,6.0,0.0,26.55,54
NonResidential,Small- and Mid-Sized Office,98108.0,2,GREATER DUWAMISH,47.54974,-122.3261,2,24000,0,73.0,0.0,7.59,49
NonResidential,K-12 School,98102.0,3,EAST,47.64132,-122.31644,5,43594,0,38.0,0.0,73.26,48
NonResidential,Distribution Center,98103.0,4,LAKE UNION,47.65791,-122.34274,1,28080,0,,0.0,18.54,104
NonResidential,Senior Care Community,98133.0,5,NORTHWEST,47.72618,-122.35642,2,51298,0,85.0,0.0,203.73,62
NonResidential,Worship Facility,98133.0,5,NORTHWEST,47.72558,-122.3578,1,22047,0,100.0,0.0,1.85,54
NonResidential,Warehouse,98108.0,1,GREATER DUWAMISH,47.5213,-122.32182,1,31600,0,3.0,0.0,103.28,37
NonResidential,Warehouse,98108.0,1,GREATER DUWAMISH,47.52024,-122.32137,1,35289,0,63.0,0.0,23.9,9
NonResidential,Warehouse,98108.0,1,GREATER DUWAMISH,47.51899,-122.321,1,28920,0,50.0,0.0,80.09,35
NonResidential,Warehouse,98108.0,1,GREATER DUWAMISH,47.5193,-122.3213,1,22176,0,60.0,0.0,32.77,38
NonResidential,Warehouse,98108.0,1,GREATER DUWAMISH,47.51968,-122.3212,1,31300,0,89.0,0.0,9.08,38
NonResidential,Warehouse,98108.0,1,GREATER DUWAMISH,47.51918,-122.31957,1,22000,0,14.0,0.0,4.88,37
NonResidential,Small- and Mid-Sized Office,98125.0,5,NORTH,47.70079,-122.32714,3,39927,0,38.0,0.0,24.88,42
NonResidential,Other,98115.0,5,NORTH,47.69883,-122.32479,1,30610,0,,0.0,135.81,37
NonResidential,Medical Office,98115.0,5,NORTH,47.70007,-122.32533,2,26930,6350,64.0,0.0,6.99,36
NonResidential,Medical Office,98115.0,5,NORTH,47.70087,-122.32379,2,38745,0,76.0,0.0,49.62,48
NonResidential,Self-Storage Facility,98105.0,4,NORTHEAST,47.66353,-122.29505,2,20296,0,,0.0,5.97,57
NonResidential,Mixed Use Property,98105.0,4,NORTHEAST,47.66246,-122.29342,2,22135,0,,0.0,27.41,71
NonResidential,Medical Office,98105.0,4,NORTHEAST,47.66183,-122.29264,3,38378,0,86.0,0.0,53.73,49
NonResidential,Warehouse,98105.0,4,NORTHEAST,47.66294,-122.29521,2,33576,0,64.0,0.0,49.73,36
NonResidential,Supermarket / Grocery Store,98105.0,4,NORTHEAST,47.66205,-122.29545,1,33005,0,21.0,0.0,225.67,41
NonResidential,Other,98104.0,3,EAST,47.61074,-122.32259,1,20971,0,,0.0,5.08,35
NonResidential,Small- and Mid-Sized Office,98199.0,7,MAGNOLIA / QUEEN ANNE,47.63981,-122.39907,3,23910,0,,0.0,15.11,89
NonResidential,Worship Facility,98107.0,6,BALLARD,47.67477,-122.38241,2,21765,0,80.0,0.0,17.38,106
Campus,University,98122.0,3,EAST,47.61065,-122.31711,2,2200000,0,,0.0,3243.48,77
NonResidential,Worship Facility,98122.0,3,CENTRAL,47.6101,-122.30838,2,26560,0,1.0,0.0,64.88,115
NonResidential,Warehouse,98103.0,4,LAKE UNION,47.65022,-122.34174,2,20140,0,49.0,0.0,0.81,59
NonResidential,Retail Store,98118.0,2,GREATER DUWAMISH,47.53846,-122.28305,2,38845,0,82.0,0.0,215.56,24
NonResidential,Supermarket / Grocery Store,98118.0,2,GREATER DUWAMISH,47.53747,-122.28308,1,26092,0,40.0,0.0,173.75,63
SPS-District K-12,K-12 School,98125.0,5,NORTH,47.70743,-122.28463,1,38582,0,85.0,0.0,64.54,61
NonResidential,Small- and Mid-Sized Office,98108.0,2,GREATER DUWAMISH,47.55045,-122.32749,1,25500,0,98.0,0.0,55.3,49
NonResidential,Warehouse,98108.0,2,GREATER DUWAMISH,47.5478,-122.32307,1,41895,0,,0.0,25.09,55
NonResidential,Retail Store,98108.0,2,GREATER DUWAMISH,47.54912,-122.32184,2,56193,0,,0.0,46.9,58
NonResidential,K-12 School,98107.0,6,BALLARD,47.6712,-122.37568,3,35448,0,97.0,0.0,60.34,94
NonResidential,Supermarket / Grocery Store,98107.0,6,BALLARD,47.66986,-122.37418,1,29214,0,8.0,0.0,208.53,50
NonResidential,Supermarket / Grocery Store,98107.0,6,BALLARD,47.66828,-122.37428,1,89103,43035,34.0,0.0,384.85,16
NonResidential,Other,98125.0,6,BALLARD,47.66621,-122.37502,1,32000,0,,0.0,45.38,55
NonResidential,Mixed Use Property,98107.0,6,BALLARD,47.66389,-122.37307,2,31140,0,,0.0,38.86,106
NonResidential,Warehouse,98107.0,6,BALLARD,47.6644,-122.37246,3,41478,0,3.0,0.0,78.22,41
NonResidential,Warehouse,98107.0,6,BALLARD,47.66411,-122.37185,1,39840,0,2.0,0.0,5.24,36
Nonresidential COS,Other,98107.0,6,BALLARD,47.66984,-122.3842,1,30576,15576,,0.0,38.52,12
NonResidential,Other,98107.0,6,BALLARD,47.66894,-122.38242,2,21528,0,,0.0,6.61,92
NonResidential,Other,98107.0,6,BALLARD,47.66908,-122.38627,2,30000,0,,0.0,13.14,88
NonResidential,Other,98107.0,6,BALLARD,47.67482,-122.37316,2,30087,0,,0.0,36.77,74
NonResidential,Worship Facility,98107.0,6,BALLARD,47.66327,-122.37439,1,40445,0,92.0,0.0,29.24,41
NonResidential,Retail Store,98107.0,6,BALLARD,47.66318,-122.37283,1,23500,0,53.0,0.0,13.29,20
NonResidential,Retail Store,98134.0,6,BALLARD,47.67518,-122.36549,1,22420,0,82.0,0.0,31.79,49
NonResidential,Supermarket / Grocery Store,98119.0,7,MAGNOLIA / QUEEN ANNE,47.64909,-122.37788,1,25842,0,35.0,0.0,237.54,55
NonResidential,Small- and Mid-Sized Office,98119.0,7,MAGNOLIA / QUEEN ANNE,47.65018,-122.37787,3,26389,0,,0.0,8.42,24
NonResidential,Small- and Mid-Sized Office,98119.0,7,MAGNOLIA / QUEEN ANNE,47.65252,-122.37587,3,25859,0,88.0,0.0,14.9,34
NonResidential,Warehouse,98199.0,7,MAGNOLIA / QUEEN ANNE,47.66238,-122.38831,1,25600,0,1.0,0.0,34.26,42
NonResidential,Other,98199.0,7,MAGNOLIA / QUEEN ANNE,47.66126,-122.38751,1,23169,0,,0.0,1.55,51
NonResidential,Small- and Mid-Sized Office,98199.0,7,MAGNOLIA / QUEEN ANNE,47.66106,-122.38576,4,41784,8399,89.0,0.0,9.03,8
NonResidential,Warehouse,98199.0,7,MAGNOLIA / QUEEN ANNE,47.66206,-122.38948,1,56884,0,71.0,0.0,37.49,56
NonResidential,Retail Store,98117.0,6,BALLARD,47.6917,-122.37617,1,32810,0,66.0,0.0,46.44,27
NonResidential,Self-Storage Facility,98119.0,7,MAGNOLIA / QUEEN ANNE,47.64455,-122.37581,3,30989,0,,0.0,0.68,36
NonResidential,Self-Storage Facility,98119.0,7,MAGNOLIA / QUEEN ANNE,47.64418,-122.37587,3,39952,0,,0.0,0.4,101
NonResidential,Small- and Mid-Sized Office,98119.0,7,MAGNOLIA / QUEEN ANNE,47.65504,-122.37402,2,20022,0,80.0,0.0,4.58,55
NonResidential,Distribution Center,98119.0,7,MAGNOLIA / QUEEN ANNE,47.65563,-122.37194,2,36498,0,89.0,0.0,14.81,56
NonResidential,Distribution Center,98199.0,7,MAGNOLIA / QUEEN ANNE,47.66161,-122.39075,1,35946,0,,0.0,11.08,48
NonResidential,Small- and Mid-Sized Office,98199.0,7,MAGNOLIA / QUEEN ANNE,47.66006,-122.38631,4,30152,5680,96.0,0.0,5.94,9
NonResidential,Small- and Mid-Sized Office,98199.0,7,MAGNOLIA / QUEEN ANNE,47.65881,-122.38382,4,22365,0,71.0,0.0,5.07,37
NonResidential,Small- and Mid-Sized Office,98199.0,7,MAGNOLIA / QUEEN ANNE,47.65801,-122.3839,4,30172,0,82.0,0.0,6.3,22
NonResidential,Warehouse,98107.0,6,BALLARD,47.66353,-122.38064,4,42500,0,100.0,0.0,1.68,89
NonResidential,Small- and Mid-Sized Office,98107.0,6,BALLARD,47.66691,-122.38416,4,23032,0,,0.0,7.82,115
NonResidential,Other,98107.0,6,BALLARD,47.66646,-122.38263,3,45750,4914,,0.0,303.81,116
NonResidential,Small- and Mid-Sized Office,98107.0,6,BALLARD,47.66497,-122.38047,2,23500,0,26.0,0.0,34.52,48
NonResidential,Small- and Mid-Sized Office,98107.0,6,BALLARD,47.66431,-122.37988,1,22282,0,93.0,0.0,16.67,50
NonResidential,Self-Storage Facility,98107.0,6,BALLARD,47.66351,-122.37961,2,24000,0,,0.0,17.39,114
NonResidential,Mixed Use Property,98107.0,6,BALLARD,47.66852,-122.38175,3,27085,0,,0.0,60.67,107
Nonresidential COS,Other,98125.0,5,NORTH,47.70544,-122.2918,2,29258,0,,0.0,309.14,20
NonResidential,Small- and Mid-Sized Office,98125.0,5,NORTH,47.719,-122.29966,2,37500,0,58.0,0.0,44.26,85
NonResidential,K-12 School,98125.0,5,NORTHWEST,47.73143,-122.32784,3,23983,0,61.0,0.0,33.28,86
NonResidential,Distribution Center,98106.0,1,DELRIDGE,47.55832,-122.35239,1,24100,0,22.0,0.0,30.49,36
NonResidential,K-12 School,98105.0,4,NORTHEAST,47.66665,-122.31818,2,31343,0,5.0,0.0,128.66,12
NonResidential,Mixed Use Property,98103.0,6,NORTHWEST,47.68582,-122.33709,3,55912,22850,,0.0,17.08,20
NonResidential,Other,98199.0,7,MAGNOLIA / QUEEN ANNE,47.65843,-122.38435,2,20294,0,,0.0,67.45,59
NonResidential,Small- and Mid-Sized Office,98199.0,7,MAGNOLIA / QUEEN ANNE,47.65708,-122.38383,4,40571,10849,64.0,0.0,8.97,33
NonResidential,Small- and Mid-Sized Office,98199.0,7,MAGNOLIA / QUEEN ANNE,47.65649,-122.38383,4,41707,15659,78.0,0.0,12.24,33
NonResidential,Mixed Use Property,98119.0,7,MAGNOLIA / QUEEN ANNE,47.65118,-122.37875,2,57644,0,,0.0,42.87,56
NonResidential,Warehouse,98119.0,7,MAGNOLIA / QUEEN ANNE,47.64913,-122.37929,2,39497,0,9.0,0.0,28.28,61
Nonresidential COS,Other,98112.0,3,EAST,47.6303,-122.3142,1,33087,0,,0.0,121.9,84
NonResidential,Small- and Mid-Sized Office,98133.0,5,NORTHWEST,47.70793,-122.33316,2,27574,0,73.0,0.0,8.44,34
NonResidential,Retail Store,98125.0,5,NORTH,47.70747,-122.32249,1,24982,0,99.0,0.0,2.34,51
NonResidential,Senior Care Community,98125.0,5,NORTH,47.71069,-122.32674,5,43661,0,4.0,0.0,82.57,18
NonResidential,Small- and Mid-Sized Office,98133.0,5,NORTHWEST,47.70842,-122.3332,3,76105,27307,91.0,0.0,17.24,29
NonResidential,Mixed Use Property,98125.0,5,NORTH,47.70983,-122.31865,2,32009,0,,0.0,44.28,64
NonResidential,Retail Store,98125.0,5,NORTH,47.70708,-122.32251,1,41615,0,69.0,0.0,13.25,50
NonResidential,Medical Office,98125.0,5,NORTH,47.70676,-122.32264,3,28841,0,55.0,0.0,33.42,28
NonResidential,Self-Storage Facility,98125.0,5,NORTH,47.70782,-122.31873,2,33344,0,,0.0,0.86,39
Nonresidential COS,Other,98125.0,5,NORTH,47.70541,-122.32232,1,30498,0,,0.0,80.19,11
NonResidential,K-12 School,98106.0,1,DELRIDGE,47.51698,-122.35946,2,42975,0,92.0,0.0,42.96,92
NonResidential,Other,98108.0,1,DELRIDGE,47.53366,-122.33733,1,23260,0,,0.0,52.41,53
NonResidential,Small- and Mid-Sized Office,98106.0,1,DELRIDGE,47.53309,-122.33977,2,30659,0,88.0,0.0,55.85,28
NonResidential,Other,98109.0,7,MAGNOLIA / QUEEN ANNE,47.63132,-122.34136,2,27144,0,,0.0,32.58,96
NonResidential,Other,98133.0,5,NORTHWEST,47.70969,-122.34557,1,23166,0,,0.0,184.6,46
NonResidential,Medical Office,98133.0,5,NORTHWEST,47.70558,-122.33486,2,34759,0,81.0,0.0,11.39,37
NonResidential,Hospital,98133.0,5,NORTHWEST,47.71425,-122.33689,1,415632,0,85.0,0.0,3278.11,50
NonResidential,Worship Facility,98133.0,5,NORTHWEST,47.71745,-122.33221,2,44719,0,,0.0,53.21,51
NonResidential,Supermarket / Grocery Store,98144.0,2,GREATER DUWAMISH,47.57894,-122.31287,1,21603,0,16.0,0.0,129.89,51
NonResidential,Medical Office,98112.0,3,EAST,47.62014,-122.31228,3,591981,0,60.0,0.0,3238.24,52
NonResidential,Distribution Center,98108.0,1,DELRIDGE,47.53158,-122.33568,1,42900,0,53.0,0.0,3.04,37
Campus,Other,98108.0,1,DELRIDGE,47.51885,-122.33421,1,57952,0,,0.0,96.15,11
NonResidential,Other,98108.0,1,DELRIDGE,47.52956,-122.33592,1,26232,0,,0.0,122.71,45
NonResidential,Warehouse,98144.0,3,DOWNTOWN,47.59783,-122.31554,2,25840,0,92.0,0.0,2.19,60
NonResidential,Small- and Mid-Sized Office,98144.0,2,DOWNTOWN,47.59721,-122.31838,1,45145,0,,0.0,43.63,28
NonResidential,Small- and Mid-Sized Office,98144.0,3,DOWNTOWN,47.59728,-122.31587,5,70332,22095,89.0,0.0,19.12,15
SPS-District K-12,K-12 School,98108.0,2,GREATER DUWAMISH,47.55813,-122.3189,1,50546,0,94.0,0.0,12.15,45
NonResidential,Supermarket / Grocery Store,98117.0,6,BALLARD,47.6899,-122.37619,1,45522,0,22.0,0.0,326.74,22
NonResidential,Retail Store,98133.0,5,NORTHWEST,47.72286,-122.34612,2,20088,0,,0.0,2.28,37
Campus,Other,98134.0,1,GREATER DUWAMISH,47.57049,-122.34857,2,138907,0,,0.0,179.55,27
NonResidential,Small- and Mid-Sized Office,98134.0,1,GREATER DUWAMISH,47.56999,-122.34703,2,40657,0,57.0,0.0,23.6,19
NonResidential,Warehouse,98134.0,1,GREATER DUWAMISH,47.57279,-122.35066,1,20200,0,,0.0,2.25,116
NonResidential,Residence Hall,98104.0,3,EAST,47.6073,-122.32585,1,44086,0,29.0,1920474.25,184.0,112
NonResidential,Small- and Mid-Sized Office,98104.0,3,EAST,47.60663,-122.32526,7,54372,20824,94.0,0.0,9.79,46
NonResidential,Other,98104.0,3,EAST,47.60709,-122.32416,1,47699,0,,8630381.0,712.39,65
NonResidential,Medical Office,98104.0,3,EAST,47.60862,-122.32372,0,274568,0,52.0,13296249.0,1110.07,71
NonResidential,Small- and Mid-Sized Office,98122.0,3,EAST,47.60819,-122.32282,3,21282,0,69.0,762542.3125,62.23,60
NonResidential,Other,98118.0,2,SOUTHEAST,47.54563,-122.27616,2,41022,0,,0.0,26.41,95
NonResidential,Other,98106.0,1,DELRIDGE,47.57058,-122.35626,2,28109,0,,0.0,38.39,50
NonResidential,Small- and Mid-Sized Office,98125.0,5,NORTH,47.72986,-122.29278,3,33580,12990,100.0,0.0,2.86,31
NonResidential,Warehouse,98165.0,5,NORTH,47.72051,-122.30103,1,21936,0,100.0,0.0,2.69,39
NonResidential,Other,98125.0,5,NORTH,47.72083,-122.29979,1,30160,0,,0.0,44.26,47
NonResidential,Mixed Use Property,98011.0,7,DOWNTOWN,47.61056,-122.33661,11,111137,0,,0.0,294.65,107
NonResidential,Other,98106.0,1,DELRIDGE,47.56319,-122.35067,1,40189,0,,0.0,37.65,19
NonResidential,Small- and Mid-Sized Office,98103.0,1,DELRIDGE,47.56877,-122.36369,2,66484,0,69.0,0.0,21.24,28
NonResidential,Small- and Mid-Sized Office,98122.0,3,EAST,47.60789,-122.32249,3,25151,0,85.0,748984.6875,62.05,57
NonResidential,Hotel,98104.0,3,EAST,47.60958,-122.32646,6,35770,0,56.0,0.0,112.34,88
NonResidential,Hotel,98101.0,3,EAST,47.60981,-122.32687,9,48006,0,85.0,0.0,101.31,88
NonResidential,Mixed Use Property,98104.0,2,DOWNTOWN,47.59949,-122.31851,2,29631,0,,0.0,146.93,56
NonResidential,Small- and Mid-Sized Office,98104.0,2,DOWNTOWN,47.59727,-122.32196,2,23472,0,,0.0,46.45,27
Nonresidential COS,Small- and Mid-Sized Office,98134.0,2,GREATER DUWAMISH,47.5956,-122.32292,2,21315,0,34.0,0.0,110.66,43
NonResidential,Small- and Mid-Sized Office,98119.0,7,MAGNOLIA / QUEEN ANNE,47.62481,-122.35762,4,57110,15812,69.0,0.0,24.31,32
NonResidential,Small- and Mid-Sized Office,98121.0,7,DOWNTOWN,47.61833,-122.35871,3,34030,0,50.0,0.0,22.26,37
NonResidential,Restaurant,98126.0,1,SOUTHWEST,47.58654,-122.37644,2,20398,0,,0.0,334.15,114
NonResidential,Distribution Center,98134.0,2,GREATER DUWAMISH,47.5746,-122.32637,1,41308,0,7.0,0.0,38.57,64
NonResidential,Mixed Use Property,98104.0,7,DOWNTOWN,47.60195,-122.33516,3,43878,0,,0.0,5.37,103
NonResidential,Other,98119.0,7,MAGNOLIA / QUEEN ANNE,47.62591,-122.35843,3,34976,0,,0.0,15.7,104
NonResidential,Warehouse,98119.0,7,MAGNOLIA / QUEEN ANNE,47.65674,-122.37223,1,38255,0,12.0,0.0,33.8,59
Campus,Other,98119.0,7,MAGNOLIA / QUEEN ANNE,47.65561,-122.38063,1,260241,0,,0.0,565.55,61
NonResidential,Small- and Mid-Sized Office,98103.0,6,LAKE UNION,47.65103,-122.35541,3,48924,0,71.0,0.0,59.24,27
NonResidential,Small- and Mid-Sized Office,98102.0,4,LAKE UNION,47.64168,-122.32562,4,50333,18036,88.0,0.0,11.17,57
NonResidential,Small- and Mid-Sized Office,98102.0,4,LAKE UNION,47.6404,-122.32553,4,57432,21906,,0.0,17.57,30
NonResidential,Small- and Mid-Sized Office,98102.0,4,LAKE UNION,47.63995,-122.32557,3,25912,7956,,0.0,4.65,47
NonResidential,Small- and Mid-Sized Office,98102.0,4,LAKE UNION,47.64113,-122.32625,3,57132,21908,73.0,0.0,13.91,16
NonResidential,Worship Facility,98106.0,1,DELRIDGE,47.52172,-122.35487,2,24224,0,52.0,0.0,26.73,59
NonResidential,Worship Facility,98106.0,1,DELRIDGE,47.51989,-122.35489,1,23706,0,78.0,0.0,13.12,53
NonResidential,Warehouse,98108.0,2,GREATER DUWAMISH,47.5465,-122.31704,1,31900,0,,0.0,13.7,53
NonResidential,Other,98136.0,1,SOUTHWEST,47.5219,-122.38787,1,49066,0,,0.0,178.86,99
NonResidential,Worship Facility,98136.0,1,SOUTHWEST,47.52097,-122.38688,3,30740,0,,0.0,61.3,64
NonResidential,Supermarket / Grocery Store,98118.0,2,SOUTHEAST,47.52262,-122.26922,1,67450,0,97.0,0.0,55.86,57
SPS-District K-12,K-12 School,98117.0,6,BALLARD,47.69497,-122.38704,1,39971,0,,0.0,50.22,58
NonResidential,Warehouse,98119.0,7,MAGNOLIA / QUEEN ANNE,47.65649,-122.37507,1,46970,0,,0.0,6.16,68
NonResidential,Warehouse,98119.0,7,MAGNOLIA / QUEEN ANNE,47.6331,-122.37582,1,47554,0,,0.0,16.04,85
NonResidential,Small- and Mid-Sized Office,98119.0,7,MAGNOLIA / QUEEN ANNE,47.63063,-122.37428,2,43016,5400,100.0,0.0,60.57,37
NonResidential,Mixed Use Property,98119.0,7,MAGNOLIA / QUEEN ANNE,47.63034,-122.37412,1,24196,0,,0.0,22.29,85
NonResidential,Small- and Mid-Sized Office,98119.0,7,MAGNOLIA / QUEEN ANNE,47.63128,-122.37387,2,20671,0,98.0,0.0,24.76,76
NonResidential,Warehouse,98134.0,2,GREATER DUWAMISH,47.58065,-122.33356,1,21600,0,57.0,0.0,14.36,89
NonResidential,Worship Facility,98146.0,1,SOUTHWEST,47.50959,-122.37417,1,35844,0,14.0,0.0,6.04,39
NonResidential,Small- and Mid-Sized Office,98103.0,4,LAKE UNION,47.66116,-122.34172,3,31774,0,85.0,0.0,18.87,100
NonResidential,Warehouse,98134.0,2,GREATER DUWAMISH,47.56121,-122.33872,1,26094,0,19.0,0.0,4.95,63
NonResidential,Small- and Mid-Sized Office,98134.0,2,GREATER DUWAMISH,47.56121,-122.33872,2,23687,0,68.0,0.0,7.56,33
NonResidential,Small- and Mid-Sized Office,98134.0,2,GREATER DUWAMISH,47.56121,-122.33872,2,24221,0,20.0,0.0,10.01,33
NonResidential,Mixed Use Property,98101.0,7,DOWNTOWN,47.60546,-122.34091,2,71919,14083,37.0,0.0,37.51,116
NonResidential,Small- and Mid-Sized Office,98101.0,7,DOWNTOWN,47.60546,-122.34091,2,32027,0,54.0,0.0,128.41,116
NonResidential,Small- and Mid-Sized Office,98105.0,7,DOWNTOWN,47.6032,-122.33663,3,32160,0,,0.0,19.56,110
NonResidential,Other,98134.0,2,GREATER DUWAMISH,47.59549,-122.32538,3,47836,7572,,0.0,109.59,24
NonResidential,Small- and Mid-Sized Office,98134.0,2,GREATER DUWAMISH,47.58802,-122.32111,3,34425,0,84.0,0.0,50.07,102
SPS-District K-12,K-12 School,98108.0,2,GREATER DUWAMISH,47.55226,-122.29629,2,52609,0,67.0,0.0,46.51,45
NonResidential,Medical Office,98116.0,1,SOUTHWEST,47.57296,-122.38643,3,40304,12000,5.0,0.0,13.67,32
NonResidential,Distribution Center,98108.0,1,GREATER DUWAMISH,47.52878,-122.32771,1,29619,0,50.0,0.0,42.45,26
NonResidential,K-12 School,98144.0,3,CENTRAL,47.59692,-122.30601,2,21592,0,47.0,0.0,54.24,94
NonResidential,K-12 School,98115.0,5,NORTH,47.69061,-122.31992,2,23923,0,69.0,0.0,19.51,85
NonResidential,Small- and Mid-Sized Office,98144.0,3,CENTRAL,47.59976,-122.31441,3,25200,0,47.0,0.0,37.08,109
NonResidential,Small- and Mid-Sized Office,98144.0,3,CENTRAL,47.59693,-122.31124,2,28296,0,80.0,0.0,9.26,53
NonResidential,Small- and Mid-Sized Office,98122.0,3,CENTRAL,47.61744,-122.30514,3,31357,0,55.0,0.0,22.48,17
NonResidential,Distribution Center,98134.0,2,GREATER DUWAMISH,47.55945,-122.33601,1,160000,0,94.0,0.0,8.07,48
NonResidential,Warehouse,98134.0,2,GREATER DUWAMISH,47.55601,-122.33627,1,53550,0,11.0,0.0,174.62,56
NonResidential,Warehouse,98134.0,2,GREATER DUWAMISH,47.55716,-122.33744,1,38412,0,62.0,0.0,67.05,92
NonResidential,Self-Storage Facility,98134.0,2,GREATER DUWAMISH,47.55662,-122.33728,1,25881,0,,0.0,3.8,86
NonResidential,Small- and Mid-Sized Office,98108.0,2,GREATER DUWAMISH,47.55498,-122.32497,1,24291,0,98.0,0.0,19.61,63
NonResidential,Warehouse,98108.0,2,GREATER DUWAMISH,47.55458,-122.32639,1,36544,0,5.0,0.0,8.85,50
NonResidential,Warehouse,98134.0,2,GREATER DUWAMISH,47.58387,-122.32092,1,20796,0,,0.0,51.1,67
NonResidential,Distribution Center,98134.0,2,GREATER DUWAMISH,47.5822,-122.321,1,21349,0,70.0,0.0,17.04,69
NonResidential,Warehouse,98134.0,2,GREATER DUWAMISH,47.58082,-122.32031,1,38630,0,33.0,0.0,2.91,80
NonResidential,Warehouse,98134.0,2,GREATER DUWAMISH,47.58032,-122.32083,1,20724,0,,0.0,83.3,66
NonResidential,Other,98134.0,2,GREATER DUWAMISH,47.5793,-122.32226,1,24109,0,,0.0,33.1,56
NonResidential,Refrigerated Warehouse,98134.0,2,GREATER DUWAMISH,47.58118,-122.32211,1,25375,0,,0.0,28.37,61
Nonresidential COS,Warehouse,98134.0,2,GREATER DUWAMISH,47.5829,-122.32417,1,22803,0,78.0,0.0,21.5,31
Nonresidential COS,Mixed Use Property,98134.0,2,GREATER DUWAMISH,47.5829,-122.32417,1,23100,0,,0.0,157.07,31
NonResidential,Refrigerated Warehouse,98134.0,2,GREATER DUWAMISH,47.58252,-122.32193,1,41550,0,94.0,0.0,4.48,65
NonResidential,Other,98108.0,1,GREATER DUWAMISH,47.52305,-122.31899,2,54170,0,,0.0,178.35,22
SPS-District K-12,K-12 School,98108.0,1,GREATER DUWAMISH,47.52361,-122.32469,2,64493,0,85.0,0.0,28.57,16
NonResidential,K-12 School,98118.0,2,SOUTHEAST,47.55095,-122.27978,2,42252,0,49.0,0.0,102.35,104
NonResidential,Self-Storage Facility,98118.0,2,GREATER DUWAMISH,47.54514,-122.28596,1,23100,0,,0.0,13.87,61
NonResidential,Worship Facility,98118.0,2,SOUTHEAST,47.5419,-122.28302,3,22895,0,96.0,0.0,12.92,35
NonResidential,Retail Store,98118.0,2,GREATER DUWAMISH,47.53922,-122.28295,2,54211,17471,100.0,0.0,8.84,14
SPS-District K-12,K-12 School,98178.0,2,SOUTHEAST,47.49917,-122.26306,1,41428,0,90.0,0.0,44.27,55
NonResidential,Self-Storage Facility,98115.0,5,NORTHEAST,47.69316,-122.30487,6,48179,7132,,0.0,12.22,10
NonResidential,Warehouse,98134.0,2,GREATER DUWAMISH,47.59294,-122.32555,1,52325,0,67.0,0.0,18.03,79
NonResidential,Other,98134.0,2,GREATER DUWAMISH,47.59322,-122.32491,4,20600,0,,0.0,9.71,96
Campus,Other,98134.0,2,GREATER DUWAMISH,47.59042,-122.32498,0,230971,0,,0.0,405.05,25
NonResidential,Retail Store,98134.0,2,GREATER DUWAMISH,47.58698,-122.32397,1,25880,0,100.0,0.0,1.14,72
NonResidential,Warehouse,98134.0,2,GREATER DUWAMISH,47.58336,-122.32525,1,45842,0,99.0,0.0,12.55,56
NonResidential,Other,98134.0,2,GREATER DUWAMISH,47.57936,-122.32322,1,31365,0,,0.0,5.09,44
NonResidential,Other,98134.0,2,GREATER DUWAMISH,47.57959,-122.32557,1,32100,0,,0.0,25.77,106
NonResidential,Warehouse,98134.0,2,GREATER DUWAMISH,47.57895,-122.32551,1,20520,0,20.0,0.0,40.85,50
NonResidential,Warehouse,98134.0,2,GREATER DUWAMISH,47.57833,-122.32563,1,22972,0,12.0,0.0,3.45,71
NonResidential,Warehouse,98134.0,2,GREATER DUWAMISH,47.57934,-122.32501,1,24990,0,80.0,0.0,8.7,63
NonResidential,Retail Store,98134.0,2,GREATER DUWAMISH,47.57667,-122.32542,2,24000,0,,0.0,40.94,65
NonResidential,Warehouse,98108.0,2,GREATER DUWAMISH,47.56845,-122.32732,1,100386,0,,0.0,95.93,53
NonResidential,Distribution Center,98108.0,2,GREATER DUWAMISH,47.56758,-122.32638,1,24354,0,10.0,0.0,17.29,50
NonResidential,Distribution Center,98108.0,2,GREATER DUWAMISH,47.56823,-122.32506,1,33600,0,58.0,0.0,15.35,57
NonResidential,Other,98108.0,2,GREATER DUWAMISH,47.56671,-122.32446,1,20819,0,,0.0,51.27,42
NonResidential,Warehouse,98108.0,2,GREATER DUWAMISH,47.5668,-122.32499,1,23296,0,,0.0,40.01,49
NonResidential,Mixed Use Property,98134.0,2,GREATER DUWAMISH,47.57019,-122.32352,1,35222,0,,0.0,40.42,62
NonResidential,Refrigerated Warehouse,98108.0,2,GREATER DUWAMISH,47.5668,-122.32149,1,25520,0,100.0,0.0,59.0,59
NonResidential,Other,98134.0,2,GREATER DUWAMISH,47.58754,-122.3224,1,25460,0,,0.0,5.82,64
SPS-District K-12,K-12 School,98106.0,1,DELRIDGE,47.53961,-122.35866,1,41526,0,79.0,0.0,56.04,46
NonResidential,Small- and Mid-Sized Office,98115.0,5,NORTH,47.70008,-122.30321,2,24291,0,87.0,0.0,6.42,42
NonResidential,Retail Store,98115.0,5,NORTH,47.70053,-122.3038,2,20738,0,44.0,0.0,3.67,58
NonResidential,Mixed Use Property,98125.0,5,NORTH,47.70175,-122.30269,4,30948,0,,0.0,6.41,16
NonResidential,Medical Office,98144.0,5,NORTH,47.7044,-122.32285,2,28385,7056,1.0,0.0,18.5,30
NonResidential,Warehouse,98134.0,2,GREATER DUWAMISH,47.57254,-122.32549,1,21755,0,,0.0,17.51,38
NonResidential,Other,98134.0,2,GREATER DUWAMISH,47.57217,-122.32421,1,27933,0,,0.0,42.73,56
NonResidential,Small- and Mid-Sized Office,98134.0,2,GREATER DUWAMISH,47.57013,-122.3244,1,23143,0,75.0,0.0,38.87,33
NonResidential,Small- and Mid-Sized Office,98134.0,2,GREATER DUWAMISH,47.57075,-122.32724,1,28800,0,73.0,0.0,60.12,54
NonResidential,Warehouse,98134.0,2,GREATER DUWAMISH,47.57294,-122.32811,1,39600,0,85.0,0.0,2.82,64
NonResidential,Warehouse,98134.0,2,GREATER DUWAMISH,47.57199,-122.32811,1,39600,0,91.0,0.0,9.25,64
NonResidential,Distribution Center,98134.0,2,GREATER DUWAMISH,47.57747,-122.32844,1,41248,0,37.0,0.0,16.5,79
NonResidential,Other,98134.0,2,GREATER DUWAMISH,47.57587,-122.32789,1,36400,0,,0.0,46.16,7
NonResidential,Other,98116.0,1,SOUTHWEST,47.56398,-122.38727,1,31332,0,,0.0,24.91,96
NonResidential,Worship Facility,98116.0,1,SOUTHWEST,47.57177,-122.38716,2,35864,0,75.0,0.0,43.64,68
NonResidential,Worship Facility,98108.0,2,GREATER DUWAMISH,47.55464,-122.31576,1,20484,0,69.0,0.0,38.38,62
NonResidential,Medical Office,98105.0,4,NORTHEAST,47.66169,-122.28558,4,45264,17622,4.0,0.0,12.89,32
NonResidential,Medical Office,98105.0,4,NORTHEAST,47.66159,-122.28606,4,36932,14576,,0.0,19.69,29
NonResidential,Other,98122.0,3,CENTRAL,47.60775,-122.31198,4,45082,0,,0.0,93.5,43
NonResidential,Worship Facility,98103.0,6,NORTHWEST,47.68351,-122.35482,2,41600,0,58.0,0.0,30.99,65
NonResidential,Small- and Mid-Sized Office,98102.0,4,LAKE UNION,47.63567,-122.32522,2,34110,0,31.0,0.0,17.87,56
NonResidential,Warehouse,98116.0,2,GREATER DUWAMISH,47.57798,-122.32783,1,23750,0,,0.0,3.65,46
NonResidential,Warehouse,98134.0,2,GREATER DUWAMISH,47.57832,-122.32649,1,43390,0,87.0,0.0,3.72,46
NonResidential,Warehouse,98134.0,2,GREATER DUWAMISH,47.58238,-122.32719,1,35400,0,84.0,0.0,9.29,57
NonResidential,Distribution Center,98104.0,2,GREATER DUWAMISH,47.58517,-122.32853,1,28144,0,19.0,0.0,8.22,50
NonResidential,Warehouse,98199.0,2,GREATER DUWAMISH,47.5842,-122.32826,3,71283,0,41.0,0.0,43.17,100
NonResidential,Warehouse,98134.0,2,GREATER DUWAMISH,47.58661,-122.3281,1,23792,0,,0.0,19.88,27
NonResidential,Small- and Mid-Sized Office,98134.0,2,GREATER DUWAMISH,47.58895,-122.32833,2,47368,0,99.0,0.0,7.27,37
NonResidential,Mixed Use Property,98134.0,2,GREATER DUWAMISH,47.58874,-122.32662,1,46183,0,,0.0,27.92,85
NonResidential,Small- and Mid-Sized Office,98122.0,3,CENTRAL,47.60592,-122.31367,5,72613,22788,84.0,0.0,41.96,32
NonResidential,Retail Store,98118.0,2,SOUTHEAST,47.56514,-122.28781,1,36071,0,97.0,0.0,50.76,48
SPS-District K-12,K-12 School,98118.0,2,SOUTHEAST,47.56591,-122.28339,3,51672,0,97.0,0.0,20.3,27
Nonresidential COS,Medical Office,98118.0,2,SOUTHEAST,47.56364,-122.28572,2,38352,11082,36.0,0.0,14.7,26
Nonresidential COS,Mixed Use Property,98118.0,2,SOUTHEAST,47.56214,-122.28143,1,28425,0,,0.0,57.25,21
NonResidential,Other,98125.0,5,NORTH,47.7139,-122.29794,3,35115,0,,0.0,31.94,7
NonResidential,Mixed Use Property,98103.0,5,NORTHWEST,47.69734,-122.34639,1,66704,0,,0.0,19.77,44
Nonresidential COS,Warehouse,98103.0,5,NORTHWEST,47.70117,-122.34284,1,25658,0,,0.0,18.87,47
NonResidential,Small- and Mid-Sized Office,98122.0,3,EAST,47.61345,-122.3198,2,36000,0,95.0,0.0,18.04,109
NonResidential,Mixed Use Property,98122.0,3,EAST,47.61324,-122.31724,1,36000,0,59.0,0.0,26.52,103
NonResidential,Warehouse,98122.0,3,EAST,47.61467,-122.31777,2,43200,0,38.0,0.0,49.18,101
NonResidential,Small- and Mid-Sized Office,98134.0,2,GREATER DUWAMISH,47.59501,-122.32852,4,53840,12870,71.0,0.0,46.85,103
NonResidential,Retail Store,98134.0,2,GREATER DUWAMISH,47.58801,-122.32944,1,43794,0,88.0,0.0,23.5,41
NonResidential,Warehouse,98134.0,2,GREATER DUWAMISH,47.57466,-122.33089,1,48280,0,18.0,0.0,78.57,48
NonResidential,Distribution Center,98134.0,2,GREATER DUWAMISH,47.57258,-122.33059,1,36040,0,,0.0,7.74,62
NonResidential,Supermarket / Grocery Store,98115.0,4,NORTHEAST,47.68269,-122.28912,1,32822,0,42.0,0.0,219.93,51
SPS-District K-12,K-12 School,98115.0,4,NORTHEAST,47.68069,-122.27533,1,64314,0,86.0,0.0,108.05,68
NonResidential,Worship Facility,98115.0,4,NORTHEAST,47.68061,-122.29002,2,20385,0,65.0,0.0,34.04,66
NonResidential,Worship Facility,98115.0,4,NORTHEAST,47.67984,-122.27739,1,24295,0,53.0,0.0,1.51,70
NonResidential,Small- and Mid-Sized Office,98105.0,4,NORTHEAST,47.66888,-122.28333,2,20317,0,83.0,0.0,4.33,49
NonResidential,Supermarket / Grocery Store,98105.0,4,NORTHEAST,47.66824,-122.28394,1,24377,0,6.0,0.0,260.32,43
NonResidential,Other,98113.0,5,NORTHWEST,47.70197,-122.34219,1,33392,0,,0.0,19.43,30
NonResidential,Supermarket / Grocery Store,98133.0,5,NORTHWEST,47.70224,-122.34409,1,45155,0,6.0,0.0,158.63,30
NonResidential,Warehouse,98108.0,1,GREATER DUWAMISH,47.5316,-122.333,1,32000,0,3.0,0.0,41.77,50
NonResidential,Warehouse,98108.0,1,GREATER DUWAMISH,47.5316,-122.333,1,44000,0,15.0,0.0,175.53,46
NonResidential,Warehouse,98108.0,1,GREATER DUWAMISH,47.5316,-122.333,1,36000,0,44.0,0.0,124.4,43
NonResidential,Warehouse,98108.0,1,GREATER DUWAMISH,47.52549,-122.33064,1,31360,0,,0.0,43.18,37
NonResidential,Warehouse,98108.0,1,GREATER DUWAMISH,47.52549,-122.33064,1,33320,0,,0.0,64.75,37
NonResidential,Warehouse,98108.0,1,GREATER DUWAMISH,47.52549,-122.33064,1,48020,0,71.0,0.0,59.14,37
NonResidential,Warehouse,98108.0,1,GREATER DUWAMISH,47.52549,-122.33064,1,27420,0,55.0,0.0,39.05,37
NonResidential,K-12 School,98115.0,5,NORTHEAST,47.694,-122.28967,2,43645,0,71.0,0.0,85.15,67
NonResidential,Retail Store,98115.0,5,NORTHEAST,47.69066,-122.29023,1,26853,0,68.0,0.0,21.46,64
NonResidential,Other,98134.0,2,GREATER DUWAMISH,47.59347,-122.33369,4,44775,0,,0.0,29.88,107
NonResidential,Other,98134.0,2,GREATER DUWAMISH,47.57507,-122.33349,1,27760,0,,0.0,112.82,100
NonResidential,Other,98134.0,2,GREATER DUWAMISH,47.57459,-122.3339,1,20975,0,,0.0,6.46,79
NonResidential,Other,98134.0,2,GREATER DUWAMISH,47.57619,-122.3339,1,26075,0,,0.0,17.6,98
NonResidential,Warehouse,98134.0,2,GREATER DUWAMISH,47.57881,-122.33273,1,29394,0,60.0,0.0,26.27,24
NonResidential,Warehouse,98134.0,2,GREATER DUWAMISH,47.57941,-122.3336,2,20400,0,69.0,0.0,12.17,90
NonResidential,Small- and Mid-Sized Office,98134.0,2,GREATER DUWAMISH,47.57893,-122.33374,1,20460,0,16.0,0.0,6.3,90
NonResidential,Self-Storage Facility,98134.0,2,GREATER DUWAMISH,47.58168,-122.33369,2,25821,0,,0.0,1.46,91
NonResidential,Refrigerated Warehouse,98134.0,2,GREATER DUWAMISH,47.58217,-122.33263,2,21870,0,45.0,0.0,7.49,61
NonResidential,Warehouse,98134.0,2,GREATER DUWAMISH,47.58069,-122.3325,1,51664,0,,0.0,66.77,28
NonResidential,Medical Office,98126.0,1,DELRIDGE,47.53419,-122.36624,1,43615,0,89.0,0.0,106.35,46
NonResidential,Small- and Mid-Sized Office,98126.0,1,DELRIDGE,47.53419,-122.36624,3,36879,0,26.0,0.0,7.98,46
Nonresidential COS,Other,98106.0,1,DELRIDGE,47.53578,-122.36205,2,28531,0,,0.0,92.7,14
NonResidential,Warehouse,98106.0,1,DELRIDGE,47.53846,-122.36175,2,36600,0,80.0,0.0,2.15,34
NonResidential,Mixed Use Property,98126.0,1,SOUTHWEST,47.57269,-122.37056,5,35176,0,,0.0,7.05,12
SPS-District K-12,K-12 School,98115.0,5,NORTH,47.69845,-122.30747,1,36701,0,87.0,0.0,47.98,57
NonResidential,University,98103.0,4,LAKE UNION,47.65231,-122.34217,2,41293,15243,,0.0,61.68,76
NonResidential,Warehouse,98134.0,2,GREATER DUWAMISH,47.55718,-122.33288,1,48890,0,49.0,0.0,61.6,75
NonResidential,Small- and Mid-Sized Office,98134.0,2,GREATER DUWAMISH,47.55658,-122.33322,3,43473,0,3.0,0.0,30.79,16
NonResidential,Retail Store,98126.0,1,DELRIDGE,47.52254,-122.36627,1,40265,0,19.0,0.0,35.48,26
NonResidential,Retail Store,98126.0,1,DELRIDGE,47.52254,-122.36627,1,26208,0,79.0,0.0,37.61,11
Nonresidential COS,Other,98106.0,1,DELRIDGE,47.52801,-122.36918,2,27227,0,,0.0,286.89,41
NonResidential,Mixed Use Property,98117.0,6,BALLARD,47.69766,-122.37346,1,42172,0,,0.0,152.14,90
NonResidential,Small- and Mid-Sized Office,98104.0,2,DOWNTOWN,47.59657,-122.33394,5,32250,0,92.0,0.0,11.44,106
NonResidential,Retail Store,98103.0,6,NORTHWEST,47.69061,-122.35731,1,51000,0,95.0,0.0,14.17,63
NonResidential,Mixed Use Property,98134.0,2,GREATER DUWAMISH,47.58452,-122.3337,1,27000,0,,0.0,1.6,100
NonResidential,Other,98134.0,2,GREATER DUWAMISH,47.58787,-122.33365,2,20747,0,,0.0,17.45,81
NonResidential,Warehouse,98101.0,2,GREATER DUWAMISH,47.58903,-122.33361,2,40800,0,,0.0,27.83,88
NonResidential,Small- and Mid-Sized Office,98134.0,2,GREATER DUWAMISH,47.59508,-122.33378,2,20150,0,80.0,0.0,4.02,96
NonResidential,Small- and Mid-Sized Office,98104.0,2,DOWNTOWN,47.59639,-122.33368,7,36000,0,40.0,0.0,11.73,107
NonResidential,Warehouse,98111.0,2,GREATER DUWAMISH,47.59081,-122.33487,2,41276,0,,0.0,96.62,78
NonResidential,Refrigerated Warehouse,98134.0,2,GREATER DUWAMISH,47.58999,-122.33539,2,24430,0,,0.0,23.62,79
NonResidential,Small- and Mid-Sized Office,98134.0,2,GREATER DUWAMISH,47.58686,-122.33469,1,22580,0,90.0,0.0,9.65,89
NonResidential,Warehouse,98122.0,3,CENTRAL,47.60192,-122.31641,1,20000,0,18.0,0.0,33.52,90
NonResidential,Warehouse,98122.0,3,CENTRAL,47.60224,-122.31529,1,42000,0,,0.0,82.07,62
NonResidential,Self-Storage Facility,98122.0,3,CENTRAL,47.61234,-122.31628,1,24248,0,,0.0,0.79,54
NonResidential,Senior Care Community,98133.0,5,NORTH,47.70178,-122.32352,6,244500,0,100.0,0.0,292.8,7
NonResidential,Warehouse,98134.0,2,GREATER DUWAMISH,47.55608,-122.3388,1,24617,0,,0.0,0.75,84
NonResidential,Other,98134.0,2,GREATER DUWAMISH,47.55768,-122.33137,3,127065,84710,,0.0,22.62,7
NonResidential,Retail Store,98134.0,2,GREATER DUWAMISH,47.55772,-122.33017,1,37247,0,69.0,0.0,58.36,52
NonResidential,Retail Store,98117.0,6,BALLARD,47.69274,-122.37602,1,25384,0,11.0,0.0,77.23,23
NonResidential,Small- and Mid-Sized Office,98134.0,2,GREATER DUWAMISH,47.58462,-122.3347,3,49052,0,96.0,0.0,10.05,106
NonResidential,Warehouse,98134.0,2,GREATER DUWAMISH,47.58318,-122.3347,2,52110,0,34.0,0.0,25.15,116
NonResidential,Small- and Mid-Sized Office,98134.0,2,GREATER DUWAMISH,47.57595,-122.33624,2,39036,0,,0.0,39.25,79
NonResidential,Small- and Mid-Sized Office,98134.0,2,GREATER DUWAMISH,47.57529,-122.33475,1,26310,0,96.0,0.0,14.99,93
NonResidential,Retail Store,98118.0,2,SOUTHEAST,47.54723,-122.28455,1,37883,0,88.0,0.0,413.1,50
NonResidential,K-12 School,98126.0,1,DELRIDGE,47.53887,-122.37564,3,29874,0,95.0,0.0,54.27,54
NonResidential,Worship Facility,98199.0,7,MAGNOLIA / QUEEN ANNE,47.64,-122.39743,1,20140,0,35.0,0.0,47.08,51
NonResidential,Self-Storage Facility,98133.0,6,NORTHWEST,47.70281,-122.35623,2,71874,31389,,0.0,44.97,26
NonResidential,Small- and Mid-Sized Office,98144.0,3,CENTRAL,47.60104,-122.30155,2,39953,0,93.0,0.0,28.05,45
NonResidential,Retail Store,98144.0,3,CENTRAL,47.60009,-122.3017,2,21200,0,15.0,0.0,11.69,18
NonResidential,Supermarket / Grocery Store,98144.0,3,CENTRAL,47.59881,-122.30189,1,30630,0,27.0,0.0,42.24,36
NonResidential,Retail Store,98144.0,3,CENTRAL,47.59881,-122.30189,2,23421,0,25.0,0.0,13.22,36
SPS-District K-12,K-12 School,98117.0,6,BALLARD,47.6763,-122.38051,3,117116,0,83.0,0.0,256.31,85
NonResidential,Worship Facility,98117.0,6,BALLARD,47.67628,-122.38238,2,24120,0,66.0,0.0,31.54,88
NonResidential,Worship Facility,98117.0,6,BALLARD,47.6764,-122.38502,3,35736,0,88.0,0.0,51.15,87
NonResidential,Warehouse,98134.0,2,GREATER DUWAMISH,47.57298,-122.33644,1,51050,0,10.0,0.0,27.75,75
NonResidential,Retail Store,98134.0,2,GREATER DUWAMISH,47.57044,-122.33475,2,21900,0,40.0,0.0,42.66,62
NonResidential,Distribution Center,98134.0,2,GREATER DUWAMISH,47.57227,-122.33843,1,16300,0,100.0,0.0,1.6,64
NonResidential,Warehouse,98134.0,2,GREATER DUWAMISH,47.57339,-122.33735,1,33462,0,1.0,0.0,9.67,52
NonResidential,Mixed Use Property,98134.0,2,GREATER DUWAMISH,47.57506,-122.33862,1,35310,0,,0.0,44.68,64
NonResidential,Other,98108.0,2,GREATER DUWAMISH,47.54089,-122.32323,3,36140,0,,0.0,32.44,54
NonResidential,Other,98144.0,3,DOWNTOWN,47.59886,-122.31678,2,47963,21384,,0.0,298.91,25
NonResidential,Warehouse,98104.0,2,DOWNTOWN,47.59774,-122.31936,1,23903,0,65.0,0.0,14.37,86
NonResidential,Self-Storage Facility,98115.0,4,NORTHEAST,47.67923,-122.31715,3,22522,0,,0.0,23.52,69
NonResidential,Self-Storage Facility,98115.0,4,NORTHEAST,47.67905,-122.31697,4,38959,0,,0.0,23.84,20
NonResidential,Warehouse,98144.0,3,GREATER DUWAMISH,47.5867,-122.30519,2,25955,0,,0.0,8.49,88
Campus,K-12 School,98104.0,3,EAST,47.60776,-122.32481,4,46100,0,75.0,548294.6875,78.19,93
NonResidential,Worship Facility,98133.0,5,NORTHWEST,47.70901,-122.35498,2,21936,0,96.0,0.0,28.78,65
NonResidential,Other,98125.0,5,NORTH,47.7162,-122.2956,1,25406,0,,0.0,41.96,56
NonResidential,Small- and Mid-Sized Office,98118.0,2,SOUTHEAST,47.56029,-122.2858,2,23250,0,55.0,0.0,6.3,49
NonResidential,Warehouse,98134.0,2,GREATER DUWAMISH,47.55966,-122.33146,1,30000,0,32.0,0.0,120.72,56
Nonresidential COS,Warehouse,98108.0,2,GREATER DUWAMISH,47.56522,-122.32205,1,45036,0,,0.0,49.53,54
SPS-District K-12,K-12 School,98116.0,1,SOUTHWEST,47.57269,-122.39673,1,51410,0,87.0,0.0,64.79,54
NonResidential,Mixed Use Property,98101.0,7,DOWNTOWN,47.61376,-122.33445,39,1074552,112124,65.0,0.0,449.59,7
NonResidential,University,98119.0,7,MAGNOLIA / QUEEN ANNE,47.65019,-122.36173,2,122679,0,,0.0,588.25,57
Campus,University,98119.0,7,MAGNOLIA / QUEEN ANNE,47.65019,-122.36173,2,537000,0,,0.0,3768.66,71
NonResidential,Small- and Mid-Sized Office,98125.0,5,NORTH,47.70868,-122.30089,4,23022,0,78.0,0.0,14.64,36
NonResidential,Refrigerated Warehouse,98134.0,2,GREATER DUWAMISH,47.56173,-122.32885,1,27263,0,,0.0,17.22,49
NonResidential,Warehouse,98134.0,2,GREATER DUWAMISH,47.56318,-122.32889,1,31569,0,12.0,0.0,125.59,54
NonResidential,Warehouse,98134.0,2,GREATER DUWAMISH,47.56362,-122.32876,1,22509,0,57.0,0.0,1.24,60
NonResidential,Warehouse,98134.0,2,GREATER DUWAMISH,47.56424,-122.32902,1,39984,0,75.0,0.0,36.82,60
SPS-District K-12,K-12 School,98102.0,3,EAST,47.62442,-122.31838,2,73769,0,92.0,0.0,94.85,91
NonResidential,Worship Facility,98102.0,3,EAST,47.62322037,-122.320017,1,26440,0,91.0,0.0,27.93,110
SPS-District K-12,K-12 School,98115.0,4,NORTHEAST,47.68503,-122.28267,1,43578,0,83.0,0.0,24.63,55
NonResidential,Self-Storage Facility,98144.0,3,GREATER DUWAMISH,47.59291,-122.31042,2,28800,0,,0.0,29.44,60
NonResidential,K-12 School,98122.0,3,CENTRAL,47.61791,-122.28594,2,28500,0,92.0,0.0,28.64,7
NonResidential,Restaurant,98109.0,3,LAKE UNION,47.62902,-122.33173,2,26519,0,,0.0,97.27,38
NonResidential,Mixed Use Property,98109.0,3,LAKE UNION,47.62774,-122.33384,2,34639,15402,,0.0,515.71,28
NonResidential,Other,98109.0,7,MAGNOLIA / QUEEN ANNE,47.62643,-122.33946,2,26300,0,,0.0,116.94,95
NonResidential,Restaurant,98109.0,7,LAKE UNION,47.63734,-122.33988,2,34072,0,,0.0,226.81,54
NonResidential,Small- and Mid-Sized Office,98109.0,7,LAKE UNION,47.63614,-122.33982,3,23355,0,77.0,0.0,5.86,67
NonResidential,Small- and Mid-Sized Office,98109.0,7,MAGNOLIA / QUEEN ANNE,47.63575,-122.33895,4,30840,0,30.0,0.0,101.21,51
NonResidential,Other,98115.0,4,NORTHEAST,47.67642,-122.3035,1,20332,0,,0.0,10.99,70
NonResidential,Worship Facility,98122.0,3,CENTRAL,47.61118,-122.288,1,21850,0,100.0,0.0,13.09,116
NonResidential,Mixed Use Property,98105.0,4,NORTHEAST,47.66827,-122.29978,4,32282,6985,,0.0,34.62,19
NonResidential,Large Office,98104.0,7,DOWNTOWN,47.60449,-122.33803,13,307557,83064,,0.0,66.32,33
NonResidential,Self-Storage Facility,98109.0,7,MAGNOLIA / QUEEN ANNE,47.64633,-122.3508,2,28309,0,,0.0,11.85,98
NonResidential,Hotel,98104.0,7,DOWNTOWN,47.60154,-122.3352,4,45500,0,77.0,941139.6875,122.0,102
NonResidential,Small- and Mid-Sized Office,98104.0,7,DOWNTOWN,47.60106,-122.33458,5,38376,0,,0.0,14.35,116
NonResidential,Small- and Mid-Sized Office,98104.0,7,DOWNTOWN,47.60149,-122.33458,4,42804,0,,0.0,46.53,116
NonResidential,Mixed Use Property,98104.0,7,DOWNTOWN,47.6005,-122.33514,5,57600,0,,0.0,223.36,11
NonResidential,Small- and Mid-Sized Office,98104.0,7,DOWNTOWN,47.60023,-122.33459,4,33300,0,,0.0,18.76,116
NonResidential,Other,98104.0,7,DOWNTOWN,47.59976,-122.33514,3,22200,0,,0.0,7.05,116
NonResidential,Warehouse,98109.0,7,MAGNOLIA / QUEEN ANNE,47.64306,-122.34219,2,29498,0,,0.0,50.05,48
NonResidential,Warehouse,98103.0,4,LAKE UNION,47.64793,-122.34358,1,23050,0,27.0,0.0,3.25,78
NonResidential,Small- and Mid-Sized Office,98103.0,4,LAKE UNION,47.64747,-122.34086,4,48350,0,45.0,0.0,22.09,8
NonResidential,Retail Store,98105.0,4,NORTHEAST,47.66097,-122.3192,1,46059,0,82.0,0.0,20.66,86
NonResidential,Medical Office,98115.0,4,NORTHEAST,47.67437,-122.3181,2,23595,0,72.0,0.0,6.53,46
NonResidential,Small- and Mid-Sized Office,98104.0,7,DOWNTOWN,47.59938,-122.33328,3,28142,0,96.0,340615.5938,34.08,116
NonResidential,Small- and Mid-Sized Office,98104.0,7,DOWNTOWN,47.59954,-122.33327,3,28760,0,,500752.8125,124.59,116
NonResidential,Small- and Mid-Sized Office,98104.0,7,DOWNTOWN,47.59979,-122.33318,4,39030,0,99.0,0.0,13.69,114
NonResidential,Small- and Mid-Sized Office,98104.0,7,DOWNTOWN,47.60071,-122.33377,3,47215,0,58.0,0.0,63.81,107
Nonresidential COS,Other,98122.0,3,EAST,47.61492,-122.31728,2,61580,27000,,0.0,69.53,90
NonResidential,Small- and Mid-Sized Office,98122.0,3,EAST,47.61459,-122.31724,3,30720,0,,0.0,25.53,99
NonResidential,Mixed Use Property,98122.0,3,EAST,47.61428,-122.31726,2,20640,0,,0.0,2.88,100
NonResidential,Mixed Use Property,98122.0,3,EAST,47.61421,-122.3193,2,34914,0,,0.0,9.29,104
NonResidential,Small- and Mid-Sized Office,98122.0,3,EAST,47.61508,-122.31845,3,20897,0,,0.0,17.79,110
NonResidential,Retail Store,98122.0,3,EAST,47.61478,-122.31847,2,36940,0,100.0,0.0,2.35,100
NonResidential,Small- and Mid-Sized Office,98122.0,3,EAST,47.61435,-122.31859,3,22866,0,,0.0,20.76,103
NonResidential,Retail Store,98122.0,3,EAST,47.61466,-122.31984,1,30240,0,78.0,0.0,18.19,96
NonResidential,Other,98105.0,4,NORTHEAST,47.65729,-122.31937,2,28586,0,,0.0,35.4,54
NonResidential,Hotel,98104.0,2,DOWNTOWN,47.59766,-122.32394,3,28800,0,,0.0,190.45,108
NonResidential,Restaurant,98104.0,2,DOWNTOWN,47.59697,-122.32474,3,28800,0,,0.0,29.21,103
NonResidential,Small- and Mid-Sized Office,98104.0,2,DOWNTOWN,47.59644,-122.32415,3,35202,0,2.0,0.0,25.14,37
NonResidential,Senior Care Community,98101.0,7,EAST,47.61318,-122.32747,6,95117,26082,1.0,0.0,183.79,47
NonResidential,Worship Facility,98122.0,3,EAST,47.61426,-122.32661,2,24600,0,69.0,0.0,5.66,106
NonResidential,Worship Facility,98104.0,3,EAST,47.60514,-122.32613,1,48850,0,,815676.125,65.05,116
NonResidential,Hospital,98116.0,1,SOUTHWEST,47.58767,-122.38672,3,54863,0,100.0,0.0,14.21,55
NonResidential,Warehouse,98108.0,2,GREATER DUWAMISH,47.55317,-122.33289,1,25000,0,,0.0,65.89,52
NonResidential,Warehouse,98134.0,2,GREATER DUWAMISH,47.55544,-122.33294,1,25000,0,,0.0,8.61,56
NonResidential,Other,98108.0,2,GREATER DUWAMISH,47.55523,-122.33448,1,22622,0,,0.0,26.56,89
NonResidential,Small- and Mid-Sized Office,98122.0,3,EAST,47.61543,-122.32657,3,27544,0,94.0,0.0,17.41,99
NonResidential,Small- and Mid-Sized Office,98121.0,7,DOWNTOWN,47.61161,-122.34592,7,47415,0,,0.0,10.31,27
NonResidential,Other,98109.0,7,MAGNOLIA / QUEEN ANNE,47.63644,-122.34218,3,22960,0,,0.0,95.38,55
NonResidential,Supermarket / Grocery Store,98112.0,3,EAST,47.62048,-122.31386,1,44739,0,17.0,0.0,393.07,18
NonResidential,Mixed Use Property,98105.0,4,NORTHEAST,47.66816,-122.27706,1,22778,0,,0.0,120.86,68
NonResidential,Worship Facility,98117.0,6,BALLARD,47.68517,-122.38733,2,21562,0,20.0,0.0,37.28,60
NonResidential,Other,98122.0,3,CENTRAL,47.62322,-122.29006,1,25753,0,,0.0,62.51,57
NonResidential,Other,98112.0,3,EAST,47.62816,-122.28067,3,71280,0,,0.0,861.85,88
SPS-District K-12,K-12 School,98112.0,3,EAST,47.63408,-122.28483,3,38297,0,85.0,0.0,69.18,91
NonResidential,Senior Care Community,98112.0,3,EAST,47.63429,-122.27652,16,153312,0,51.0,0.0,792.6,53
NonResidential,Mixed Use Property,98121.0,7,DOWNTOWN,47.61811,-122.33908,19,1206670,201857,87.0,0.0,393.29,7
NonResidential,Worship Facility,98118.0,2,SOUTHEAST,47.53857,-122.28026,1,24200,0,73.0,0.0,22.38,48
NonResidential,Residence Hall,98109.0,7,MAGNOLIA / QUEEN ANNE,47.63651,-122.34418,4,23513,2211,,0.0,49.79,35
NonResidential,Self-Storage Facility,98126.0,1,DELRIDGE,47.56785,-122.37039,3,66610,0,,0.0,18.81,22
NonResidential,Other,98134.0,2,GREATER DUWAMISH,47.56774,-122.33289,1,36000,0,,0.0,58.79,66
NonResidential,K-12 School,98133.0,5,NORTHWEST,47.71387,-122.3535,2,23222,0,62.0,0.0,55.06,78
NonResidential,Mixed Use Property,98122.0,3,EAST,47.61426,-122.3253,2,24476,0,,0.0,91.69,92
NonResidential,Retail Store,98122.0,3,EAST,47.61386,-122.32481,2,24750,0,,0.0,28.07,106
NonResidential,K-12 School,98122.0,3,EAST,47.61339,-122.32594,3,60000,0,52.0,0.0,121.63,112
NonResidential,Other,98122.0,3,EAST,47.61449,-122.32592,2,46560,0,,0.0,17.31,62
NonResidential,Other,98109.0,7,MAGNOLIA / QUEEN ANNE,47.63303,-122.34268,3,30408,0,61.0,0.0,10.04,36
NonResidential,Small- and Mid-Sized Office,98109.0,7,MAGNOLIA / QUEEN ANNE,47.63439,-122.34078,3,30109,0,89.0,0.0,34.03,96
SPS-District K-12,K-12 School,98126.0,1,SOUTHWEST,47.55257,-122.38019,2,39929,0,82.0,0.0,47.18,52
NonResidential,Small- and Mid-Sized Office,98119.0,7,MAGNOLIA / QUEEN ANNE,47.63985,-122.36712,2,25481,0,92.0,0.0,38.59,56
NonResidential,Senior Care Community,98118.0,2,SOUTHEAST,47.53515,-122.26556,1,141297,0,76.0,0.0,717.93,49
NonResidential,Small- and Mid-Sized Office,98109.0,7,LAKE UNION,47.62298,-122.33082,2,27788,0,73.0,0.0,35.99,104
NonResidential,Hotel,98133.0,5,NORTHWEST,47.729,-122.34473,4,41704,8584,73.0,0.0,58.52,26
NonResidential,Warehouse,98134.0,2,GREATER DUWAMISH,47.56683,-122.33358,2,22324,0,53.0,0.0,22.33,75
NonResidential,Other,98134.0,2,GREATER DUWAMISH,47.5661,-122.33358,2,31360,0,,0.0,39.65,70
NonResidential,Mixed Use Property,98134.0,2,GREATER DUWAMISH,47.56555,-122.33362,1,30496,0,,0.0,46.01,69
NonResidential,Small- and Mid-Sized Office,98122.0,3,EAST,47.61545,-122.3238,3,27600,0,84.0,0.0,12.57,94
NonResidential,Senior Care Community,98103.0,6,NORTHWEST,47.66312,-122.35311,2,55974,0,98.0,0.0,203.21,55
SPS-District K-12,K-12 School,98118.0,2,GREATER DUWAMISH,47.53074,-122.28491,2,52901,0,75.0,0.0,60.2,45
NonResidential,Senior Care Community,98125.0,5,NORTH,47.70883,-122.28887,1,22583,0,95.0,0.0,70.92,62
NonResidential,Small- and Mid-Sized Office,98103.0,4,LAKE UNION,47.66117,-122.3391,3,31686,7358,35.0,0.0,16.07,19
NonResidential,Small- and Mid-Sized Office,98103.0,4,LAKE UNION,47.6483,-122.33438,3,26694,6034,92.0,0.0,5.02,35
NonResidential,Warehouse,98133.0,5,NORTHWEST,47.70833,-122.34429,1,29400,0,69.0,0.0,1.59,44
NonResidential,Hotel,98108.0,2,GREATER DUWAMISH,47.54774,-122.32091,3,22452,0,85.0,0.0,41.88,24
NonResidential,Other,98105.0,4,NORTHEAST,47.66148,-122.31279,2,25767,0,22.0,0.0,11.02,104
NonResidential,Retail Store,98105.0,4,NORTHEAST,47.66188,-122.31279,4,33910,0,75.0,0.0,38.21,63
NonResidential,Worship Facility,98105.0,4,NORTHEAST,47.6645,-122.31224,2,78401,0,,0.0,87.41,89
NonResidential,Warehouse,98103.0,4,LAKE UNION,47.64748,-122.33435,2,78716,0,38.0,0.0,48.13,37
NonResidential,K-12 School,98103.0,4,LAKE UNION,47.66389,-122.33692,2,33300,0,92.0,0.0,69.2,106
NonResidential,Supermarket / Grocery Store,98103.0,4,LAKE UNION,47.66185,-122.33594,1,28808,0,29.0,0.0,226.73,59
NonResidential,Small- and Mid-Sized Office,98105.0,4,NORTHEAST,47.66345,-122.3134,1,27966,7004,58.0,0.0,7.67,59
NonResidential,Supermarket / Grocery Store,98105.0,4,NORTHEAST,47.66429,-122.31389,1,26226,0,37.0,0.0,156.18,66
NonResidential,Mixed Use Property,98105.0,4,NORTHEAST,47.6616,-122.31393,2,34948,15755,17.0,0.0,8.09,40
NonResidential,Small- and Mid-Sized Office,98102.0,4,LAKE UNION,47.6342,-122.32661,3,37639,9999,,0.0,43.21,18
NonResidential,Small- and Mid-Sized Office,98104.0,7,DOWNTOWN,47.60102,-122.33378,4,22840,0,64.0,0.0,6.14,116
NonResidential,Other,98104.0,7,DOWNTOWN,47.60135,-122.33327,1,21420,0,,0.0,9.72,116
NonResidential,Small- and Mid-Sized Office,98104.0,7,DOWNTOWN,47.6011,-122.33197,1,20880,0,94.0,0.0,4.76,116
NonResidential,Mixed Use Property,98104.0,7,DOWNTOWN,47.59938,-122.33197,3,26000,0,,0.0,18.62,50
NonResidential,Small- and Mid-Sized Office,98104.0,7,DOWNTOWN,47.59954,-122.33201,3,38675,0,,0.0,43.91,116
Nonresidential COS,Small- and Mid-Sized Office,98104.0,7,DOWNTOWN,47.59986,-122.33195,4,49951,0,,382080.0,185.33,87
NonResidential,Medical Office,98118.0,2,SOUTHEAST,47.5195,-122.26935,2,25880,0,8.0,0.0,19.81,6
NonResidential,Worship Facility,98105.0,4,NORTHEAST,47.66517,-122.31037,3,41013,0,,0.0,37.43,89
NonResidential,Other,98105.0,4,NORTHEAST,47.66453,-122.30999,2,21075,0,,0.0,53.88,12
NonResidential,Worship Facility,98133.0,4,NORTHEAST,47.67842,-122.31949,3,46485,0,83.0,0.0,47.03,66
NonResidential,Small- and Mid-Sized Office,98115.0,6,NORTHWEST,47.67819,-122.3231,4,56896,0,96.0,0.0,28.46,51
NonResidential,Worship Facility,98115.0,6,NORTHWEST,47.67783,-122.32577,2,27500,0,60.0,0.0,14.79,38
NonResidential,Small- and Mid-Sized Office,98104.0,2,DOWNTOWN,47.59856,-122.33248,2,36630,0,90.0,0.0,3.78,86
NonResidential,Small- and Mid-Sized Office,98104.0,7,DOWNTOWN,47.59954,-122.33115,3,26830,0,,0.0,60.93,116
NonResidential,Small- and Mid-Sized Office,98104.0,7,DOWNTOWN,47.59971,-122.33065,5,41920,0,95.0,0.0,7.69,110
NonResidential,Small- and Mid-Sized Office,98104.0,7,DOWNTOWN,47.60048,-122.33157,5,36879,0,92.0,0.0,26.94,111
NonResidential,Other,98104.0,7,DOWNTOWN,47.60055,-122.33057,6,29820,0,,0.0,35.72,112
NonResidential,Small- and Mid-Sized Office,98104.0,7,DOWNTOWN,47.60026,-122.3299,2,33640,0,70.0,0.0,7.52,111
NonResidential,Warehouse,98104.0,7,DOWNTOWN,47.59986,-122.32987,4,43484,0,18.0,0.0,10.92,110
NonResidential,Mixed Use Property,98104.0,2,DOWNTOWN,47.599,-122.32717,3,22480,0,,0.0,6.84,116
NonResidential,Hotel,98104.0,2,DOWNTOWN,47.5985,-122.32677,4,33018,0,49.0,0.0,173.67,91
NonResidential,Small- and Mid-Sized Office,98134.0,2,DOWNTOWN,47.5962,-122.32548,2,26510,0,91.0,0.0,11.18,46
NonResidential,Warehouse,98105.0,4,LAKE UNION,47.65429,-122.32618,1,40028,0,80.0,0.0,6.76,78
NonResidential,Small- and Mid-Sized Office,98105.0,4,LAKE UNION,47.65373,-122.32721,3,44510,18228,23.0,0.0,15.25,9
NonResidential,Worship Facility,98125.0,5,NORTH,47.71705,-122.28577,1,21624,0,90.0,0.0,20.96,62
SPS-District K-12,K-12 School,98103.0,6,NORTHWEST,47.6763,-122.3285,1,42239,0,83.0,0.0,72.69,46
SPS-District K-12,K-12 School,98105.0,6,NORTHWEST,47.66828,-122.3266,3,51360,0,89.0,0.0,30.22,91
NonResidential,Small- and Mid-Sized Office,98104.0,2,DOWNTOWN,47.59819,-122.32599,3,21600,0,,0.0,32.42,23
NonResidential,Mixed Use Property,98104.0,2,DOWNTOWN,47.59769,-122.32537,3,20620,0,,0.0,20.78,107
NonResidential,Hotel,98104.0,2,DOWNTOWN,47.59983,-122.32598,5,40552,0,99.0,0.0,53.25,106
NonResidential,Small- and Mid-Sized Office,98104.0,2,DOWNTOWN,47.60105,-122.32542,3,31432,0,,0.0,10.04,107
NonResidential,Retail Store,98104.0,2,DOWNTOWN,47.59935,-122.32468,2,24550,0,100.0,0.0,6.73,99
SPS-District K-12,K-12 School,98105.0,4,LAKE UNION,47.65753,-122.32405,2,61052,0,80.0,0.0,47.78,16
NonResidential,Other,98122.0,3,CENTRAL,47.60285,-122.31458,3,25864,0,,0.0,34.61,108
NonResidential,Other,98105.0,4,NORTHEAST,47.66192,-122.30998,3,20686,0,,0.0,42.71,92
NonResidential,Residence Hall,98105.0,4,NORTHEAST,47.6617,-122.31007,3,22124,0,82.0,0.0,4.45,87
NonResidential,Residence Hall,98105.0,4,NORTHEAST,47.66289,-122.30863,3,27487,0,82.0,0.0,65.95,90
NonResidential,Residence Hall,98105.0,4,NORTHEAST,47.66164,-122.30874,4,23616,0,55.0,0.0,53.65,90
NonResidential,Residence Hall,98105.0,4,NORTHEAST,47.66238,-122.30801,3,33448,0,78.0,0.0,6.96,40
Nonresidential COS,Mixed Use Property,98122.0,2,EAST,47.60153,-122.31986,2,29508,7120,,0.0,81.24,11
NonResidential,Senior Care Community,98122.0,3,CENTRAL,47.60133,-122.31088,2,74840,0,48.0,0.0,249.46,29
Nonresidential COS,Other,98144.0,3,CENTRAL,47.60133,-122.31088,3,20992,0,,0.0,104.74,103
NonResidential,K-12 School,98122.0,3,CENTRAL,47.6032,-122.30596,2,22344,0,40.0,0.0,55.23,91
NonResidential,University,98121.0,3,EAST,47.62531,-122.32303,3,31900,0,,0.0,96.2,95
Nonresidential COS,Other,98117.0,6,BALLARD,47.68475,-122.38257,2,29417,0,,0.0,56.25,66
NonResidential,Mixed Use Property,98104.0,2,DOWNTOWN,47.59737,-122.32487,3,49299,0,,0.0,9.23,107
NonResidential,Supermarket / Grocery Store,98116.0,1,SOUTHWEST,47.58217,-122.38479,1,31841,0,,0.0,404.21,19
NonResidential,Mixed Use Property,98122.0,3,EAST,47.627,-122.29153,2,21036,0,,0.0,78.36,28
NonResidential,Mixed Use Property,98105.0,4,NORTHEAST,47.66272,-122.31798,2,32928,0,9.0,0.0,39.4,17
SPS-District K-12,K-12 School,98105.0,4,NORTHEAST,47.6622,-122.27796,2,54943,0,94.0,0.0,83.76,88
NonResidential,Warehouse,98108.0,2,GREATER DUWAMISH,47.54761,-122.32759,1,44476,0,33.0,0.0,29.7,56
NonResidential,Small- and Mid-Sized Office,98108.0,2,GREATER DUWAMISH,47.54494,-122.32543,1,35017,0,66.0,0.0,27.06,47
NonResidential,Residence Hall,98177.0,4,NORTHEAST,47.66281,-122.30819,3,29084,0,66.0,0.0,60.83,66
NonResidential,Worship Facility,98144.0,3,SOUTHEAST,47.58671,-122.30201,2,22952,0,98.0,0.0,19.28,53
NonResidential,Warehouse,98108.0,2,GREATER DUWAMISH,47.54443,-122.32688,1,21040,0,43.0,0.0,19.14,40
NonResidential,Warehouse,98108.0,2,GREATER DUWAMISH,47.54491,-122.32758,2,28032,0,52.0,0.0,46.61,65
NonResidential,Distribution Center,98108.0,2,GREATER DUWAMISH,47.54333,-122.32792,1,25620,0,82.0,0.0,20.46,42
NonResidential,Warehouse,98144.0,2,DOWNTOWN,47.59775,-122.32219,3,33238,0,14.0,0.0,11.38,24
NonResidential,K-12 School,98104.0,3,EAST,47.60745,-122.32542,4,27800,0,8.0,0.0,38.36,104
NonResidential,Large Office,98104.0,7,DOWNTOWN,47.60331,-122.33389,6,706176,0,82.0,0.0,92.52,16
NonResidential,Supermarket / Grocery Store,98136.0,1,SOUTHWEST,47.54427,-122.38609,1,33706,0,22.0,0.0,206.33,18
NonResidential,Mixed Use Property,98119.0,7,MAGNOLIA / QUEEN ANNE,47.65532,-122.37133,2,37600,0,,0.0,93.55,55
SPS-District K-12,K-12 School,98177.0,5,NORTHWEST,47.70597,-122.36113,1,42128,0,93.0,0.0,49.55,62
SPS-District K-12,K-12 School,98117.0,6,BALLARD,47.68644,-122.38905,2,44753,0,96.0,0.0,61.25,84
NonResidential,Other,98122.0,3,EAST,47.61314,-122.32262,3,33708,0,,166488.4063,19.61,104
NonResidential,Other,98155.0,5,NORTH,47.73368,-122.31366,2,47237,0,,0.0,41.7,68
SPS-District K-12,K-12 School,98107.0,6,BALLARD,47.67363,-122.39152,2,57298,0,91.0,0.0,11.06,27
NonResidential,Supermarket / Grocery Store,98115.0,4,NORTHEAST,47.68217,-122.31675,1,76585,38585,18.0,0.0,364.27,19
NonResidential,Worship Facility,98105.0,4,NORTHEAST,47.66295,-122.31494,3,26373,0,75.0,0.0,38.18,78
NonResidential,Small- and Mid-Sized Office,98122.0,3,CENTRAL,47.60207,-122.28481,2,75868,0,,0.0,25.14,60
NonResidential,Mixed Use Property,98112.0,3,EAST,47.62164,-122.31238,2,21656,0,,0.0,51.89,69
Nonresidential COS,Distribution Center,98119.0,7,MAGNOLIA / QUEEN ANNE,47.63319,-122.36294,3,23040,0,,0.0,2.94,95
NonResidential,Other,98119.0,7,MAGNOLIA / QUEEN ANNE,47.63286,-122.36141,2,36771,0,,0.0,37.97,60
NonResidential,Warehouse,98108.0,1,GREATER DUWAMISH,47.53104,-122.32784,1,24024,0,,0.0,2.62,39
NonResidential,Warehouse,98108.0,1,GREATER DUWAMISH,47.53326,-122.32579,1,42420,0,34.0,0.0,29.39,63
NonResidential,Distribution Center,98108.0,1,GREATER DUWAMISH,47.53379,-122.33063,1,36982,0,,0.0,6.88,37
NonResidential,Warehouse,98108.0,1,GREATER DUWAMISH,47.53651,-122.32954,2,23400,0,,0.0,3.06,52
NonResidential,Other,98109.0,7,MAGNOLIA / QUEEN ANNE,47.62518,-122.35317,2,30720,0,,0.0,67.15,68
NonResidential,Warehouse,98108.0,2,GREATER DUWAMISH,47.56626,-122.3244,1,23232,0,,0.0,0.89,44
NonResidential,Warehouse,98108.0,2,GREATER DUWAMISH,47.56501,-122.3248,1,35046,0,100.0,0.0,17.65,42
NonResidential,Refrigerated Warehouse,98108.0,2,GREATER DUWAMISH,47.56477,-122.32628,1,25577,0,,0.0,14.19,55
NonResidential,Warehouse,98108.0,2,GREATER DUWAMISH,47.56448,-122.32484,1,43380,0,89.0,0.0,2.82,42
NonResidential,Small- and Mid-Sized Office,98020.0,4,LAKE UNION,47.65576,-122.34208,3,20410,0,8.0,0.0,77.84,21
NonResidential,Small- and Mid-Sized Office,98133.0,5,NORTHWEST,47.70349,-122.33424,3,24696,6300,87.0,0.0,4.35,33
SPS-District K-12,K-12 School,98125.0,5,NORTHWEST,47.71487,-122.32959,1,45174,0,84.0,0.0,68.89,60
NonResidential,Worship Facility,98125.0,5,NORTHWEST,47.71479,-122.32824,1,24955,0,47.0,0.0,21.87,14
NonResidential,Other,98112.0,3,CENTRAL,47.62342,-122.29688,3,34074,0,,0.0,286.33,25
NonResidential,Hotel,98104.0,7,DOWNTOWN,47.60505,-122.3361,10,392552,22225,23.0,0.0,423.57,10
NonResidential,Worship Facility,98125.0,5,NORTH,47.71856,-122.32084,2,76475,0,,0.0,67.33,55
NonResidential,K-12 School,98125.0,5,NORTH,47.71923,-122.32171,2,32961,0,86.0,0.0,62.94,28
Nonresidential COS,Other,98103.0,6,NORTHWEST,47.6875,-122.35496,1,27376,14570,,0.0,26.67,12
Campus,K-12 School,98112.0,3,CENTRAL,47.62291,-122.28879,1,109794,0,87.0,0.0,115.34,66
NonResidential,Other,98122.0,3,CENTRAL,47.61796,-122.30847,3,25200,0,,0.0,53.02,105
NonResidential,Supermarket / Grocery Store,98125.0,5,NORTH,47.70941,-122.31707,1,44755,0,56.0,0.0,338.58,20
NonResidential,Other,98122.0,3,EAST,47.61340332,-122.3203506,2,22320,0,,0.0,4.8,109
NonResidential,Mixed Use Property,98122.0,3,EAST,47.6139,-122.32034,3,24000,0,,0.0,9.09,104
NonResidential,Small- and Mid-Sized Office,98122.0,3,EAST,47.61393,-122.31589,3,23422,0,65.0,0.0,128.07,96
NonResidential,Other,98122.0,3,EAST,47.61674,-122.31111,2,38879,11328,,0.0,28.79,41
NonResidential,Mixed Use Property,98122.0,3,EAST,47.61554,-122.31098,5,53034,14625,93.0,0.0,83.65,18
NonResidential,Warehouse,98112.0,3,EAST,47.61481,-122.31536,2,23040,0,99.0,0.0,0.87,96
NonResidential,Warehouse,98122.0,3,EAST,47.61469,-122.31596,2,61880,0,66.0,0.0,4.15,58
NonResidential,Small- and Mid-Sized Office,98122.0,3,EAST,47.61556,-122.32048,2,27938,0,97.0,0.0,7.31,91
NonResidential,Other,98105.0,4,NORTHEAST,47.66386,-122.31715,2,21600,0,,0.0,11.32,92
Nonresidential COS,Other,98105.0,4,NORTHEAST,47.66506,-122.31656,3,27908,0,,0.0,63.22,87
Campus,K-12 School,98112.0,3,CENTRAL,47.62291,-122.28879,2,30562,0,69.0,0.0,55.73,16
NonResidential,Retail Store,98104.0,2,DOWNTOWN,47.59951,-122.32033,3,54969,0,67.0,0.0,39.31,16
NonResidential,K-12 School,98122.0,3,CENTRAL,47.61395,-122.31253,2,36825,0,,0.0,51.14,65
NonResidential,Small- and Mid-Sized Office,98122.0,3,EAST,47.61546,-122.31195,3,25834,0,73.0,0.0,54.02,58
NonResidential,Worship Facility,98102.0,3,EAST,47.63193,-122.32126,1,37700,0,38.0,0.0,150.23,87
SPS-District K-12,K-12 School,98112.0,3,EAST,47.64063,-122.30428,2,27273,0,90.0,0.0,46.7,91
NonResidential,Mixed Use Property,98122.0,3,CENTRAL,47.61608,-122.30967,6,97229,0,100.0,0.0,7.12,12
NonResidential,Small- and Mid-Sized Office,98103.0,5,NORTHWEST,47.69898,-122.34162,3,25111,0,77.0,0.0,24.97,34
NonResidential,Worship Facility,98199.0,7,MAGNOLIA / QUEEN ANNE,47.64725,-122.39977,2,31805,0,10.0,0.0,68.39,63
NonResidential,K-12 School,98199.0,7,MAGNOLIA / QUEEN ANNE,47.64725,-122.39977,1,20811,0,95.0,0.0,43.97,63
Nonresidential COS,Warehouse,98134.0,2,GREATER DUWAMISH,47.59393,-122.32211,2,22058,0,1.0,0.0,66.43,49
NonResidential,Refrigerated Warehouse,98108.0,2,GREATER DUWAMISH,47.56268,-122.32364,1,22890,0,,0.0,119.76,46
NonResidential,Other,98112.0,2,GREATER DUWAMISH,47.56166,-122.3237,5,36000,0,,0.0,43.04,109
NonResidential,Distribution Center,98108.0,2,GREATER DUWAMISH,47.5616,-122.32603,1,28320,0,1.0,0.0,67.96,45
NonResidential,Worship Facility,98115.0,4,NORTHEAST,47.67816,-122.28998,1,29079,0,78.0,0.0,22.18,61
NonResidential,Small- and Mid-Sized Office,98112.0,3,EAST,47.63441,-122.28061,3,28848,9616,82.0,0.0,5.07,34
NonResidential,Small- and Mid-Sized Office,98107.0,6,BALLARD,47.65564,-122.36191,2,20535,0,7.0,0.0,38.71,28
NonResidential,Laboratory,98119.0,7,MAGNOLIA / QUEEN ANNE,47.65223,-122.36147,2,43025,0,,0.0,255.97,31
NonResidential,Warehouse,98108.0,2,GREATER DUWAMISH,47.54769,-122.3251,1,30800,0,65.0,0.0,3.39,51
NonResidential,Mixed Use Property,98104.0,3,EAST,47.59901628,-122.3315077,3,22168,0,,0.0,49.44,116
NonResidential,Warehouse,98134.0,2,GREATER DUWAMISH,47.59416,-122.3267,1,37400,0,73.0,0.0,7.8,94
NonResidential,Large Office,98104.0,2,DOWNTOWN,47.59666,-122.32768,11,268130,0,88.0,0.0,106.86,16
NonResidential,Small- and Mid-Sized Office,98104.0,2,DOWNTOWN,47.59706,-122.32813,11,68452,0,79.0,0.0,26.37,16
NonResidential,Large Office,98104.0,2,DOWNTOWN,47.59634,-122.32807,11,273185,0,88.0,0.0,102.54,16
NonResidential,K-12 School,98105.0,4,NORTHEAST,47.66368,-122.27324,3,97500,0,97.0,0.0,156.45,92
NonResidential,Small- and Mid-Sized Office,98119.0,7,MAGNOLIA / QUEEN ANNE,47.62495,-122.36036,5,54015,0,75.0,0.0,21.05,34
NonResidential,Restaurant,98101.0,7,DOWNTOWN,47.60805,-122.33978,13,42000,0,,2513519.25,273.91,31
NonResidential,Large Office,98121.0,7,DOWNTOWN,47.61706,-122.35141,24,119701,0,67.0,0.0,58.44,34
Nonresidential COS,Other,98125.0,5,NORTH,47.71986,-122.29809,1,24697,0,,0.0,29.18,51
NonResidential,University,98144.0,3,CENTRAL,47.59677,-122.30172,1,57468,0,,0.0,89.8,3
NonResidential,University,98122.0,3,EAST,47.61808,-122.32175,5,84000,0,,0.0,441.94,10
NonResidential,Retail Store,98101.0,7,DOWNTOWN,47.6087,-122.33884,3,103000,0,89.0,0.0,81.18,25
NonResidential,Supermarket / Grocery Store,98116.0,1,SOUTHWEST,47.56137,-122.38524,1,37864,0,61.0,0.0,176.75,8
NonResidential,Supermarket / Grocery Store,98122.0,3,EAST,47.62256,-122.32092,2,66497,0,84.0,0.0,72.02,66
NonResidential,Retail Store,98109.0,7,MAGNOLIA / QUEEN ANNE,47.62473,-122.34727,4,34010,0,,0.0,24.82,10
NonResidential,Supermarket / Grocery Store,98109.0,7,MAGNOLIA / QUEEN ANNE,47.62473,-122.34727,4,45980,0,79.0,0.0,193.36,10
NonResidential,Retail Store,98122.0,3,EAST,47.61378771,-122.3214255,3,45743,0,88.0,0.0,83.45,20
NonResidential,Other,98122.0,3,CENTRAL,47.61674,-122.30207,1,45000,0,,0.0,137.66,25
NonResidential,Other,98134.0,2,GREATER DUWAMISH,47.59544,-122.33159,6,333698,0,,0.0,295.42,17
NonResidential,Warehouse,98108.0,2,GREATER DUWAMISH,47.55066,-122.31787,4,72859,0,55.0,0.0,12.43,112
SPS-District K-12,K-12 School,98118.0,2,SOUTHEAST,47.52374,-122.27201,2,138705,0,84.0,0.0,124.77,7
NonResidential,Mixed Use Property,98134.0,2,GREATER DUWAMISH,47.5823,-122.32937,3,21947,0,,0.0,37.83,12
NonResidential,Warehouse,98115.0,4,NORTHEAST,47.68454,-122.26235,0,384772,0,69.0,0.0,391.7,76
NonResidential,Medical Office,98115.0,4,NORTHEAST,47.6824,-122.26223,0,30287,0,32.0,0.0,32.72,56
NonResidential,Small- and Mid-Sized Office,98115.0,4,NORTHEAST,47.68254,-122.26299,0,21931,0,32.0,0.0,145.11,56
NonResidential,Small- and Mid-Sized Office,98104.0,7,DOWNTOWN,47.60148,-122.33379,6,73102,0,84.0,0.0,30.03,31
NonResidential,Mixed Use Property,98102.0,3,EAST,47.62256,-122.32092,2,140823,59401,,0.0,28.85,100
Nonresidential COS,Mixed Use Property,98134.0,2,GREATER DUWAMISH,47.57918,-122.32075,1,87458,0,,0.0,270.63,50
NonResidential,Supermarket / Grocery Store,98115.0,5,NORTH,47.71864,-122.312,1,51400,0,74.0,0.0,303.69,5
NonResidential,Small- and Mid-Sized Office,98103.0,4,LAKE UNION,47.64779,-122.33352,1,26263,0,64.0,0.0,11.4,23
Nonresidential COS,Other,98122.0,3,CENTRAL,47.60668,-122.30242,1,21400,0,,0.0,158.6,48
NonResidential,Laboratory,98104.0,3,EAST,47.60427,-122.32311,8,178000,0,,31030194.0,2549.47,16
NonResidential,Large Office,98134.0,2,GREATER DUWAMISH,47.5735,-122.32239,4,162157,0,,0.0,537.03,11
NonResidential,Supermarket / Grocery Store,98119.0,7,MAGNOLIA / QUEEN ANNE,47.6239,-122.35756,4,33997,0,23.0,0.0,94.63,13
NonResidential,Large Office,98109.0,7,LAKE UNION,47.62037,-122.33627,11,526423,0,97.0,0.0,163.19,4
NonResidential,Mixed Use Property,98104.0,7,DOWNTOWN,47.60121,-122.33518,6,74211,0,97.0,0.0,9.46,114
NonResidential,Warehouse,98178.0,2,SOUTHEAST,47.51098,-122.27817,2,45700,0,99.0,0.0,15.5,28
SPS-District K-12,K-12 School,98199.0,7,MAGNOLIA / QUEEN ANNE,47.64342,-122.3997,1,116101,0,,0.0,265.21,64
Nonresidential COS,Other,98115.0,4,NORTHEAST,47.68212,-122.2633,0,502030,0,,0.0,549.11,87
NonResidential,Other,98013.0,5,NORTHWEST,47.71286,-122.33635,2,53575,0,,0.0,619.9,4
NonResidential,Large Office,98134.0,2,GREATER DUWAMISH,47.58995,-122.33472,6,157345,0,63.0,0.0,92.07,4
NonResidential,Residence Hall,98195.0,4,NORTHEAST,47.65642,-122.31475,5,136758,0,90.0,0.0,175.46,4
NonResidential,Residence Hall,98195.0,4,NORTHEAST,47.65599,-122.31385,7,192259,0,72.0,0.0,191.97,4
Nonresidential COS,Other,98108.0,1,GREATER DUWAMISH,47.53246,-122.33304,2,137138,0,,0.0,38.17,4
NonResidential,Other,98101.0,3,EAST,47.60989,-122.32659,7,267470,0,,18547858.0,1597.56,4
NonResidential,Hospital,98145.0,4,NORTHEAST,47.66201,-122.28386,8,330000,0,58.0,0.0,1789.69,3
NonResidential,Retail Store,98109.0,7,MAGNOLIA / QUEEN ANNE,47.62503,-122.35642,3,43832,0,67.0,0.0,144.41,98
NonResidential,Other,98116.0,1,SOUTHWEST,47.5596,-122.38459,6,146363,0,,0.0,325.94,29
NonResidential,Supermarket / Grocery Store,98116.0,1,SOUTHWEST,47.57984,-122.38577,1,67263,0,78.0,0.0,352.77,5
NonResidential,Large Office,98121.0,7,DOWNTOWN,47.61156,-122.34401,13,354086,149326,88.0,0.0,147.84,28
NonResidential,Worship Facility,98105.0,4,NORTHEAST,47.6709,-122.27054,2,70292,0,37.0,0.0,57.59,8
NonResidential,Other,98121.0,7,DOWNTOWN,47.61449,-122.33956,7,90679,35120,100.0,0.0,290.57,41
NonResidential,Laboratory,98109.0,7,LAKE UNION,47.62351,-122.34135,8,339591,114010,,0.0,1088.25,3
NonResidential,K-12 School,98122.0,3,EAST,47.61386,-122.32647,2,35780,0,22.0,0.0,51.59,2
NonResidential,Large Office,98119.0,7,MAGNOLIA / QUEEN ANNE,47.63449,-122.37661,3,105061,28217,100.0,0.0,9.5,3
NonResidential,Small- and Mid-Sized Office,98144.0,3,DOWNTOWN,47.59666,-122.31253,3,62662,14989,67.0,0.0,20.1,3
NonResidential,Hotel,98107.0,6,BALLARD,47.66629,-122.3826,4,62381,22948,62.0,0.0,24.38,3
NonResidential,Senior Care Community,98112.0,3,CENTRAL,47.61885,-122.30341,6,79805,0,25.0,0.0,184.81,3
NonResidential,K-12 School,98125.0,5,NORTHWEST,47.73143,-122.32784,2,48925,0,82.0,0.0,22.76,2
Nonresidential COS,Other,98109.0,7,MAGNOLIA / QUEEN ANNE,47.62082,-122.35251,1,29000,0,,0.0,54.98,54
NonResidential,Other,98105.0,4,NORTHEAST,47.66246,-122.29898,6,305025,239252,,0.0,809.76,3
NonResidential,Large Office,98134.0,2,GREATER DUWAMISH,47.58872,-122.33475,7,333714,146687,,0.0,42.2,2
NonResidential,Other,98134.0,2,GREATER DUWAMISH,47.5843,-122.32229,2,56988,0,,0.0,16.13,2
Campus,University,98108.0,2,GREATER DUWAMISH,47.54193,-122.32404,2,149856,0,,0.0,107.29,9
NonResidential,Other,98146.0,1,DELRIDGE,47.51377011,-122.3432804,2,44162,0,,0.0,38.13,6
Nonresidential COS,Other,98118.0,2,SOUTHEAST,47.52472,-122.27074,1,53775,0,,0.0,457.51,3
NonResidential,Small- and Mid-Sized Office,98122.0,3,EAST,47.61438,-122.32174,2,64820,0,,0.0,29.4,104
NonResidential,University,98122.0,3,EAST,47.61699,-122.32083,2,99765,0,,0.0,74.3,23
NonResidential,University,98122.0,3,EAST,47.61748356,-122.321853,3,428347,0,,13556219.0,1280.81,91
NonResidential,Hospital,98101.0,3,EAST,47.60986,-122.32774,8,374466,0,74.0,73885472.0,6330.91,96
NonResidential,Senior Care Community,98101.0,7,DOWNTOWN,47.60898,-122.34213,3,197395,156000,,0.0,58.28,27
NonResidential,Supermarket / Grocery Store,98107.0,6,BALLARD,47.67034,-122.3873,8,41198,0,44.0,0.0,82.58,6
Nonresidential COS,Other,98124.0,2,GREATER DUWAMISH,47.59523,-122.32334,1,20993,0,,0.0,10.8,2
NonResidential,Other,98108.0,2,SOUTHEAST,47.5626,-122.29396,0,40265,0,,0.0,51.39,7
Campus,University,98105.0,4,NORTHEAST,47.65644,-122.31041,0,9320156,0,,84985240.0,11140.56,116
NonResidential,University,98195.0,4,NORTHEAST,47.65395,-122.30584,4,58779,0,,0.0,25.93,47
NonResidential,Residence Hall,98105.0,4,NORTHEAST,47.65718,-122.31632,0,176225,0,91.0,0.0,103.65,5
NonResidential,University,98195.0,4,NORTHEAST,47.65356,-122.30613,6,203030,0,,0.0,199.48,18
NonResidential,Residence Hall,98195.0,4,NORTHEAST,47.65577,-122.3153,0,166991,0,19.0,0.0,437.2,63
NonResidential,Residence Hall,98195.0,4,NORTHEAST,47.65447,-122.31733,0,89392,0,16.0,0.0,48.53,46
NonResidential,Residence Hall,98195.0,4,NORTHEAST,47.65176,-122.30756,0,97040,0,69.0,0.0,62.41,5
NonResidential,Large Office,98109.0,7,LAKE UNION,47.62384,-122.33941,6,427181,0,99.0,0.0,213.7,2
NonResidential,Self-Storage Facility,98144.0,2,SOUTHEAST,47.57054,-122.29139,4,101580,14004,,0.0,9.91,2
NonResidential,Other,98105.0,4,NORTHEAST,47.66414,-122.31664,3,33648,0,,0.0,9.76,2
NonResidential,Small- and Mid-Sized Office,98122.0,3,EAST,47.61371,-122.31774,5,37873,0,,0.0,65.01,1
NonResidential,Large Office,98109.0,7,MAGNOLIA / QUEEN ANNE,47.62906,-122.34259,10,513816,0,,0.0,214.19,1
NonResidential,Hotel,98101.0,7,DOWNTOWN,47.61665,-122.33261,14,144614,0,89.0,0.0,50.32,1
NonResidential,Large Office,98109.0,7,LAKE UNION,47.62146,-122.33976,12,480702,163260,99.0,0.0,147.14,2
NonResidential,Mixed Use Property,98199.0,7,MAGNOLIA / QUEEN ANNE,47.66144,-122.38723,2,25532,0,,0.0,4.38,2
NonResidential,Other,98134.0,2,GREATER DUWAMISH,47.58542,-122.32185,2,108036,0,,0.0,91.98,1
NonResidential,Large Office,98109.0,7,LAKE UNION,47.62263,-122.33976,12,483397,166208,98.0,0.0,202.12,1
Nonresidential COS,Large Office,98109.0,7,LAKE UNION,47.62251,-122.3339,13,536697,197659,98.0,0.0,245.16,2
NonResidential,Hotel,98103.0,4,LAKE UNION,47.65476,-122.34732,4,126823,41539,72.0,0.0,131.02,2
NonResidential,Warehouse,98108.0,2,GREATER DUWAMISH,47.54425,-122.31776,1,52085,4222,37.0,0.0,157.7,61
NonResidential,Small- and Mid-Sized Office,98108.0,2,GREATER DUWAMISH,47.53161,-122.29944,2,24990,0,9.0,0.0,134.8,87
NonResidential,Other,98155.0,4,NORTHEAST,47.68109,-122.2618,1,72000,0,,0.0,67.65,3
NonResidential,K-12 School,98144.0,3,GREATER DUWAMISH,47.58831,-122.3065,3,45000,0,77.0,0.0,9.24,1
NonResidential,Mixed Use Property,98109.0,7,LAKE UNION,47.62497,-122.33883,6,345290,85028,,0.0,1000.06,1
Nonresidential COS,Mixed Use Property,,5,NORTH,47.70541,-122.32232,1,20616,0,,0.0,4.44,11
Nonresidential COS,Other,,3,CENTRAL,47.59905,-122.29787,1,11685,0,,0.0,29.18,3
Nonresidential COS,Other,,6,BALLARD,47.6933,-122.37717,1,11968,0,,0.0,23.0,6
Nonresidential COS,Other,,5,NORTH,47.72126,-122.29735,1,11285,0,,0.0,14.37,67
Nonresidential COS,Other,,6,BALLARD,47.67295,-122.39228,1,16795,0,,0.0,24.73,105
Nonresidential COS,Other,,6,BALLARD,47.67734,-122.37624,1,12769,0,,0.0,216.18,44
Nonresidential COS,Office,,7,MAGNOLIA / QUEEN ANNE,47.63572,-122.37525,1,13661,0,75.0,0.0,3.5,64
Nonresidential COS,Other,,3,EAST,47.63228,-122.31574,1,23445,0,,0.0,259.22,104
Nonresidential COS,Mixed Use Property,,3,CENTRAL,47.60775,-122.30225,1,20050,0,,0.0,60.81,22
Nonresidential COS,Office,,2,SOUTHEAST,47.5644,-122.27813,1,15398,0,93.0,0.0,7.79,56
Nonresidential COS,Other,,1,DELRIDGE,47.54067,-122.37441,1,18261,0,,0.0,20.33,34
Nonresidential COS,Office,,2,GREATER DUWAMISH,47.56722,-122.31154,1,12294,0,46.0,0.0,20.94,26
Nonresidential COS,Other,,2,DOWNTOWN,47.59625,-122.32283,1,16000,0,,0.0,32.17,12
Nonresidential COS,Other,,7,MAGNOLIA / QUEEN ANNE,47.63644,-122.35784,1,13157,0,,0.0,223.54,42
Nonresidential COS,Mixed Use Property,,1,GREATER DUWAMISH,47.52832,-122.32431,1,14101,0,,0.0,22.11,27
Nonresidential COS,Mixed Use Property,,2,GREATER DUWAMISH,47.53939,-122.29536,1,18258,0,,0.0,41.27,78
